event_id,sta_lat,sta_lon,mmi,pga,pgv,psa03,psa10,psa30,r_hypo,hypo_lat,hypo_lon,magnitude,hypo_depth,n_dyfi,vs30,inst_to_mmi_dist,std_mmi_boot,mean_mmi_boot,std_pga_at_dyfi,std_pgv_at_dyfi,std_psa03_at_dyfi,std_psa10_at_dyfi,std_psa30_at_dyfi,mmi_from_pgv,mmi_res_pgv,mmi_from_pga,mmi_res_pga,mmi_from_psa03,mmi_res_psa03,mmi_from_psa10,mmi_res_psa10,mmi_from_psa30,mmi_res_psa30,CA Vs30,ztor,dip,r_rup,r_rup_var,r_jb,r_jb_var,r_x,r_y,r_y0,width
9627953,33.99351,-117.37545,4.341701836,2.40345,0.0434,1.550961,0.143226,0.018639,52.22197866,34.2875,-116.94183,4.22,8.12,2,343.0,1.391218502,0.6126778576,4.290982799,0.1230819446,0.1140709222,0.1574795518,0.1308924407,0.08834505693,1.80375271304,2.53794912296,2.49533469592,1.84636714008,1.49695047528,2.84475136072,1.08334119483,3.25836064117,1.42809334938,2.91360848662,447.25363,0.0,90.0,50.9881781367,1.70325764144,50.4917498957,1.06426524301,0.0,0.0,0.0,0.0
9627953,33.8084,-116.968,2.691169465,5.897772,0.1548,7.434018,0.663156,0.043164,53.94267747,34.2875,-116.94183,4.22,8.12,1,252.0,0.7077688282,0.0,2.691169465,0.112175022,0.1023560792,0.1467055575,0.1174500632,0.07115173758,2.72936330583,-0.0381938408299,3.11396743124,-0.422797966244,2.72177807824,-0.0306086132423,2.4284167685,0.262752696502,2.24986439387,0.441305071132,281.27722,0.0,90.0,52.709816748,1.69069294754,52.2324211946,1.06468330694,0.0,0.0,0.0,0.0
9627953,33.82843,-117.78938,2.0,0.538569,0.0185,0.872109,0.103986,0.005886,93.63595833,34.2875,-116.94183,4.22,8.12,1,394.0,1.949392475,0.0,2.0,0.1288891734,0.1203809013,0.1631206873,0.1381329236,0.09822815238,1.00016265063,0.999837349365,1.53476205484,0.465237945157,1.16904626811,0.830953731891,1.0,1.0,1.0,1.0,430.1118,0.0,90.0,92.3678757165,1.5159297909,92.1797793727,1.07098264752,0.0,0.0,0.0,0.0
9627953,34.13677,-118.1283,2.237216143,1.235079,0.0406,1.783458,0.183447,0.042183,110.678046,34.2875,-116.94183,4.22,8.12,2,398.0,1.32252344,0.0,2.237216143,0.1222315011,0.113150975,0.1566480716,0.1298368331,0.086938587,1.74090149286,0.496314650137,2.35857629694,-0.121360153937,1.80914642858,0.428069714419,1.15674978547,1.08046635753,2.06026933448,0.176946808523,499.65768,0.0,90.0,109.401019303,1.48331518627,109.274732595,1.07230126028,0.0,0.0,0.0,0.0
9627953,34.14844,-118.17113,3.449768282,0.334521,0.0129,0.830907,0.081423,0.005886,114.3717548,34.2875,-116.94183,4.22,8.12,1,891.0,0.8898970203,0.0,3.449768282,0.1157647427,0.1061913725,0.1502785648,0.1218509297,0.07660412675,1.0,2.449768282,1.19319433401,2.25657394799,1.18081670978,2.26895157222,1.0,2.449768282,1.0,2.449768282,896.5088,0.0,90.0,113.093283337,1.47769634239,112.977820981,1.0725299925,0.0,0.0,0.0,0.0
9627953,34.1183,-118.2994,2.0,0.663156,0.0209,1.624536,0.112815,0.005886,126.5170564,34.2875,-116.94183,4.22,8.12,2,839.0,1.752539831,0.0,2.0,0.1270297495,0.1183552245,0.1613212782,0.1358085295,0.09501191393,1.11511744086,0.884882559139,1.85606125352,0.143938746484,1.76617457686,0.23382542314,1.0,1.0,1.0,1.0,881.5123,0.0,90.0,125.229857749,1.45922704653,125.149975339,1.07328184167,0.0,0.0,0.0,0.0
9627953,34.1192,-118.3004,2.0,0.604296,0.021,1.502892,0.110853,0.007848,126.592315,34.2875,-116.94183,4.22,8.12,2,682.0,1.888140203,0.0,2.0,0.1283288961,0.119770013,0.1625791587,0.1374319504,0.09725405335,1.11961586957,0.880384130427,1.77236343554,0.227636564458,1.70143052574,0.298569474258,1.0,1.0,1.0,1.0,577.4633,0.0,90.0,125.305045709,1.45911262638,125.225383721,1.07328649949,0.0,0.0,0.0,0.0
9627953,34.241,-116.872,3.669173439,10.791,0.29,14.5188,2.20725,0.60822,11.56932072,34.2875,-116.94183,4.22,8.12,3,316.0,0.8487544822,0.5173693778,3.343090458,0.1150139356,0.1053875172,0.1495335129,0.1209285336,0.07544662336,3.13012505691,0.539048382089,2.83864955552,0.830523883485,2.81189831858,0.857275120419,3.54461893283,0.124554506168,3.97523908303,-0.306065644029,351.9,0.0,90.0,10.029023986,2.79329420891,7.24648794704,0.959777612826,0.0,0.0,0.0,0.0
9630113,33.8084,-116.968,2.691169465,3.7278,0.0828,3.654225,0.200124,0.016677,26.74474383,33.67467,-116.80883,3.29,16.66,3,252.0,0.8591099575,0.3021631734,2.606587559,0.1152058475,0.1055929045,0.1497240662,0.1211642084,0.07574163499,2.49730459507,0.193864869926,2.65246466177,0.0387048032274,2.01771777695,0.673451688048,1.81069425255,0.880475212453,1.62239268675,1.06877677825,281.27722,0.0,90.0,26.0637291792,0.402279869909,20.5082944582,0.15195904142,0.0,0.0,0.0,0.0
9630113,33.82434,-116.51209,3.091584673,7.737147,0.1308,2.414241,0.157941,0.015696,36.15556515,33.67467,-116.80883,3.29,16.66,1,273.0,1.211695947,0.0,3.091584673,0.1207745464,0.1115774485,0.1552203291,0.1280312658,0.08455420716,2.78921338366,0.302371289337,3.27756888651,-0.18598421351,1.77012868219,1.32145599081,1.52344995136,1.56813472164,1.45692392233,1.63466075067,293.50043,0.0,90.0,35.5814728947,0.392295189208,31.6725549131,0.152659707864,0.0,0.0,0.0,0.0
9630113,33.57508,-117.26119,2.237216143,3.205908,0.0561,1.003563,0.05886,0.005886,46.41604804,33.67467,-116.80883,3.29,16.66,1,401.0,0.847530799,0.0,2.237216143,0.1149911233,0.1053631069,0.149510857,0.1209005236,0.07541159486,2.21304940893,0.0241667340741,2.79515557408,-0.557939431084,1.10325140453,1.13396473847,1.0,1.237216143,1.0,1.237216143,677.68884,0.0,90.0,45.8861978203,0.35642750584,42.9061249677,0.153001340321,0.0,0.0,0.0,0.0
9630113,33.81841,-116.36874,2.237216143,4.233996,0.09,1.610802,0.11772,0.012753,46.78364044,33.67467,-116.80883,3.29,16.66,1,244.0,1.368111521,0.0,2.237216143,0.1228000522,0.1137658732,0.1572041,0.1305424075,0.08787767205,2.55053648888,-0.313320345876,2.98588899496,-0.748672851957,1.49986215246,0.737353990539,1.19162086351,1.04559527949,1.08202079815,1.15519534485,293.5,0.0,90.0,46.2535059183,0.354959480517,43.2997022182,0.153010575672,0.0,0.0,0.0,0.0
9639729,34.12084,-117.63793,2.509329332,4.391937,0.1069,4.310514,0.247212,0.02943,12.70668097,34.04767,-117.5705,3.35,7.53,8,368.0,1.500900834,0.3325077688,2.683409904,0.1243667181,0.1154627166,0.1587330387,0.1324894767,0.09049004301,2.64959722666,-0.140267894657,2.42295964066,0.0863696913379,1.94502406775,0.564305264246,2.15080705773,0.358522274273,2.59585984298,-0.0865305109816,351.90024,0.0,90.0,12.0460230609,0.457597213232,9.80336601248,0.169651874395,0.0,0.0,0.0,0.0
9639729,34.09957,-117.43876,2.58323659,10.55556,0.2595,6.166566,0.32373,0.036297,15.40248975,34.04767,-117.5705,3.35,7.53,4,295.0,1.3837415,0.09282251467,2.601145506,0.1229911793,0.113972688,0.157390877,0.1307797204,0.08819443742,3.21578192241,-0.632545332411,3.09846864332,-0.515232053317,2.25797855688,0.325258033118,2.36399932062,0.21923726938,2.65479547478,-0.0715588847841,293.50055,0.0,90.0,14.8088997579,0.44565488452,13.0007344883,0.170814112675,0.0,0.0,0.0,0.0
9639729,34.0602,-117.809,3.449768282,2.21706,0.0507,1.60884,0.161865,0.011772,23.26832603,34.04767,-117.5705,3.35,7.53,1,342.0,1.957519972,0.0,3.449768282,0.1289623559,0.1204607273,0.1631913788,0.1382245212,0.09835570191,2.10686727175,1.34290101025,2.23078539961,1.21898288239,1.31684856372,2.13291971828,1.62296886618,1.82679941582,1.12238898902,2.32737929298,293.50122,0.0,90.0,22.7353165726,0.379761705191,21.575878295,0.172287687971,0.0,0.0,0.0,0.0
9639729,33.78816,-117.844,1.0,0.40221,0.0155,0.669042,0.069651,0.006867,39.06760467,34.04767,-117.5705,3.35,7.53,1,232.0,1.988824678,0.0,1.0,0.1292417747,0.1207655807,0.1634611975,0.1385743299,0.09884336364,1.0,0.0,1.03172360755,-0.0317236075532,1.0,0.0,1.0,0.0,1.0,0.0,447.0045,0.0,90.0,38.5456355959,0.300512982894,37.891677667,0.173273141382,0.0,0.0,0.0,0.0
9644101,33.82843,-117.78938,2.718743473,5.710401,0.2316,19.734777,2.513322,0.36297,11.41124315,33.87767,-117.68817,3.64,3.59,12,394.0,1.451069179,0.3017119764,2.615428976,0.1237935323,0.1148414855,0.1581742011,0.1317766355,0.08953009807,3.09096567593,-0.372222202931,2.5027427732,0.216000699802,3.03359291375,-0.31484944075,3.80090551143,-1.08216203843,3.83814251715,-1.11939904415,430.1118,0.0,90.0,10.7782396292,0.643562833555,10.2524244926,0.308023892932,0.0,0.0,0.0,0.0
9644101,33.78816,-117.844,2.352009968,5.934069,0.2292,11.308968,1.35378,0.167751,17.86392427,33.87767,-117.68817,3.64,3.59,11,232.0,1.234812332,0.1904690072,2.289696553,0.1210877626,0.1119154575,0.1555276167,0.1284191195,0.08506410123,3.08431548154,-0.732305513544,2.72714283807,-0.375132870075,2.7417216302,-0.389711662196,3.29979293683,-0.947782968834,3.33500492069,-0.982994952686,447.0045,0.0,90.0,17.2178137299,0.540797092914,16.9091446626,0.312655017798,0.0,0.0,0.0,0.0
9644101,33.8717,-117.92251,2.843519193,6.144984,0.3386,18.404541,2.772306,0.328635,21.94027602,33.87767,-117.68817,3.64,3.59,4,295.0,0.5925261084,0.2370650911,2.696228943,0.1094616119,0.09947077355,0.143986267,0.1141392747,0.06716925706,3.33343982205,-0.489920629046,2.84170401542,0.0018151775793,3.15271916741,-0.309199974405,3.72610551742,-0.882586324418,3.62582072153,-0.782301528531,293.62802,0.0,90.0,21.2871802355,0.508858298177,21.0511169581,0.313956647874,0.0,0.0,0.0,0.0
9644101,33.94551,-117.92368,2.054308463,4.233015,0.1817,12.276234,0.573885,0.063765,23.28336656,33.87767,-117.68817,3.64,3.59,3,333.0,1.731289503,0.1363913864,2.130923903,0.1268182495,0.1181251257,0.1611162021,0.1355444991,0.09464911126,2.93605174314,-0.881743280143,2.61712380682,-0.562815343816,2.8709982631,-0.816689800099,2.68059710996,-0.626288646958,2.77791882208,-0.723610359085,342.56732,0.0,90.0,22.6246256559,0.49931156529,22.4105409026,0.314348084173,0.0,0.0,0.0,0.0
9644101,33.7902,-118.1985,1.0,0.505215,0.0344,1.248813,0.644517,0.256041,48.26307888,33.87767,-117.68817,3.64,3.59,1,207.0,1.968977661,0.0,1.0,0.1290650748,0.1205727836,0.163290585,0.1383531019,0.09853485208,1.68913182038,-0.68913182038,1.28202642608,-0.282026426085,1.29572884047,-0.295728840469,2.60159652859,-1.60159652859,3.30383511692,-2.30383511692,228.18095,0.0,90.0,47.573594639,0.438037697774,47.5283970056,0.317196608961,0.0,0.0,0.0,0.0
9644101,34.13677,-118.1283,1.0,0.564075,0.0219,1.413621,0.187371,0.032373,49.88828939,33.87767,-117.68817,3.64,3.59,1,398.0,1.588872533,0.0,1.0,0.1253392407,0.1165178537,0.1596797901,0.13370021,0.09212967182,1.2635637292,-0.263563729203,1.39624776746,-0.396247767464,1.40772330205,-0.407723302046,1.5144667127,-0.514466712704,2.24482838723,-1.24482838723,499.65768,0.0,90.0,49.196432234,0.435989827458,49.1577306513,0.317304326414,0.0,0.0,0.0,0.0
9644101,33.854,-117.817,2.011329383,14.715,0.77,31.33314,7.48503,1.70694,12.70054363,33.87767,-117.68817,3.64,3.59,4,293.0,1.8068921,0.1443811785,2.093656952,0.1275606845,0.1189331298,0.161835723,0.1364716559,0.09592541386,3.857941366,-1.846611983,3.18735708424,-1.17602770124,3.40079069062,-1.38946130762,4.49378330221,-2.48245391921,4.5982901902,-2.5869608072,351.89532,0.0,90.0,12.0711988094,0.618031095325,11.6002625076,0.309301164657,0.0,0.0,0.0,0.0
9644101,34.065,-117.893,2.0,9.81,0.35,15.1074,2.57022,0.73575,28.34714299,33.87767,-117.68817,3.64,3.59,2,369.0,1.155879265,0.8339668085,2.532135431,0.1199962183,0.1107381504,0.1544558929,0.1270682003,0.08329359991,3.35458002519,-1.35458002519,3.27007635602,-1.27007635602,3.07458689807,-1.07458689807,3.6219495778,-1.6219495778,3.9719176672,-1.9719176672,430.6017,0.0,90.0,27.680386508,0.476902952621,27.5222614989,0.315304392992,0.0,0.0,0.0,0.0
9644101,33.869,-117.709,4.608273166,142.245,5.43,265.83138,37.66059,11.29131,4.185176223,33.87767,-117.68817,3.64,3.59,30,323.0,1.420938353,0.1739957784,4.616605059,0.1234385646,0.1144570054,0.1578278044,0.1313354578,0.0889380228,5.4567674615,-0.848494295501,5.85798576325,-1.24971259725,5.43848395135,-0.830210785351,5.60421353146,-0.995940365463,5.73480691507,-1.12653374907,351.75992,0.0,90.0,3.32653310868,0.690152269198,1.68273296087,0.210450211245,0.0,0.0,0.0,0.0
9644101,33.863,-117.742,4.532809637,97.119,4.58,171.13545,28.08603,9.57456,6.344178482,33.87767,-117.68817,3.64,3.59,32,346.0,1.218580526,0.1777866477,4.512889605,0.1208683702,0.1116786836,0.1553123973,0.1281474296,0.08470678983,5.22313491049,-0.690325273492,5.24477437499,-0.711964737987,4.64664161568,-0.113831978682,5.41184441768,-0.879034780678,5.53368257351,-1.00087293651,447.08914,0.0,90.0,5.64146567453,0.76560107582,4.68057164087,0.290399740266,0.0,0.0,0.0,0.0
9645945,33.57508,-117.26119,1.0,1.222326,0.0246,1.149732,0.047088,0.004905,50.08381478,33.7045,-116.77617,3.4,16.89,1,401.0,0.847530799,0.0,1.0,0.1149911233,0.1053631069,0.149510857,0.1209005236,0.07541159486,1.41632918241,-0.416329182414,2.13734894232,-1.13734894232,1.23644874612,-0.236448746122,1.0,0.0,1.0,0.0,677.68884,0.0,90.0,49.4958389995,0.433906322826,46.6820973758,0.192624091079,0.0,0.0,0.0,0.0
9652545,34.09957,-117.43876,2.843519193,8.268849,0.1562,10.55556,0.542493,0.032373,16.56471123,34.22617,-117.43967,3.84,8.73,12,295.0,1.179583484,0.295280735,2.853688526,0.1203306766,0.1110986965,0.1547845288,0.1274819144,0.08383416891,2.80351111343,0.0400080795743,2.88303730586,-0.0395181128627,2.67144436334,0.172074829655,2.65815903448,0.18536015852,2.475752791,0.367766401998,293.50055,0.0,90.0,15.5977849943,1.24661347781,13.3623379519,0.470241896711,0.0,0.0,0.0,0.0
9652545,34.09316,-117.31671,3.517089294,24.119847,0.8477,39.599046,2.380887,0.179523,20.56593117,34.22617,-117.43967,3.84,8.73,7,278.0,1.097033761,0.4035646769,3.389476799,0.1191393334,0.1098152009,0.1536129062,0.1260091476,0.0819164803,3.88331600924,-0.366226715241,3.69952181017,-0.182432516169,3.69822688983,-0.181137595825,3.58205683922,-0.0649675452191,3.29259948638,0.224489807618,293.72357,0.0,90.0,19.6735436685,1.1763271339,17.897735484,0.474553686584,0.0,0.0,0.0,0.0
9652545,34.23217,-117.23483,2.237216143,4.510638,0.08,4.464531,0.297243,0.023544,20.76784477,34.22617,-117.43967,3.84,8.73,1,684.0,0.8991694404,0.0,2.237216143,0.1159297705,0.1063681787,0.1504421697,0.1220538087,0.07685974923,2.37634228088,-0.139126137878,2.57523803204,-0.338021889042,2.09880671261,0.138409430386,2.07785232967,0.159363813325,2.08618548956,0.151030653435,658.82874,0.0,90.0,19.8796472686,1.17226579549,18.1202381413,0.474686879934,0.0,0.0,0.0,0.0
9652545,34.12084,-117.63793,2.471764309,4.068207,0.1575,6.83757,0.640593,0.050031,23.36778677,34.22617,-117.43967,3.84,8.73,4,368.0,1.668248247,0.1137276767,2.461405156,0.1261771928,0.1174280883,0.1604941096,0.1347446728,0.09355329142,2.80880242044,-0.337038111445,2.55799456323,-0.0862302542346,2.44240524684,0.0293590621561,2.69394047117,-0.222176162169,2.61177137167,-0.140007062671,351.90024,0.0,90.0,22.4998029027,1.12063477741,20.9488718518,0.476380141512,0.0,0.0,0.0,0.0
9652545,33.99351,-117.37545,3.022262388,10.232811,0.1096,2.117979,0.149112,0.016677,27.93668337,34.22617,-117.43967,3.84,8.73,29,343.0,1.43538722,0.1406616435,2.99888325,0.1236095963,0.1146422338,0.1579947365,0.131548001,0.08922306776,2.5773215146,0.444940873402,3.25802043362,-0.23575804562,1.59375927187,1.42850311613,1.36461853752,1.65764385048,1.49609893694,1.52616345106,447.25363,0.0,90.0,27.0965080256,1.03628112659,25.8068943604,0.478333924279,0.0,0.0,0.0,0.0
9652545,34.0046,-117.5609,3.091584673,8.239419,0.1903,8.176635,0.444393,0.052974,28.42130384,34.22617,-117.43967,3.84,8.73,1,346.0,0.4441718136,0.0,3.091584673,0.1051934054,0.09495678972,0.1396752223,0.1089596343,0.06115113734,2.92957501878,0.162009654218,3.11978650414,-0.028201831138,2.62468817276,0.466896500243,2.39009116562,0.701493507382,2.59234990726,0.499234765739,293.49994,0.0,90.0,27.5818371913,1.0275865975,26.3162631106,0.478505634556,0.0,0.0,0.0,0.0
9652545,33.99879,-117.68044,2.486840165,5.706477,0.2251,10.228887,0.60822,0.055917,34.7389338,34.22617,-117.43967,3.84,8.73,3,322.0,0.89772366,0.2072486626,2.560017796,0.1159041367,0.1063407126,0.1504167607,0.1220222923,0.07682001504,3.03679197765,-0.549951812651,2.96143323936,-0.474593074363,2.84135053553,-0.354510370528,2.57555555564,-0.0887153906379,2.57013447151,-0.0832943065069,293.49954,0.0,90.0,33.9026669463,0.935828903085,32.8896882683,0.480263722715,0.0,0.0,0.0,0.0
9652545,34.0602,-117.809,2.53908532,3.862197,0.1664,8.959473,0.55917,0.061803,39.64917219,34.22617,-117.43967,3.84,8.73,4,342.0,1.447134434,0.1291832283,2.571523368,0.1237475447,0.1147916641,0.1581293376,0.1317194671,0.08945328807,2.84389538327,-0.304810063273,2.75722207553,-0.218136755534,2.77854852128,-0.239463201277,2.49228049328,0.0468048267191,2.5882612788,-0.049175958803,293.50122,0.0,90.0,38.8074374382,0.882578298213,37.9399087945,0.481228257794,0.0,0.0,0.0,0.0
9652545,33.87574,-117.56106,2.897268929,3.406032,0.1106,6.790482,0.260946,0.026487,41.46850406,34.22617,-117.43967,3.84,8.73,4,362.0,1.051154468,0.2694508943,2.938931209,0.1184429993,0.1090660031,0.1529267799,0.1251494689,0.08080572609,2.58312003664,0.314148892356,2.69248817255,0.204780756455,2.58679372001,0.31047520899,1.80795477678,1.08931415222,2.09147533628,0.805793592718,351.81018,0.0,90.0,40.616154884,0.862941232994,39.8022634116,0.481583946491,0.0,0.0,0.0,0.0
9652545,33.94551,-117.92368,3.091584673,6.354918,0.2376,11.243241,0.408096,0.042183,55.10815118,34.22617,-117.43967,3.84,8.73,1,333.0,1.336093716,0.0,3.091584673,0.1224025072,0.1133358708,0.1568153771,0.1300489946,0.08722053476,3.07129426137,0.0202904116255,3.2382904964,-0.146705823402,3.03098685408,0.0605978189157,2.16888039132,0.922704281678,2.31269135042,0.778893322584,342.56732,0.0,90.0,54.2507590111,0.781165077459,53.6726187638,0.483075330844,0.0,0.0,0.0,0.0
9652545,33.82843,-117.78938,2.0,2.769363,0.1013,4.116276,0.244269,0.02943,55.4149508,34.22617,-117.43967,3.84,8.73,2,394.0,1.630175489,0.3070600927,2.172792366,0.1257797151,0.1169961974,0.1601080058,0.1342490928,0.09287675986,2.52704588468,-0.52704588468,2.68161822788,-0.681618227884,2.2949394348,-0.2949394348,1.68401900275,0.315980997248,2.12839079223,-0.128390792235,430.1118,0.0,90.0,54.5583723381,0.780256697025,53.983285385,0.483094301109,0.0,0.0,0.0,0.0
9652545,33.78816,-117.844,2.0,1.178181,0.0398,2.181744,0.214839,0.016677,61.9465068,34.22617,-117.43967,3.84,8.73,2,232.0,0.9091165841,0.6515140466,1.872792366,0.1161051672,0.1065561403,0.1506159918,0.1222694882,0.07713190645,1.7905462664,0.2094537336,2.1234866786,-0.123486678604,1.82599816719,0.174001832814,1.5393191128,0.460680887198,1.2989690108,0.701030989195,447.0045,0.0,90.0,61.0980245196,0.760945140709,60.5878485464,0.483497596164,0.0,0.0,0.0,0.0
9652545,34.15037,-118.10156,2.237216143,0.601353,0.0263,1.222326,0.160884,0.011772,62.07808508,34.22617,-117.43967,3.84,8.73,1,390.0,0.9373864698,0.0,2.237216143,0.1165946757,0.1070809696,0.1511007682,0.1228717117,0.07789403753,1.40010397422,0.837112168777,1.51689493053,0.720321212472,1.34344691957,0.893769223433,1.26631500351,0.970901139489,1.0,1.237216143,467.60947,0.0,90.0,61.2296055455,0.760556582676,60.7207356132,0.483505710659,0.0,0.0,0.0,0.0
9652545,34.13677,-118.1283,2.062839459,0.965304,0.0354,2.190573,0.139302,0.008829,64.71196367,34.22617,-117.43967,3.84,8.73,4,398.0,1.667796274,0.07867600774,2.065431164,0.1261725209,0.1174230106,0.1604895731,0.1347388463,0.09354532655,1.6801370786,0.382702380404,1.9628141404,0.1000253186,1.84074638668,0.222093072318,1.12172688983,0.941112569172,1.0,1.062839459,499.65768,0.0,90.0,63.8624021905,0.752781948908,63.3796647505,0.483668073097,0.0,0.0,0.0,0.0
9652545,34.14844,-118.17113,2.0,0.218763,0.0104,0.497367,0.047088,0.003924,68.39263562,34.22617,-117.43967,3.84,8.73,1,891.0,1.08051371,0.0,2.0,0.1188915756,0.1095485493,0.1533688925,0.1257031741,0.08152041054,1.0,1.0,1.0,1.0,1.0,1.0,1.0,1.0,1.0,1.0,896.5088,0.0,90.0,67.5382821799,0.741927095859,67.092030621,0.483894761639,0.0,0.0,0.0,0.0
9652545,33.664,-117.76856,2.237216143,1.534284,0.0487,1.707921,0.15696,0.010791,70.02970701,34.22617,-117.43967,3.84,8.73,1,248.0,1.314715513,0.0,2.237216143,0.1221324145,0.1130438601,0.1565511031,0.1297139224,0.08677541662,1.98073784584,0.256478297164,2.38777179179,-0.150555648794,1.65379231739,0.583423825613,1.21739565681,1.01982048619,1.0,1.237216143,293.493,0.0,90.0,69.1721354838,0.737102336191,68.7421011511,0.48399552005,0.0,0.0,0.0,0.0
