event_id,sta_lat,sta_lon,mmi,pga,pgv,psa03,psa10,psa30,r_hypo,hypo_lat,hypo_lon,magnitude,hypo_depth,n_dyfi,vs30,inst_to_mmi_dist,std_mmi_boot,mean_mmi_boot,std_pga_at_dyfi,std_pgv_at_dyfi,std_psa03_at_dyfi,std_psa10_at_dyfi,std_psa30_at_dyfi,mmi_from_pgv,mmi_res_pgv,mmi_from_pga,mmi_res_pga,mmi_from_psa03,mmi_res_psa03,mmi_from_psa10,mmi_res_psa10,mmi_from_psa30,mmi_res_psa30,CA Vs30
9627557,33.82434,-116.51208999999999,2.775114471,3.9318480000000005,0.1215,5.224806,0.376704,0.032373,34.79640025,33.81517,-116.14633,3.89,8.25,5,273.0,1.205029773,0.426516227,2.6928514310000002,0.120683255,0.1114789586,0.1551307292,0.12791825210000002,0.08440587108999999,2.4343271285634662,0.34078734243653397,2.701854830664818,0.0732596403351824,2.4737892671725805,0.3013252038274197,1.7902423829038456,0.9848720880961546,2.0670875965008033,0.7080268744991969,293.50043
9627557,34.19551,-118.3534,3.0915846730000003,0.415944,0.0059,0.339426,0.051993,0.006867,207.95373909999998,33.81517,-116.14633,3.89,8.25,1,328.0,0.7801557176,0.0,3.0915846730000003,0.11368852730000001,0.1039706296,0.1482153637,0.11930270400000001,0.07342528409,1.0,2.0915846730000003,1.0,2.0915846730000003,1.0,2.0915846730000003,1.0,2.0915846730000003,1.0,2.0915846730000003,297.53003
9627557,34.01467,-118.45617,1.0,0.083385,0.004,0.224649,0.051993,0.004905,214.45041290000003,33.81517,-116.14633,3.89,8.25,1,375.0,1.610620596,0.0,1.0,0.1255724021,0.11677102589999999,0.1599065078,0.13399071640000002,0.09252479154,1.0,0.0,1.0,0.0,1.0,0.0,1.0,0.0,1.0,0.0,473.9156
9627557,34.27128,-118.74427,2.516792781,0.114777,0.0041,0.093195,0.036297,0.004905,244.8138222,33.81517,-116.14633,3.89,8.25,1,287.0,1.3152772640000001,0.0,2.516792781,0.12213956050000001,0.1130515846,0.15655809699999998,0.129722786,0.08678717938,1.0,1.516792781,1.0,1.516792781,1.0,1.516792781,1.0,1.516792781,1.0,1.516792781,293.5622
9627721,34.23217,-117.23483,3.2152201160000002,8.585712,0.299,11.618964,2.582973,0.263889,28.79599344,34.2895,-116.94583,5.13,9.12,3,684.0,1.539700192,0.08979724285,3.2940671519999998,0.12480161529999999,0.1159343877,0.1591566325,0.1330307029,0.09122157341,3.0092366468369116,0.20598346916308863,3.2275832046665753,-0.012363088666575095,3.060383597050814,0.15483651894918626,3.1225249794159318,0.09269513658406847,3.133236454446492,0.08198366155350811,658.82874
9627721,34.09316,-117.31671000000001,3.6691734389999997,31.93155,1.6358,63.51680699999999,7.148547,0.722016,41.51452039,34.2895,-116.94583,5.13,9.12,3,278.0,1.573773085,0.3577600179,3.3554069760000003,0.1251757148,0.11634034039999999,0.1595207225,0.1334965196,0.09185302212000002,4.094183399666617,-0.42500996066661756,4.111770914734601,-0.4425974757346012,4.307132512622922,-0.6379590736229224,3.790092824148206,-0.12091938514820644,3.644673329618549,0.024500109381450752,293.72357
9627721,34.09957,-117.43876000000002,2.237216143,3.5796690000000004,0.1696,6.549156,1.3586850000000001,0.125568,50.83866593,34.2895,-116.94583,5.13,9.12,1,295.0,1.11064395,0.0,2.237216143,0.1193410194,0.1100323364,0.1538114533,0.12625830300000002,0.08223959859,2.6472559964434215,-0.41003985344342153,2.638686363948279,-0.401470220948279,2.639603897550825,-0.402387754550825,2.701233340000475,-0.46401719700047517,2.7558619513316818,-0.5186458083316818,293.50055
9627721,33.99351,-117.37545,3.604825776,5.000157,0.2507,5.16006,1.252737,0.20601,52.24635276,34.2895,-116.94583,5.13,9.12,11,343.0,1.1851081140000002,0.24747590100000003,3.6224466110000004,0.1204077844,0.11118184269999999,0.15486026279999998,0.1275773218,0.08395903678,2.896756870918578,0.7080689050814222,2.863654557795572,0.7411712182044283,2.464637210838461,1.140188565161539,2.647992437033526,0.956833338966474,3.0074228616823606,0.5974029143176396,447.25363
9627721,33.8084,-116.96799999999999,2.7957807960000003,14.521742999999999,0.4931,13.602545999999998,4.403708999999999,0.60822,54.30612744,34.2895,-116.94583,5.13,9.12,4,252.0,1.148266278,0.1880852515,2.824024763,0.1198875327,0.11062102369999999,0.1543490513,0.12693380140000002,0.08311830464,3.328614453720772,-0.5328336577207717,3.581358971398809,-0.7855781753988089,3.176068824226695,-0.3802880282266945,3.4723900863222648,-0.6766092903222645,3.5575245635566324,-0.7617437675566321,281.27722
9627721,33.82434,-116.51208999999999,3.17947582,4.346811,0.271,11.762189999999999,2.885121,0.361008,65.99287308,34.2895,-116.94583,5.13,9.12,8,273.0,1.318865247,0.2500236829,3.1900450910000004,0.12218514050000001,0.11310085619999999,0.1566027044,0.1297793235,0.08686222460000001,2.9464648575853762,0.2330109624146237,2.769394588282073,0.410081231717927,3.0693757226556966,0.11010009734430337,3.195071669171443,-0.015595849171443188,3.292468234691691,-0.11299241469169097,293.50043
9627721,34.12084,-117.63793000000001,2.0,2.2033259999999997,0.0886,6.857189999999999,0.635688,0.114777,66.97578242,34.2895,-116.94583,5.13,9.12,1,368.0,0.3599495829,0.0,2.0,0.1021797937,0.09178827611,0.1366056427,0.10532387439999999,0.05708557145,2.2327275711739647,-0.2327275711739647,2.3120019912175045,-0.3120019912175045,2.673337730228843,-0.6733377302288428,2.2031224410303647,-0.2031224410303647,2.7102037450866847,-0.7102037450866847,351.90024
9627721,33.87574,-117.56106000000001,2.816322248,2.724237,0.1656,5.300343,1.122264,0.095157,73.55393177,34.2895,-116.94583,5.13,9.12,2,362.0,1.101799192,0.08275933490000001,2.796882694,0.119210198,0.1098914868,0.1536826772,0.12609668300000001,0.08202994005,2.632018688699826,0.18430355930017406,2.4548594893459734,0.36146275865402666,2.484324398359883,0.33199784964011725,2.575867479095847,0.24045476890415296,2.614949215935182,0.20137303206481816,351.81018
9627721,33.81841,-116.36873999999999,3.449768282,5.770242,0.3839,15.554735999999998,6.12144,0.37278,75.19053252,34.2895,-116.94583,5.13,9.12,1,244.0,1.3681115209999999,0.0,3.449768282,0.12280005220000001,0.1137658732,0.1572041,0.1305424075,0.08787767205,3.1688006248125853,0.2809676571874147,2.960080656998202,0.48968762500179785,3.2744985499872703,0.17526973201272966,3.688372912586229,-0.23860463058622905,3.3087730948853435,0.14099518711465642,293.5
9627721,33.57508,-117.26118999999998,2.8972689289999995,6.0822,0.2633,9.033047999999999,1.672605,0.122625,85.09015648,34.2895,-116.94583,5.13,9.12,2,401.0,1.341737323,0.1335722837,2.924648733,0.12247317939999999,0.1134122959,0.15688450339999999,0.1301366898,0.08733718346000001,2.92806276288592,-0.030793833885920385,2.9955239944553673,-0.09825506545536777,2.875610678169375,0.02165825083062467,2.8375480009918284,0.05972092800817119,2.743811002063101,0.15345792693689875,677.68884
9627721,33.5519,-116.6129,2.0,0.248193,0.0146,0.6925859999999999,0.163827,0.027468,88.05505667,34.2895,-116.94583,5.13,9.12,1,738.0,0.7717109531,0.0,2.0,0.11351841619999999,0.103788979,0.1480459138,0.11909426619999999,0.0731678987,1.0,1.0,1.0,1.0,1.0,1.0,1.0055383684165593,0.9944616315834407,1.9644650283107241,0.035534971689275885,697.18823
9627721,34.616,-117.8244,3.9249029810000002,9.850221000000001,0.5638,30.011733000000003,3.126447,0.237402,88.82857897,34.2895,-116.94583,5.13,9.12,2,387.0,1.5749301269999998,0.4997242111,3.700115205,0.12518829380000002,0.116353994,0.15953296039999998,0.1335121867,0.09187428944,3.4141538551573074,0.5107491258426928,3.3200711747031058,0.6048318062968945,3.7568725959510614,0.16803038504893886,3.247751098011105,0.6771518829888952,3.0794902650407803,0.84541271595922,293.5044
9627721,33.82843,-117.78938000000001,3.0915846730000003,1.566657,0.1134,3.4138800000000002,1.476405,0.123606,93.54217819,34.2895,-116.94583,5.13,9.12,1,394.0,1.063906623,0.0,3.0915846730000003,0.1186391624,0.1092769834,0.1531201664,0.1253915616,0.08111787482,2.390281190198625,0.7013034828013751,2.082439495747723,1.0091451772522775,2.1614402254883633,0.9301444475116369,2.755724297059861,0.3358603759401393,2.747859824631224,0.3437248483687765,430.1118
9627721,34.0097,-117.95076999999999,2.237216143,3.058758,0.2635,6.20973,1.962981,0.213858,97.99480542,34.2895,-116.94583,5.13,9.12,1,329.0,1.32795757,0.0,2.237216143,0.1223001624,0.11322520789999999,0.1567152538,0.1299220128,0.0870517404,2.928547510736391,-0.691331367736391,2.53282484755495,-0.29560870455495003,2.6005435731479722,-0.3633274301479723,2.9425272860064484,-0.7053111430064485,3.0264203843610633,-0.7892042413610634,289.29443
9627721,34.5211,-117.9903,4.341701836,6.467733,0.4319,18.886212,2.77623,0.159903,99.64036712,34.2895,-116.94583,5.13,9.12,2,416.0,0.9156409069,0.6566868218,4.535886706,0.1162193042,0.10667847970000001,0.1507290699,0.1224098684,0.07730927101,3.2440133099498225,1.0976885260501779,3.0368956431358134,1.304806192864187,3.4169354947976345,0.9247663412023659,3.169841699807447,1.1718601361925534,2.878685783996306,1.4630160520036943,399.68585
9627721,33.78816,-117.844,2.237216143,2.426013,0.2105,4.769622,1.969848,0.152055,100.1991417,34.2895,-116.94583,5.13,9.12,2,232.0,1.8967871580000002,0.0,2.237216143,0.12840894449999998,0.1198572652,0.1626565634,0.1375320693,0.09739296428,2.7851805872523796,-0.5479644442523797,2.376814256093085,-0.139598113093085,2.4068885763360077,-0.1696724333360078,2.9448173819599712,-0.7076012389599713,2.8531143737029168,-0.6158982307029168,447.0045
9627721,33.8717,-117.92251,2.0,3.0970169999999997,0.2348,6.306849,3.1558770000000003,0.18639,101.6475097,34.2895,-116.94583,5.13,9.12,1,295.0,0.636041813,0.0,2.0,0.11053610009999999,0.1006118974,0.145065028,0.1154486749,0.06873184426,2.854926196086098,-0.8549261960860979,2.541192477666011,-0.5411924776660109,2.611933692755562,-0.6119336927555619,3.253895284127743,-1.253895284127743,2.956567999958485,-0.9565679999584851,293.62802
9627721,33.552820000000004,-117.66127,3.0915846730000003,1.850166,0.1999,3.958335,2.533923,0.219744,105.59791809999999,34.2895,-116.94583,5.13,9.12,1,359.0,1.183030868,0.0,3.0915846730000003,0.12037882890000001,0.1111506186,0.1548318246,0.1275414932,0.08391213582999998,2.7521948073536318,0.3393898656463685,2.194406492755104,0.8971781802448962,2.2700468842268133,0.821537788773187,3.1099520354874786,-0.018367362487478278,3.040216468294646,0.05136820470535408,447.28177
9627721,33.70432,-117.88578000000001,2.662720764,1.762857,0.139,5.777108999999999,1.2105540000000001,0.192276,108.74537690000001,34.2895,-116.94583,5.13,9.12,6,213.0,1.242343622,0.4938269196,2.704886596,0.12118870400000001,0.11202442039999999,0.1556266063,0.12854415060000002,0.08522874309,2.5202317563735197,0.1424890076264802,2.161866395251984,0.500854368748016,2.547541530018882,0.11517923398111796,2.625530073308576,0.03719069069142389,2.9723658903307526,-0.3096451263307527,227.45026
9627721,33.81,-117.9817,2.0,1.9286459999999999,0.1388,4.801995,2.329875,0.23151599999999997,109.698252,34.2895,-116.94583,5.13,9.12,2,237.0,1.591969145,0.1115300982,2.071164843,0.125372609,0.11655408099999999,0.1597122425,0.1337417796,0.09218617072999999,2.519312515194689,-0.5193125151946889,2.2223713216520555,-0.22237132165205553,2.411853359693817,-0.4118533596938172,3.0548962392467054,-1.0548962392467054,3.0667333303187,-1.0667333303187,229.89532
9627721,34.13677,-118.1283,2.423981464,2.986164,0.2378,7.132851,1.205649,0.23347800000000002,110.426321,34.2895,-116.94583,5.13,9.12,19,398.0,1.03900906,0.1342374299,2.408151192,0.11825423189999999,0.10886303259999999,0.1527406108,0.1249165673,0.08050591017999999,2.863031419915529,-0.43904995591552876,2.5166560802858036,-0.09267461628580342,2.7022654076667747,-0.27828394366677456,2.622867525324314,-0.19888606132431397,3.0710213265997943,-0.6470398625997942,499.65768
9627721,33.48725,-117.68113999999998,2.0,1.962981,0.1387,4.45374,1.95219,0.23838299999999998,112.4611057,34.2895,-116.94583,5.13,9.12,9,324.0,1.393067778,0.2141525561,2.09572836,0.1231043278,0.1140951492,0.157501417,0.1309202403,0.0883822192,2.518852397777729,-0.5188523977777288,2.234249863119202,-0.23424986311920204,2.3565956945471473,-0.35659569454714735,2.938912327544426,-0.938912327544426,3.0815856269537005,-1.0815856269537005,351.9
9627721,34.14844,-118.17113,2.379877634,0.749484,0.0791,1.541151,0.777933,0.05787899999999999,114.11291509999998,34.2895,-116.94583,5.13,9.12,2,891.0,1.846411435,0.3346178512,2.593389746,0.1279380336,0.1193441061,0.1622010371,0.1369432369,0.0965770343,2.1603194307415845,0.21955820325841557,1.4498142513373025,0.9300633826626976,1.5109475665073955,0.8689300674926046,2.3355466950153505,0.04433093898464957,2.3623231404649836,0.01755449353501648,896.5088
9627721,34.1183,-118.2994,2.0,1.392039,0.0912,4.124124,0.8603370000000001,0.054936,126.2542721,34.2895,-116.94583,5.13,9.12,3,839.0,1.596620273,0.18257418579999998,1.966666667,0.12542262210000002,0.11660838220000001,0.15976087890000001,0.1338040883,0.09227088222999999,2.251192412342772,-0.251192412342772,2.002889588692159,-0.002889588692159162,2.300161278650628,-0.300161278650628,2.4015735681484904,-0.40157356814849043,2.33580627844093,-0.33580627844093014,881.5123
9627721,34.1192,-118.3004,2.0,1.364571,0.0865,3.8268809999999998,0.821097,0.053954999999999996,126.3292451,34.2895,-116.94583,5.13,9.12,3,682.0,1.6869898269999999,0.0,2.0,0.1263699523,0.1176376186,0.1606812471,0.1349851015,0.09388218529999999,2.2174136779732767,-0.2174136779732767,1.991100495883324,0.00889950411667595,2.245258659245569,-0.245258659245569,2.370959623735591,-0.3709596237355912,2.326650633551941,-0.326650633551941,577.4633
9627721,34.01916,-118.28596999999999,3.2753915989999998,1.722636,0.1695,4.11039,1.124226,0.095157,127.2527239,34.2895,-116.94583,5.13,9.12,2,335.0,0.9668896953,0.1289887817,3.2551248580000003,0.11709201400000001,0.1076145747,0.1515927913,0.123484005,0.07867223268,2.6468794627324783,0.6285121362675214,2.146329868666704,1.1290617303332957,2.2977130020316814,0.9776785969683184,2.577012954789139,0.6983786442108606,2.614949215935182,0.6604423830648178,336.3873
9627721,33.16,-117.23,2.0,2.101302,0.0489,1.279224,0.325692,0.063765,128.638328,34.2895,-116.94583,5.13,9.12,1,650.0,0.6828863601999999,0.0,2.0,0.1116235479,0.10176870140000001,0.1461541992,0.1167760675,0.07033257772000001,1.7758002242982562,0.22419977570174376,2.2800870488016214,-0.2800870488016214,1.3556222667107771,0.6443777332892229,1.6531132676640632,0.3468867323359368,2.4115349141158164,-0.41153491411581644,707.88544
9627721,34.19551,-118.3534,2.0,2.490759,0.1587,6.585453,2.062062,0.121644,130.1252646,34.2895,-116.94583,5.13,9.12,2,328.0,1.6585816999999998,0.0,2.0,0.1260770308,0.11731923289999999,0.1603968416,0.134619765,0.09338259841,2.6048480823296267,-0.6048480823296267,2.3945440620873435,-0.3945440620873435,2.6436604369611576,-0.6436604369611576,2.974819576821026,-0.9748195768210262,2.7397296584834905,-0.7397296584834905,297.53003
9627721,34.07618,-118.3959,2.3013614419999997,2.229813,0.1819,3.9004559999999997,1.2919770000000002,0.11183399999999999,135.7839606,34.2895,-116.94583,5.13,9.12,6,285.0,1.4051916230000001,0.38513283979999996,2.311808635,0.1232504331,0.1142533075,0.1576441175,0.1311017215,0.08862497568,2.6919540676233207,-0.390592625623321,2.320046001106779,-0.018684559106779464,2.259235678194358,0.042125763805641814,2.6682187023580624,-0.36685726035806265,2.6970049629073483,-0.39564352090734856,351.37506
9627721,34.00033,-118.37794,3.0915846730000003,0.9535319999999999,0.0812,2.342628,1.058499,0.123606,135.96365269999998,34.2895,-116.94583,5.13,9.12,2,359.0,1.4714350630000002,1.366877747e-15,3.0915846730000003,0.12402983460000001,0.1150975367,0.158404664,0.13207044539999999,0.08992526578,2.1770473629845277,0.9145373100154726,1.6673258965465183,1.424258776453482,1.860115190348723,1.2314694826512773,2.537506563636964,0.5540781093630365,2.747859824631224,0.3437248483687765,525.505
9627721,34.416,-118.449,2.0,2.402469,0.156,7.367310000000001,2.183706,0.100062,139.004568,34.2895,-116.94583,5.13,9.12,4,321.0,0.7145652578,0.209386445,2.173208089,0.1123227172,0.1025134733,0.1468531094,0.1176306675,0.07137196511,2.593893159581058,-0.5938931595810581,2.3702494926763813,-0.3702494926763813,2.7260027967556866,-0.7260027967556866,3.0124071737637905,-1.0124071737637905,2.6404884878051194,-0.6404884878051194,286.03976
9627721,34.01467,-118.45617,2.471764309,1.754028,0.1293,4.628358,1.215459,0.14715,142.59113100000002,34.2895,-116.94583,5.13,9.12,2,375.0,0.4552268507,0.16989827300000002,2.4335534819999998,0.1055512625,0.09533407637,0.1400382894,0.10939255769999999,0.06164404295,2.4740498315741792,-0.002285522574179133,2.158486523145917,0.31327778585408295,2.384822215987427,0.08694209301257327,2.6281818547936253,-0.1564175457936252,2.8364530599388225,-0.36468875093882236,473.9156
9627721,34.22869,-118.55828999999999,2.0,2.4819299999999997,0.2218,7.4987639999999995,2.5456950000000003,0.22366799999999998,148.6220536,34.2895,-116.94583,5.13,9.12,2,285.0,1.336261435,0.1160842066,2.08302565,0.12240461119999999,0.11333814589999999,0.1568174352,0.13005160529999998,0.08722400649,2.8185634664653176,-0.8185634664653176,2.392153683555592,-0.3921536835555921,2.7389832496858695,-0.7389832496858695,3.112991599064329,-1.1129915990643289,3.049210057834206,-1.0492100578342058,292.94907
9627721,34.44209,-118.58228000000001,2.037181979,1.132074,0.1103,3.258882,0.92214,0.19423800000000002,151.4315149,34.2895,-116.94583,5.13,9.12,1,362.0,0.7023416648,0.0,2.037181979,0.1120561939,0.10222947339999999,0.1465868104,0.1173047874,0.07097481139999999,2.37258600328708,-0.33540402428707994,1.8223681478448692,0.21481383115513086,2.1273366747336273,-0.09015469573362722,2.447067241101314,-0.40988526210131404,2.9775245594496678,-0.9403425804496677,351.81604
9627721,32.841,-117.24799999999999,2.516792781,0.646479,0.0165,1.073214,0.11772,0.008829,163.7349399,34.2895,-116.94583,5.13,9.12,1,439.0,1.140214504,0.0,2.516792781,0.11977189710000001,0.1104964269,0.15423535189999998,0.1267908308,0.08293199868,1.0,1.516792781,1.3162617278554078,1.200531053144592,1.2092025494656777,1.3075902315343222,1.0,1.516792781,1.0,1.516792781,502.5
9627721,34.904,-116.823,3.449768282,17.658,0.56,23.62248,8.26983,1.1870100000000001,69.84600918,34.2895,-116.94583,5.13,9.12,1,311.0,0.4859013178,0.0,3.449768282,0.1065060836,0.09634180161,0.1410055452,0.11054888759999999,0.06296968138999999,3.4098363996991146,0.0399318823008854,3.7129892586431983,-0.2632209766431983,3.5811707587886215,-0.1314024767886215,3.88564381984913,-0.4358755378491299,3.897285170113922,-0.4475168881139222,290.95303
9627721,34.004,-117.05799999999999,3.5690647330000003,11.772,0.47,14.626710000000001,4.45374,1.1477700000000002,34.60556817,34.2895,-116.94583,5.13,9.12,7,331.0,1.208616355,0.17186613620000002,3.5239381130000003,0.1207324268,0.11153200619999999,0.1551789919,0.1279791223,0.08448575286,3.2979838511655046,0.27108088183449564,3.440047807106893,0.1290169258931071,3.2293485206542027,0.3397162123457975,3.4797985199799957,0.08926621302000459,3.880203745086685,-0.3111390120866848,447.2265
9627721,33.961999999999996,-116.509,3.742737978,30.410999999999998,2.11,97.35444,15.4017,4.6205099999999995,55.0100363,34.2895,-116.94583,5.13,9.12,6,379.0,1.14886736,0.2709109604,3.6622142639999997,0.1198961368,0.1106302954,0.1543575103,0.1269444403,0.08313217526000001,4.256695209287608,-0.5139572312876082,4.078927501176197,-0.33618952317619666,4.620571920182932,-0.8778339421829315,4.293452657303712,-0.5507146793037121,4.587860748184484,-0.8451227701844841,368.41217
9627721,34.282,-116.45299999999999,4.341701836,31.392,1.39,130.33566000000002,9.39798,3.0312900000000003,46.19486583,34.2895,-116.94583,5.13,9.12,1,398.0,1.063135825,0.0,4.341701836,0.11862736369999999,0.10926429189999999,0.153108537,0.1253769985,0.0810990831,3.9902317563735195,0.3514700796264809,4.100299342128928,0.24140249387107193,4.834707582516988,-0.4930057465169879,3.969506100874371,0.3721957351256293,4.373677707770732,-0.031975871770731246,447.2805
