event_id,sta_lat,sta_lon,mmi,pga,pgv,psa03,psa10,psa30,r_hypo,hypo_lat,hypo_lon,magnitude,hypo_depth,n_dyfi,vs30,inst_to_mmi_dist,std_mmi_boot,mean_mmi_boot,std_pga_at_dyfi,std_pgv_at_dyfi,std_psa03_at_dyfi,std_psa10_at_dyfi,std_psa30_at_dyfi,mmi_from_pgv,mmi_res_pgv,mmi_from_pga,mmi_res_pga,mmi_from_psa03,mmi_res_psa03,mmi_from_psa10,mmi_res_psa10,mmi_from_psa30,mmi_res_psa30,CA Vs30
9652545,33.82843,-117.78938000000001,2.0,2.7693630000000002,0.1013,4.116276,0.24426900000000001,0.02943,55.41495079999999,34.22617,-117.43966999999999,3.84,8.73,2,394.0,1.630175489,0.3070600927,2.172792366,0.1257797151,0.1169961974,0.1601080058,0.1342490928,0.09287675985999999,2.3182458846796123,-0.31824588467961235,2.4659187368607993,-0.4659187368607993,2.2987632636100117,-0.2987632636100117,1.3819962092240514,0.6180037907759486,2.0186581548656806,-0.018658154865680565,430.1118
9652545,33.78816,-117.844,2.0,1.178181,0.0398,2.1817439999999997,0.21483899999999997,0.016677,61.946506799999995,34.22617,-117.43966999999999,3.84,8.73,2,232.0,0.9091165841,0.6515140466,1.8727923659999999,0.11610516720000001,0.10655614029999999,0.1506159918,0.1222694882,0.07713190645,1.581746266399903,0.4182537336000971,1.8584295208979125,0.14157047910208753,1.8007880744178846,0.19921192558211542,1.2610073552293597,0.7389926447706403,1.216818598935113,0.783181401064887,447.0045
9652545,34.15037,-118.10156,2.237216143,0.601353,0.0263,1.222326,0.160884,0.011772,62.07808508,34.22617,-117.43966999999999,3.84,8.73,1,390.0,0.9373864698000001,0.0,2.237216143,0.1165946757,0.1070809696,0.1511007682,0.1228717117,0.07789403753,1.1913039742227753,1.0459121687772246,1.2508978524981713,0.9863182905018286,1.3176839324910963,0.9195322105089037,1.0,1.237216143,1.0,1.237216143,467.60947
9652545,34.13677,-118.1283,2.062839459,0.965304,0.0354,2.190573,0.139302,0.008829,64.71196367,34.22617,-117.43966999999999,3.84,8.73,4,398.0,1.667796274,0.07867600774,2.065431164,0.1261725209,0.1174230106,0.1604895731,0.13473884630000002,0.09354532654999999,1.47133707859596,0.59150238040404,1.678409870237058,0.3844295887629421,1.8041556395278073,0.25868381947219277,1.0,1.062839459,1.0,1.062839459,499.65768
9652545,34.14844,-118.17113,2.0,0.218763,0.0104,0.497367,0.047088,0.003924,68.39263562,34.22617,-117.43966999999999,3.84,8.73,1,891.0,1.08051371,0.0,2.0,0.11889157560000001,0.10954854929999999,0.1533688925,0.1257031741,0.08152041053999999,1.0,1.0,1.0,1.0,1.0,1.0,1.0,1.0,1.0,1.0,896.5088
9652545,33.664,-117.76856000000001,2.237216143,1.534284,0.0487,1.707921,0.15696,0.010791,70.02970701,34.22617,-117.43966999999999,3.84,8.73,1,248.0,1.314715513,0.0,2.237216143,0.1221324145,0.1130438601,0.1565511031,0.12971392240000001,0.08677541662,1.7719378458357564,0.4652782971642435,2.068383836255009,0.16883230674499083,1.5966229317759222,0.6405932112240778,1.0,1.237216143,1.0,1.237216143,293.493
9652545,33.70432,-117.88578000000001,2.237216143,1.01043,0.04,1.9826009999999998,0.131454,0.013734,71.66544379999999,34.22617,-117.43966999999999,3.84,8.73,1,213.0,1.6822173269999998,0.0,2.237216143,0.1263210447,0.1175844508,0.1606337725,0.1349240933,0.09379868755000001,1.5864701811816788,0.6507459618183211,1.7196814928866249,0.5175346501133751,1.7209766131800304,0.5162395298199696,1.0,1.237216143,1.0,1.237216143,227.45026
9652545,33.84822,-118.09624,2.379877634,4.558707,0.1581,8.371853999999999,0.39828600000000003,0.046107,74.17898607,34.22617,-117.43966999999999,3.84,8.73,2,241.0,1.8198836219999999,0.20810866320000002,2.4062962430000003,0.1276855224,0.1190690702,0.1619566084,0.1366276427,0.09614077122000002,2.6024298488003472,-0.22255221480034715,2.801434518075321,-0.42155688407532077,2.8198192623230076,-0.43994162832300754,1.842745118888815,0.537132515111185,2.2467807806284643,0.13309685337153576,229.2819
9652545,34.01916,-118.28596999999999,1.0,0.366894,0.0151,1.261566,0.090252,0.006867,81.70012463,34.22617,-117.43966999999999,3.84,8.73,1,335.0,0.3573196382,0.0,1.0,0.1020761808,0.09167961727,0.1364997157,0.10519919220000001,0.05694851005,1.0,0.0,1.0,0.0,1.3440319509199965,-0.3440319509199965,1.0,0.0,1.0,0.0,336.3873
9652545,33.7902,-118.1985,3.0915846730000003,1.7196930000000001,0.0523,3.559068,0.177561,0.015696,85.54902981,34.22617,-117.43966999999999,3.84,8.73,1,207.0,1.4705799880000001,0.0,3.0915846730000003,0.1240199708,0.11508684699999999,0.1583950462,0.1320581793,0.08990875437000001,1.8391486648419852,1.252436008158015,2.1451788456784566,0.9464058273215437,2.1920090036944595,0.8995756693055408,1.081406133492434,2.0101785395075664,1.1259837603430087,1.9656009126569916,228.18095
9652545,34.07618,-118.3959,2.0,0.390438,0.0149,0.7592939999999999,0.121644,0.006867,89.98340729,34.22617,-117.43966999999999,3.84,8.73,2,285.0,1.692160731,0.9490498479,1.9887354469999998,0.1264228065,0.1176950806,0.1607325476,0.1350510372,0.09397245876,1.0,1.0,1.0,1.0,1.0,1.0,1.0,1.0,1.0,1.0,351.37506
9652545,33.38852,-117.19053999999998,3.7737847689999997,4.251654,0.0761,1.172295,0.074556,0.006867,96.34069145,34.22617,-117.43966999999999,3.84,8.73,1,716.0,1.6745002830000002,0.0,3.7737847689999997,0.1262417051,0.1174982074,0.160556748,0.134825132,0.09366330634,2.135635445452742,1.6381493235472577,2.754494681557963,1.0192900874420365,1.2828356693762273,2.4909490996237724,1.0,2.7737847689999997,1.0,2.7737847689999997,702.6547
9652545,34.235,-117.40799999999999,4.19928939,30.975075,0.7998,54.725085,3.094074,0.366894,9.254945411,34.22617,-117.43966999999999,3.84,8.73,5,436.0,0.8090082765000001,0.2908579483,4.361254562,0.1142578873,0.1045789463,0.1487820617,0.12000072640000001,0.07429014153,3.6373826577023287,0.561906732297671,4.091299082535495,0.10799030746450455,4.197785772449406,0.0015036175505933613,3.2409253325450242,0.9583640574549754,3.3006860614182374,0.8986033285817623,352.1925
9652545,34.069,-117.27600000000001,3.1336297319999997,8.667135,0.3569,19.410066,1.563714,0.11575799999999999,24.66765328,34.22617,-117.43966999999999,3.84,8.73,25,266.0,0.7927287118,0.097334163,3.1291781530000002,0.1139388514,0.104238018,0.1484646024,0.11960952289999999,0.07380488348,3.122243425494821,0.011386306505178911,3.2339370341893874,-0.10030730218938766,3.4370163312315922,-0.3033865992315925,2.793401540926511,0.3402281910734888,2.714528235391842,0.41910149660815765,286.80032
9652545,34.103,-117.34899999999999,3.0915846730000003,7.434017999999999,0.2146,10.459422,0.970209,0.089271,18.25874134,34.22617,-117.43966999999999,3.84,8.73,5,287.0,1.327213574,0.1458348898,3.0718716560000003,0.12229077630000001,0.1132150598,0.15670607050000002,0.12991036820000001,0.08703626812000001,2.7974956849160004,0.29408898808399986,3.1306265071884845,-0.03904183418848417,2.983218669357959,0.10836600364204108,2.4803905824775097,0.6111940905224906,2.582504715859355,0.5090799571406452,447.99936
9652545,34.145,-117.219,3.015185952,6.59232,0.2778,13.087521,1.1203020000000001,0.08829,23.86794817,34.22617,-117.43966999999999,3.84,8.73,5,303.0,1.246428355,0.1371600512,3.0630893280000002,0.1212432284,0.112083284,0.1556800682,0.12861169449999998,0.08531773992000001,2.962286394860347,0.05289955713965311,3.049739248966503,-0.03455329696650322,3.1477396724635707,-0.13255372046357072,2.574719999069611,0.4404659529303889,2.576890022887686,0.43829592911231385,353.63168
9652545,34.165,-117.289,3.0963030639999998,11.173589999999999,0.3422,16.39251,1.2919770000000002,0.103005,17.73429606,34.22617,-117.43966999999999,3.84,8.73,8,332.0,1.4440491690000001,0.2723979036,2.9678681119999997,0.1237114091,0.1147525181,0.1580940823,0.1316745484,0.08939295488,3.09539160765147,0.0009114563485299598,3.40492864805568,-0.3086255840556804,3.313001503538474,-0.21669843953847412,2.6682187023580624,0.4280843616419374,2.655217766755504,0.44108529724449586,295.36575
9652545,34.123000000000005,-117.288,3.131017095,14.498199,0.5243,27.973215000000003,1.509759,0.19914300000000001,20.06243927,34.22617,-117.43966999999999,3.84,8.73,20,279.0,1.633471886,0.1523294284,3.157475812,0.125814448,0.1170339284,0.1601417567,0.1342923879,0.09293578807,3.367782390839173,-0.23676529583917327,3.5802667018922545,-0.4492496068922547,3.7052453085253427,-0.5742282135253429,2.770374498111302,0.36064259688869793,2.990196651202135,0.14082044379786485,354.97635
9652545,34.205999999999996,-117.367,3.5831030189999997,104.87674799999999,3.0647,97.290675,4.712724,0.710244,11.22015563,34.22617,-117.43966999999999,3.84,8.73,5,404.0,1.171625048,0.3350051434,3.768126301,0.1202190445,0.1109783383,0.1546748648,0.1273438076,0.0836535534,4.494990313462432,-0.9118872944624319,5.877061913412598,-2.2939588944125986,4.6200910366757,-1.0369880176757005,3.51686471024938,0.06623830875061953,3.6363204092943375,-0.05321739029433781,362.61166
9652545,34.14,-117.294,3.642509773,13.025718,0.4744,19.618038000000002,2.013012,0.162846,18.64320004,34.22617,-117.43966999999999,3.84,8.73,6,276.0,0.9101456722,0.2611898559,3.666320027,0.1161232174,0.1065754864,0.1506338764,0.1222916871,0.07715994209,3.303932680123623,0.33857709287637716,3.5081725054149713,0.13433726758502873,3.4448385964532955,0.19767117654670452,2.9590319903898346,0.6834777826101655,2.88795274985054,0.7545570231494598,294.2605
9652545,34.092,-117.29,3.008460728,11.81124,0.4276,19.591551000000003,1.8482040000000002,0.151074,22.10071103,34.22617,-117.43966999999999,3.84,8.73,23,274.0,1.55007777,0.1563461235,3.009846763,0.12491631380000001,0.1160588307,0.1592682902,0.133173497,0.09141496068,3.2376254139090084,-0.22916468590900818,3.442287930461873,-0.433827202461873,3.443846984943195,-0.435386256943195,2.9030163388356254,0.10544438916437482,2.8498255302223376,0.15863519777766255,295.95847
9652545,34.047,-117.277,3.0298710719999997,6.689439,0.2658,10.772361,1.3930200000000001,0.094176,26.40600794,34.22617,-117.43966999999999,3.84,8.73,15,281.0,1.460279559,0.162643575,3.0731911089999997,0.1239007551,0.1149576593,0.1582787875,0.1319099409,0.08970930537999999,2.9340958156118684,0.09577525638813134,3.059583945922256,-0.0297128739222563,3.004856099928909,0.025014972071090824,2.717599582184184,0.3122714898158159,2.609683629499971,0.42018744250002893,509.53244
9652545,34.36,-117.63,2.471764309,6.598205999999999,0.1612,7.324146000000001,0.46205100000000005,0.055916999999999994,24.56379367,34.22617,-117.43966999999999,3.84,8.73,6,579.0,0.9575841794,0.3297284402,2.454657106,0.1169365944,0.10744778039999998,0.1514390875,0.1232926144,0.07842862605,2.6148266050795357,-0.14306229607953558,3.0503400133499303,-0.5785757043499302,2.721689998866225,-0.24992568986622477,1.9826989944960083,0.4890653145039918,2.3447998679804902,0.12696444101950988,403.53238
9652545,34.234,-117.48200000000001,4.069588647,35.176697999999995,0.6874,26.631207,2.032632,0.21483899999999997,9.597673647,34.22617,-117.43966999999999,3.84,8.73,1,386.0,0.3831236484,0.0,4.069588647,0.1030654339,0.09271781024,0.1375099964,0.1063904827,0.058264502370000006,3.5406980058677733,0.5288906411322265,4.176925273203431,-0.10733662620343143,3.66916121777514,0.40042742922485974,2.9653927062862944,1.1041959407137054,3.0287459012066136,1.0408427457933862,352.0347
9652545,34.156,-117.398,2.5464838,32.93217,0.6521,40.963617,1.659852,0.1962,12.31998632,34.22617,-117.43966999999999,3.84,8.73,3,308.0,1.5400274919999999,0.10707721070000001,2.608323249,0.12480524300000001,0.1159383233,0.15916016449999998,0.133035219,0.09122768712000001,3.5070418743049654,-0.9605580743049655,4.132541454667494,-1.5860576546674938,3.9852038025704086,-1.4387200025704088,2.832528723807306,-0.2860449238073062,2.982631381770534,-0.43614758177053403,352.09036
9652545,34.166,-117.251,3.449768282,6.919974000000001,0.28,14.365764000000002,0.976095,0.106929,20.54452377,34.22617,-117.43966999999999,3.84,8.73,3,593.0,1.6971227180000001,1.355043085e-15,3.449768282,0.1264733927,0.1177500808,0.1607816421,0.13511414800000002,0.09405889558,2.9673223060730622,0.4824459759269377,3.082391831496854,0.36737645050314605,3.216136230372686,0.23363205162731404,2.4843570340918144,0.9654112479081856,2.6742152894342053,0.7755529925657947,418.07376
9652545,33.979,-117.37299999999999,3.065562457,8.829,0.2,8.77995,1.60884,0.55917,29.48333893,34.22617,-117.43966999999999,3.84,8.73,34,342.0,0.7088797170000001,0.1247789739,3.036498186,0.11219924710000001,0.1023818928,0.1467297625,0.11747968339999999,0.07118783529,2.7525140936260524,0.3130483633739476,3.2463927653640274,-0.18083030836402747,2.854752232902533,0.21081022409746675,2.812058392717793,0.25350406428220706,3.51479986798049,-0.4492374109804902,447.2582
9652545,34.096,-117.74600000000001,2.455609363,6.867000000000001,0.23,10.908719999999999,1.83447,0.50031,32.86527457,34.22617,-117.43966999999999,3.84,8.73,10,354.0,1.077005125,0.2322960477,2.445804059,0.11883853130000001,0.10949147199999999,0.15331663369999998,0.1256376798,0.0814357363,2.841739918945861,-0.386130555945861,3.077218837755172,-0.6216094747551719,3.014088393664447,-0.5584790306644467,2.8981250080358825,-0.44251564503588225,3.458283392878261,-1.0026740298782606,351.90005
9652545,34.097,-117.286,3.0754115,11.772,0.42,21.91554,2.80566,0.8730899999999999,21.96410727,34.22617,-117.43966999999999,3.84,8.73,28,278.0,1.295466321,0.1343194322,3.091777783,0.1218859217,0.1127774591,0.15630979679999998,0.12940823640000002,0.08637014286,3.2261764568849136,-0.15076495688491365,3.440047807106893,-0.3646363071068932,3.5261218584561496,-0.4507103584561496,3.1767568921906237,-0.10134539219062377,3.741212594618223,-0.6658010946182231,299.84656
9652545,34.076,-117.67,2.691169465,9.81,0.26,11.016630000000001,1.8050400000000002,0.5493600000000001,28.35967967,34.22617,-117.43966999999999,3.84,8.73,3,354.0,1.301121809,0.19509201539999999,2.555831571,0.1219586719,0.11285607560000001,0.1563810286,0.1294984461,0.08648966125,2.9200108215171023,-0.22884135651710213,3.3173168757330744,-0.6261474107330742,3.021313091300506,-0.33014362630050575,2.887519094910169,-0.19634962991016858,3.50580627844093,-0.8146368134409299,293.5
9652545,34.134,-117.25299999999999,3.331165556,10.790999999999999,0.25,12.39984,1.78542,0.51993,21.82003545,34.22617,-117.43966999999999,3.84,8.73,7,261.0,1.5067648,0.2700652631,3.392668226,0.1244330715,0.11553466289999999,0.1587976907,0.1325720325,0.09060147742,2.894971812747895,0.436193743252105,3.381475537728323,-0.05030998172832302,3.1081238581880006,0.22304169781199956,2.8803519780232323,0.4508135779767679,3.4778290542765986,-0.14666349827659841,295.59253
9652545,34.163000000000004,-117.33200000000001,3.530018618,17.658,0.83,38.249190000000006,6.20973,1.8639,14.95380521,34.22617,-117.43966999999999,3.84,8.73,26,760.0,1.5684674319999998,0.16163986589999998,3.549015834,0.1251179296,0.1162776218,0.1594645007,0.13342455220000002,0.09175535415,3.6610447957928285,-0.13102617779282832,3.7129892586431983,-0.18297064064319812,3.9348822706863382,-0.40486365268633806,3.6977637842919755,-0.16774516629197533,4.1265679999584854,-0.5965493819584853,343.6899
9652545,34.074,-117.35,2.870500287,24.525,0.54,17.12826,3.4629300000000005,1.12815,20.75104075,34.22617,-117.43966999999999,3.84,8.73,6,282.0,1.212045421,0.2464566965,2.906109569,0.1207793202,0.1115825992,0.155225014,0.128037176,0.08456196749,3.3866188269397637,-0.5161185399397636,3.9341238891747325,-1.0636236021747325,3.345226067753183,-0.47472578075318284,3.3147839873013814,-0.4442837003013813,3.871442760057401,-1.000942473057401,447.3187
9652545,34.135,-117.322,3.334516567,17.658,0.49,34.688159999999996,4.1300099999999995,1.04967,17.20899104,34.22617,-117.43966999999999,3.84,8.73,3,287.0,0.5014731449000001,0.222353222,3.187946153,0.1069709065,0.09683293586000001,0.1414756549,0.11111244710000001,0.06362053475,3.324588237641915,0.009928329358085186,3.7129892586431983,-0.3784726916431982,3.863157016434992,-0.5286404494349921,3.430310146877628,-0.09579357987762771,3.8348053067353707,-0.5002887397353706,293.36707
9653493,34.07618,-118.3959,1.0,0.162846,0.0097,0.224649,0.149112,0.00981,194.05750830000002,35.796,-118.04616999999999,4.1,8.44,1,285.0,1.9688555330000002,0.0,1.0,0.1290639827,0.12057159210000001,0.16328953029999999,0.1383517347,0.09853294657,1.0,0.0,1.0,0.0,1.0,0.0,1.0,0.0,1.0,0.0,351.37506
9653493,33.552820000000004,-117.66127,2.691169465,0.063765,0.0077,0.211896,0.07848,0.007848,252.04200330000003,35.796,-118.04616999999999,4.1,8.44,1,359.0,0.6515662847,0.0,2.691169465,0.1109039864,0.10100303210000001,0.1454337886,0.11589748849999999,0.06927120856,1.0,1.6911694650000002,1.0,1.6911694650000002,1.0,1.6911694650000002,1.0,1.6911694650000002,1.0,1.6911694650000002,447.28177
9655209,33.8084,-116.96799999999999,3.028038898,9.075231,0.1821,5.687838,0.5012909999999999,0.034335000000000004,34.04539703,34.02383,-116.75717,3.78,14.38,6,252.0,0.92382752,0.2396079424,2.843709613,0.1163615237,0.10683094789999999,0.15086993199999998,0.12258482039999999,0.0775305632,2.6926556203185323,0.3353832776814678,3.2649093312150868,-0.2368704332150866,2.5361114798407165,0.49192741815928365,2.0473597413691853,0.9806791566308148,2.096985898733498,0.9310529992665022,281.27722
9655209,33.82434,-116.51208999999999,2.870500287,14.232348000000002,0.4361,19.059849,1.19682,0.090252,34.78757989,34.02383,-116.75717,3.78,14.38,6,273.0,1.137271525,0.201767998,3.0644825119999997,0.11972945380000001,0.1104506995,0.1541936126,0.12673836019999998,0.08286366769999999,3.250191547409937,-0.37969126040993695,3.5678085734410896,-0.6973082864410896,3.4236525608044674,-0.5531522738044674,2.618047526484639,0.25245276051536125,2.5880580448379753,0.28244224216202474,293.50043
9655209,33.81841,-116.36873999999999,3.449768282,3.4266330000000003,0.1365,5.116896,0.801477,0.053954999999999996,44.86720428,34.02383,-116.75717,3.78,14.38,1,244.0,1.705491831,0.0,3.449768282,0.1265584219,0.1178425374,0.1608641529,0.1352202388,0.09420426619,2.5086449975238594,0.9411232844761406,2.609274683471427,0.8404935985285729,2.4584718180219722,0.9912964639780277,2.355099487529717,1.0946687944702829,2.326650633551941,1.123117648448059,293.5
9655209,33.723,-116.338,2.691169465,15.696,0.36,10.6929,2.4132599999999997,0.75537,53.13481264,34.02383,-116.75717,3.78,14.38,1,239.0,0.39445133060000004,0.0,2.691169465,0.1034815304,0.09315499950999999,0.1379342293,0.1068921423,0.05882295744,3.127764676127912,-0.43659521112791166,3.633702848849758,-0.9425333838497578,2.9994220847382964,-0.3082526197382962,3.077956193891872,-0.3867867288918716,3.667620435295479,-0.9764509702954789,293.5
9655209,33.751,-117.015,2.691169465,15.696,0.34,11.860289999999999,2.26611,0.70632,41.15274199,34.02383,-116.75717,3.78,14.38,2,340.0,0.6671052961,9.112518314e-16,2.691169465,0.11126466,0.1013867118,0.1457950298,0.1163377477,0.06980215134,3.091274008052115,-0.4001045430521146,3.633702848849758,-0.9425333838497578,3.075471751673347,-0.38430228667334676,3.0366982718029067,-0.34552880680290654,3.6335053076682593,-0.9423358426682591,228.20152
9655209,33.961999999999996,-116.509,3.489200704,20.601,0.79,31.333140000000004,5.55246,1.7952299999999999,27.88403183,34.02383,-116.75717,3.78,14.38,5,379.0,1.641656365,0.5404460104,3.726775928,0.1259004211,0.11712732990000001,0.160225289,0.1343995629,0.09308197188999999,3.629511824196949,-0.1403111201969489,3.816756782570649,-0.32755607857064906,3.7884973041648067,-0.29929660016480675,3.624396993260059,-0.1351962892600591,4.1074940618282785,-0.6182933578282785,368.41217
9655209,33.829,-116.512,2.741784792,20.601,0.56,25.005689999999998,3.5316,1.1575799999999998,34.46452658,34.02383,-116.75717,3.78,14.38,5,275.0,1.15179856,0.1947686843,2.858353031,0.11993803869999999,0.11067545,0.1543987033,0.12699625369999998,0.08319974142999999,3.4098363996991146,-0.6680516076991148,3.816756782570649,-1.0749719905706492,3.622936325161704,-0.8811515331617041,3.3276609583243726,-0.5858761663243728,3.884528235391842,-1.1427434433918422,293.50067
