event_id,sta_lat,sta_lon,mmi,pga,pgv,psa03,psa10,psa30,r_hypo,hypo_lat,hypo_lon,magnitude,hypo_depth,n_dyfi,vs30,inst_to_mmi_dist,std_mmi_boot,mean_mmi_boot,std_pga_at_dyfi,std_pgv_at_dyfi,std_psa03_at_dyfi,std_psa10_at_dyfi,std_psa30_at_dyfi,mmi_from_pgv,mmi_res_pgv,mmi_from_pga,mmi_res_pga,mmi_from_psa03,mmi_res_psa03,mmi_from_psa10,mmi_res_psa10,mmi_from_psa30,mmi_res_psa30,CA Vs30,ztor,dip,r_rup,r_rup_var,r_jb,r_jb_var,r_x,r_y,r_y0,width
9703873,34.39727,-118.91807,2.0,1.604916,0.0819,6.328431,0.84366,0.110853,62.02900934,34.059,-118.3885,4.24,7.9,1,280.0,0.6775668362,0.0,2.0,0.1115033866,0.1016407821,0.1460339751,0.1166292845,0.07015474831,2.31932733559,-0.319327335588,2.29632773175,-0.296327731746,2.6399979111,-0.639997911104,2.55076536942,-0.550765369425,2.69034900399,-0.690349003989,351.9,0.0,90.0,60.7674738998,1.69259994568,60.4029629871,1.11162669623,0.0,0.0,0.0,0.0
9703873,34.61462,-118.29104,3.449768282,6.50403,0.2468,15.621444,0.583695,0.057879,62.92468524,34.059,-118.3885,4.24,7.9,1,391.0,1.370599387,0.0,3.449768282,0.1228306015,0.1137989263,0.1572339587,0.1305803348,0.08792826674,3.02354737838,0.426220903619,3.24466031761,0.205107964392,3.30693209977,0.142836182233,2.30614248503,1.14362579697,2.35659514093,1.09317314107,351.9001,0.0,90.0,61.6636967082,1.68855578612,61.3056952593,1.11178378845,0.0,0.0,0.0,0.0
9703873,34.12084,-117.63793,1.0,1.244889,0.0338,2.059119,0.272718,0.020601,69.90665551,34.059,-118.3885,4.24,7.9,1,368.0,0.4216192125,0.0,1.0,0.1044387054,0.09416182999,0.1389085445,0.1080474455,0.06011866615,1.5645492396,-0.564549239603,2.15878913497,-1.15878913497,1.80926428832,-0.809264288316,1.62240675591,-0.622406755913,1.50165082776,-0.501650827756,351.90024,0.0,90.0,68.6435446266,1.65705957952,68.3362393515,1.11300723396,0.0,0.0,0.0,0.0
9703873,33.48725,-117.68114,2.0,0.8829,0.0392,2.211174,0.564075,0.07848,91.53642055,34.059,-118.3885,4.24,7.9,2,324.0,1.164276149,0.4103913408,1.8,0.1201153737,0.1108665806,0.1545729995,0.1272155694,0.08348598916,1.70423076543,0.295769234566,1.96783028937,0.0321697106265,1.93891715715,0.0610828428508,2.20396160404,-0.203961604042,2.41853303396,-0.418533033961,351.9,0.0,90.0,90.2483276725,1.57983659516,90.0685594671,1.11607212806,0.0,0.0,0.0,0.0
9703873,34.39681,-119.29923,1.0,0.52974,0.025,1.272357,0.314901,0.041202,92.10813498,34.059,-118.3885,4.24,7.9,1,374.0,0.7647230304,0.0,1.0,0.1133764221,0.103637388,0.1479044244,0.1189203208,0.07295341336,1.28032981882,-0.280329818818,1.50914303444,-0.509143034436,1.47971283855,-0.47971283855,1.69925353187,-0.699253531867,2.08957810303,-1.08957810303,446.89813,0.0,90.0,90.8200981478,1.57873136352,90.6423446373,1.1161198065,0.0,0.0,0.0,0.0
9703873,33.99351,-117.37545,2.897268929,1.786401,0.0426,1.315521,0.081423,0.010791,93.97474292,34.059,-118.3885,4.24,7.9,2,343.0,0.5866596199,0.1376901551,2.884607212,0.1093115459,0.09931155181,0.1438353991,0.1139565733,0.06695253598,1.78261883005,1.11465009895,2.55246866096,0.344800268039,1.5127592325,1.3845096965,1.0,1.897268929,1.0,1.897268929,447.25363,0.0,90.0,92.6867085155,1.57512320794,92.5155322076,1.11627545823,0.0,0.0,0.0,0.0
9703873,33.82434,-116.51209,1.0,0.381609,0.0238,1.120302,0.228573,0.03924,175.2262569,34.059,-118.3885,4.24,7.9,1,273.0,0.9718909738,0.0,1.0,0.1171750071,0.1077036571,0.1516748479,0.123586224,0.07880247273,1.23397199681,-0.233971996813,1.4977464038,-0.497746403801,1.54116772106,-0.541167721057,1.26044237456,-0.260442374558,1.90558494189,-0.905584941894,293.50043,0.0,90.0,173.897961338,1.47136111661,173.916277273,1.12068119004,0.0,0.0,0.0,0.0
9703873,34.309,-118.448,3.517089294,22.079367,1.0689,47.326383,4.625415,0.449298,29.41316069,34.059,-118.3885,4.24,7.9,5,385.0,1.121376958,0.2577655684,3.461913115,0.1194985555,0.1102019829,0.1539664808,0.1264529666,0.08249242066,3.95933750329,-0.442248209294,3.73052170218,-0.213432408184,3.92230029882,-0.405211004819,3.82541611391,-0.308326819909,3.58617012962,-0.0690808356234,375.85852,0.0,90.0,28.1995564435,2.16332340346,27.2315247892,1.09584980871,0.0,0.0,0.0,0.0
9703873,34.247,-118.603,3.01050008,9.698166,0.3533,13.185621,2.124846,0.146169,29.81610007,34.059,-118.3885,4.24,7.9,11,289.0,1.211994955,0.3023542377,3.015179456,0.120778631,0.1115818555,0.1552243375,0.1280363226,0.08456084695,3.25257114703,-0.242071067029,3.18273866932,-0.172238589318,2.98789117767,0.0226089023268,3.31240753482,-0.301907454824,3.0122172436,-0.00171716359943,293.33435,0.0,90.0,28.6055802812,2.15367368174,27.6492049249,1.09616771656,0.0,0.0,0.0,0.0
9703873,34.173,-118.549,4.080363933,23.222232,0.7143,21.056184,3.621852,0.346293,21.0097462,34.059,-118.3885,4.24,7.9,7,272.0,1.466919058,0.5415892167,4.068756536,0.1239776835,0.1150410201,0.1583538108,0.1320055944,0.08983798347,3.70200455568,0.378359377317,3.61545027381,0.464913659195,3.24021480172,0.840149131281,3.73662314262,0.343740790375,3.53714283266,0.543221100337,292.1154,0.0,90.0,19.7685724572,2.47419696105,18.3843008136,1.0818493527,0.0,0.0,0.0,0.0
9703873,34.073,-118.177,4.104817977,19.321776,0.7974,37.575243,7.801893,0.462051,21.08028408,34.059,-118.3885,4.24,7.9,4,425.0,1.481608944,0.5457739839,3.760625707,0.1241468132,0.1152243221,0.1585187126,0.1322159272,0.09012119048,3.77226406005,0.33255391695,3.49315681925,0.611661157748,3.66616059464,0.438657382363,4.23914650067,-0.134328523673,3.68285116645,0.421966810546,359.4206,0.0,90.0,19.8407595955,2.47141158059,18.4602467697,1.08197750558,0.0,0.0,0.0,0.0
9703873,34.131,-118.492,2.0,29.841039,1.1904,35.367993,4.278141,0.42183,14.74231483,34.059,-118.3885,4.24,7.9,1,369.0,1.305993601,0.0,2.0,0.12202112,0.1129235656,0.1564421651,0.1295758887,0.08659231809,4.02806858976,-2.02806858976,3.62732851687,-1.62732851687,3.52854169262,-1.52854169262,3.92122198908,-1.92122198908,3.72510194139,-1.72510194139,339.10144,0.0,90.0,13.3897737718,2.74978252664,11.3938456164,1.04994122941,0.0,0.0,0.0,0.0
9703873,34.193,-118.51,3.975177143,20.618658,0.8438,54.500436,5.653503,0.42183,20.23613134,34.059,-118.3885,4.24,7.9,13,281.0,1.282739919,0.2027518901,3.965485531,0.1217211954,0.1125994789,0.1561484705,0.1292040103,0.08609981362,3.80837209594,0.166805047063,3.51878356594,0.456393577062,3.92844313492,0.0467340080812,4.03662112789,-0.0614439848894,3.64669171087,0.328485432131,290.14944,0.0,90.0,18.982461343,2.50555326791,17.548966077,1.07988508876,0.0,0.0,0.0,0.0
9703873,33.896,-118.377,3.032640948,6.898392,0.4534,16.26498,3.823938,0.528759,19.80004687,34.059,-118.3885,4.24,7.9,14,307.0,1.209573588,0.3003797616,3.055675577,0.1207455289,0.1115461416,0.155191851,0.1279953422,0.08450704397,3.41182782821,-0.379186880212,2.77208865461,0.260552293389,3.03526888351,-0.00262793550669,3.78484890571,-0.752207957714,3.76688539768,-0.734244449676,407.42566,0.0,90.0,18.5504089379,2.52445631503,17.0763414264,1.07787819529,0.0,0.0,0.0,0.0
9703873,34.185,-118.447,3.79283127,41.494338,1.9295,72.44685,14.358897,0.893691,16.96185618,34.059,-118.3885,4.24,7.9,23,286.0,1.566763629,0.1998579032,3.836133646,0.1250993369,0.1162574427,0.1594464097,0.1334013974,0.09172393909,4.33640383087,-0.543572560874,4.01037038063,-0.217539110625,4.09136767352,-0.298536403521,4.68543485766,-0.892603587659,4.0718629633,-0.2790316933,291.93518,0.0,90.0,15.6865645937,2.64975450559,13.9435653638,1.06457557168,0.0,0.0,0.0,0.0
9703873,34.108,-118.263,4.585807145,59.841,1.71,86.55363,13.46913,3.63951,15.02263337,34.059,-118.3885,4.24,7.9,31,322.0,1.200272779,0.1816261259,4.558752013,0.1206178397,0.1114083929,0.1550665158,0.1278372803,0.08429965795,4.25930428228,0.326502862724,4.54492553422,0.040881610776,4.19031045612,0.395496688883,4.66932111991,-0.0835139749059,4.81544850214,-0.229641357139,520.80176,0.0,90.0,13.6691497235,2.73783529233,11.7217722598,1.05361489946,0.0,0.0,0.0,0.0
9703873,34.222,-118.57,3.091584673,29.43,1.48,69.53328,11.78181,3.22749,25.88308707,34.059,-118.3885,4.24,7.9,12,281.0,1.43662345,0.1629188391,3.123373991,0.1236241597,0.114658008,0.1580089483,0.1315661014,0.08924735932,4.16708472163,-1.07550004863,3.86733121531,-0.775746542306,4.1713660152,-1.0797813422,4.46577624743,-1.37419157443,4.61972632567,-1.52814165267,292.25717,0.0,90.0,24.682100926,2.28460576091,23.5536789948,1.09057227571,0.0,0.0,0.0,0.0
9703873,34.165,-118.15,3.296795237,11.772,0.5,25.64334,4.10058,1.0791,26.14280684,34.059,-118.3885,4.24,7.9,10,440.0,1.510194774,0.2451454775,3.35922639,0.1244717788,0.1155766357,0.1588354016,0.1326201949,0.09066651223,3.47428590637,-0.177490669374,3.25494706545,0.0418481715454,3.44182906734,-0.145033830342,3.77151778275,-0.474722545754,4.06056496646,-0.763769729461,519.0916,0.0,90.0,24.9406680684,2.27462880542,23.8257098486,1.09103130658,0.0,0.0,0.0,0.0
9703873,34.144,-118.262,3.432727645,22.563,0.96,44.68455,6.97491,2.04048,16.95300849,34.059,-118.3885,4.24,7.9,16,324.0,1.344822262,0.2062533764,3.415025497,0.1225117011,0.1134539565,0.1569221783,0.1301844938,0.08740079708,3.89073871257,-0.458011067568,3.50102673666,-0.0682990916611,3.73656473534,-0.303837090337,4.21203635731,-0.779308712308,4.49148972443,-1.05876207943,449.70248,0.0,90.0,15.6774621734,2.65015275237,13.9336081731,1.06453329073,0.0,0.0,0.0,0.0
9703873,34.23,-118.253,3.117776718,30.411,0.63,24.525,4.43412,1.33416,24.07175032,34.059,-118.3885,4.24,7.9,17,354.0,1.377544195,0.1766633076,3.081017012,0.1229156237,0.1138909243,0.1573170495,0.1306858993,0.0880691503,3.6218306077,-0.504053889697,3.85726532469,-0.739488606691,3.38759451994,-0.269817801942,3.84036446038,-0.722587742376,4.18880743767,-1.07103071967,342.08154,0.0,90.0,22.8708542576,2.35449371043,21.6481198701,1.08735679312,0.0,0.0,0.0,0.0
9703873,34.127,-118.346,3.449768282,48.069,1.33,109.74447,8.80938,2.77623,11.61458183,34.059,-118.3885,4.24,7.9,8,448.0,1.126855454,0.2178985804,3.399740278,0.1195784613,0.1102880458,0.1540450952,0.1265517208,0.08262080353,4.09886191222,-0.649093630222,4.07895330078,-0.629185018776,4.29749949845,-0.847731216455,4.44563969725,-0.995871415249,4.74156437687,-1.29179609487,352.16473,0.0,90.0,10.1128732582,2.86638924249,7.49927922623,0.997910464492,0.0,0.0,0.0,0.0
9703873,33.993,-118.342,3.721881471,56.898,2.6,98.94366,17.87382,5.58189,11.60312701,34.059,-118.3885,4.24,7.9,3,360.0,1.13919906,0.2002880568,3.724899193,0.1197572633,0.1104806604,0.1542209612,0.1267727394,0.08290843607,4.52681082152,-0.804929350517,4.34947427822,-0.62759280722,4.22120137976,-0.499319908763,4.90983045224,-1.18794898124,5.09669986223,-1.37481839123,453.99106,0.0,90.0,10.1012246496,2.86607198415,7.48393583995,0.997447409553,0.0,0.0,0.0,0.0
9703873,33.883,-118.117,3.528180984,8.829,0.47,20.1105,4.91481,1.11834,32.74510784,34.059,-118.3885,4.24,7.9,4,249.0,1.257979469,0.4586087535,3.546737337,0.1213965776,0.1122488608,0.1558303974,0.1288016882,0.08556828272,3.43478385117,0.0933971328345,3.1610421189,0.367138865099,3.32212318342,0.206057800575,3.84237739996,-0.314196415958,4.02297150064,-0.494790516637,230.58044,0.0,90.0,31.5455861066,2.08380035057,30.6736136377,1.09846967733,0.0,0.0,0.0,0.0
9703873,33.898,-118.209,3.091584673,17.658,0.76,56.07396,7.48503,1.61865,25.62912668,34.059,-118.3885,4.24,7.9,1,249.0,1.756815389,0.0,3.091584673,0.1270720324,0.1184012332,0.1613622668,0.1358613229,0.09508451995,3.74159598065,-0.650011307653,3.51909774252,-0.427513069522,4.01089743985,-0.919312766854,4.17037666869,-1.07879199569,4.27150423117,-1.17991955817,234.61522,0.0,90.0,24.4290097682,2.29437142252,23.2874092628,1.09012296628,0.0,0.0,0.0,0.0
9703873,34.273,-118.464,2.0,22.563,1.24,48.4614,9.81981,2.76642,26.01724895,34.059,-118.3885,4.24,7.9,2,319.0,1.655164811,0.7744433062,2.341213103,0.126041504,0.1172806261,0.1603623368,0.134575465,0.09332208887,4.05412987719,-2.05412987719,3.6907616216,-1.6907616216,3.90772667045,-1.90772667045,4.34522156659,-2.34522156659,4.5401187612,-2.5401187612,476.31924,0.0,90.0,24.8157001409,2.27945076167,23.6942347831,1.09080945265,0.0,0.0,0.0,0.0
9703873,34.041,-118.248,3.80545312,111.834,4.62,249.34077,36.81693,9.89829,15.29613455,34.059,-118.3885,4.24,7.9,33,299.0,1.284060853,0.1476164322,3.799425252,0.1217383592,0.1126180218,0.1561652825,0.1292252877,0.08612796191,5.12706864276,-1.32161552276,5.55774543397,-1.75229231397,5.43408735746,-1.62863423746,5.32491078381,-1.51945766381,5.33147103508,-1.52601791508,303.90195,0.0,90.0,13.9463304566,2.72589278767,12.0399130724,1.05649214363,0.0,0.0,0.0,0.0
9703873,34.075,-118.218,3.647859262,16.677,0.49,24.68196,4.22811,1.06929,17.66989627,34.059,-118.3885,4.24,7.9,6,337.0,1.497870633,0.5079601244,3.713587213,0.1243323413,0.1154254447,0.15869954,0.1324467085,0.09043233549,3.46138823764,0.186471024358,3.31589138389,0.331967878114,3.31171267938,0.336146582625,3.8749602001,-0.227100938101,4.15289190942,-0.505032647425,445.5487,0.0,90.0,16.4109380772,2.61806190087,14.7359617502,1.06794030336,0.0,0.0,0.0,0.0
9703873,34.045,-118.522,2.895363858,26.487,1.42,67.45356,12.39984,2.97243,14.70040607,34.059,-118.3885,4.24,7.9,7,375.0,1.203840363,0.5486452695,2.611927453,0.1206669201,0.111461337,0.1551146952,0.1278980319,0.08437934245,4.14066386624,-1.24530000824,3.54580662826,-0.650442770259,4.00166651903,-1.10630266103,4.61969089141,-1.72432703341,4.71793644326,-1.82257258526,447.53827,0.0,90.0,13.3478254336,2.75157640554,11.3446073851,1.04938962734,0.0,0.0,0.0,0.0
9703873,34.262,-118.669,2.691169465,12.753,0.46,23.51457,3.08034,0.97119,35.18560206,34.059,-118.3885,4.24,7.9,1,600.0,0.8443423402,0.0,2.691169465,0.114931548,0.1052993624,0.1494516848,0.120827379,0.07532015567,3.42105401257,-0.729884547572,3.44042135817,-0.749251893171,3.45562927271,-0.764459807713,3.52068910731,-0.829519642308,3.93349142214,-1.24232195714,413.3815,0.0,90.0,33.9825715776,2.02588199836,33.1805610824,1.10037778407,0.0,0.0,0.0,0.0
9703873,34.15,-118.154,3.390116276,24.525,0.76,52.23825,7.37712,1.62846,25.11885183,34.059,-118.3885,4.24,7.9,29,435.0,1.462316208,0.1730011584,3.298778138,0.1239243851,0.1149832642,0.1583018335,0.1319393216,0.08974882204,3.74159598065,-0.351479704653,3.731323669,-0.341207392995,3.95365131817,-0.563535042169,4.16513322723,-0.775016951232,4.27955287289,-0.889436596892,526.7102,0.0,90.0,23.9196759059,2.31402434991,22.7515541495,1.08921875251,0.0,0.0,0.0,0.0
9703873,33.909,-118.315,3.553398346,16.677,0.81,26.17308,8.61318,1.84428,19.66043582,34.059,-118.3885,4.24,7.9,7,308.0,1.526730867,0.4271102728,3.384704744,0.1246573189,0.1157778593,0.1590161262,0.1328510921,0.0909785524,3.78227297775,-0.228874631752,3.36317770745,0.190220638549,3.38258123234,0.170817113659,4.31886026221,-0.765461916209,4.40344288025,-0.850044534246,228.2041,0.0,90.0,18.4117138259,2.53052446835,16.9246220329,1.07723395327,0.0,0.0,0.0,0.0
9703873,34.115,-118.13,3.399346538,7.848,0.42,24.83892,3.03129,0.96138,25.84333174,34.059,-118.3885,4.24,7.9,9,402.0,1.709346663,0.4944937028,3.341023532,0.126597464,0.1178849934,0.1609020342,0.1352689556,0.09427104881,3.36297645688,0.0363700811151,2.97690182809,0.422444709906,3.41543405998,-0.0160875219767,3.57583071988,-0.176484181885,4.00472214899,-0.605375610994,431.63528,0.0,90.0,24.6424987077,2.2861338343,23.5120146707,1.09050197041,0.0,0.0,0.0,0.0
9703873,34.029,-118.483,4.098954651,82.404,4.15,154.1151,38.03337,9.64323,12.22083383,34.059,-118.3885,4.24,7.9,73,383.0,1.256330029,0.1113641319,4.103096078,0.1213747555,0.1122252965,0.1558090078,0.128774649,0.08553260795,4.97983198561,-0.88087733461,4.9676003691,-0.868645718102,4.55996955929,-0.461014908288,5.39399343062,-1.29503877962,5.36166642452,-1.26271177352,463.13812,0.0,90.0,10.7522023617,2.86257564086,8.29791007175,1.01525833331,0.0,0.0,0.0,0.0
9703873,34.031,-118.208,3.449768282,13.734,0.55,22.76901,6.19011,1.28511,18.67292453,34.059,-118.3885,4.24,7.9,1,400.0,0.8848368914,0.0,3.449768282,0.1156740514,0.1060942265,0.1501886313,0.121739458,0.07646383325,3.53513315356,-0.0853648715565,3.20965191981,0.240116362194,3.26688969575,0.182878586251,4.11319446708,-0.663426185077,4.23264266786,-0.782874385859,440.88754,0.0,90.0,17.4249652007,2.57369644364,15.8452119459,1.07265048294,0.0,0.0,0.0,0.0
9703873,33.827,-118.216,2.138670112,11.772,0.48,18.51147,4.14963,1.03005,31.3227495,34.059,-118.3885,4.24,7.9,2,225.0,1.907906958,0.06871111699,2.133007285,0.1285114177,0.1199689735,0.1627556353,0.1376602507,0.09757091716,3.44822461894,-1.30955450694,3.33502488193,-1.19635476993,3.24974174086,-1.11107162886,3.74084679704,-1.60217668504,3.99217763671,-1.85350752471,291.49194,0.0,90.0,30.1202318532,2.11767587861,29.2073397325,1.09735365588,0.0,0.0,0.0,0.0
9703873,34.059,-118.246,3.807751692,46.107,2.0,98.25696,15.27417,4.24773,15.32100924,34.059,-118.3885,4.24,7.9,35,393.0,1.160260133,0.1517540027,3.802518858,0.1200584785,0.1108052542,0.1545170861,0.1271451995,0.08339409865,4.35931409363,-0.551562401626,4.13467935132,-0.326927659323,4.28851712173,-0.48076542973,4.74760917364,-0.939857481641,4.88910332211,-1.08135163011,332.08835,0.0,90.0,13.9727666178,2.72473615946,12.0688317437,1.05661494021,0.0,0.0,0.0,0.0
9703873,33.868,-118.289,2.0,13.734,0.56,29.94993,5.67018,1.18701,24.44743733,34.059,-118.3885,4.24,7.9,5,283.0,1.17908791,0.08968032138,2.028813748,0.1203237444,0.1110912219,0.1547777196,0.1274733376,0.08382294748,3.5466363997,-1.5466363997,3.32901333937,-1.32901333937,3.53829960739,-1.53829960739,3.99832088084,-1.99832088084,4.12559216546,-2.12559216546,293.34128,0.0,90.0,23.2477536084,2.33995084155,22.0446445454,1.08802589762,0.0,0.0,0.0,0.0
9703873,34.024,-118.284,4.449116409,169.713,7.25,280.72296,52.8759,15.43113,13.04860913,34.059,-118.3885,4.24,7.9,31,335.0,0.671233874,0.1886064137,4.454120255,0.1113592583,0.1014873792,0.1458897297,0.11645326,0.06994176066,5.74546810076,-1.29635169176,6.15757024306,-1.70845383406,5.60582327582,-1.15670686682,5.69165123386,-1.24253482486,5.95125203946,-1.50213563046,334.53104,0.0,90.0,11.6485770984,2.82424306808,9.35005918051,1.02704526417,0.0,0.0,0.0,0.0
9703873,34.174,-118.2,3.404135382,15.696,0.48,25.58448,3.27654,1.02024,22.9576343,34.059,-118.3885,4.24,7.9,3,825.0,1.372880123,0.1901447744,3.367421103,0.1228585649,0.1138291829,0.1572612884,0.1306150532,0.08797459088,3.44822461894,-0.0440892369421,3.3910485251,0.0130868569004,3.4062874055,-0.00215202349683,3.6520470516,-0.247911669598,4.06422682768,-0.660091445684,354.3452,0.0,90.0,21.7488110483,2.39778836518,20.4676513491,1.08536484444,0.0,0.0,0.0,0.0
9703873,33.999,-118.178,3.773784769,14.715,0.62,34.79607,6.74928,1.39302,21.9821309,34.059,-118.3885,4.24,7.9,1,297.0,1.093090056,0.0,3.773784769,0.1190804851,0.1097518564,0.1535549584,0.1259364619,0.08182231853,3.61161578356,0.162168985438,3.32836951275,0.445415256245,3.62067858555,0.153106183449,4.13518852695,-0.361403757953,4.23322386965,-0.459439100648,306.01068,0.0,90.0,20.760367264,2.43592801259,19.4277388373,1.08361007308,0.0,0.0,0.0,0.0
9703873,34.108,-118.153,3.484615256,11.772,0.52,33.72678,3.87495,1.12815,23.71649859,34.059,-118.3885,4.24,7.9,16,419.0,1.199708929,0.2237606157,3.502291912,0.120610071,0.111400013,0.1550588893,0.1278276646,0.08428704842,3.49932491514,-0.0147096591432,3.21179939045,0.272815865549,3.61755857064,-0.132943314636,3.75513101633,-0.270515760328,4.10726393407,-0.622648678071,461.01727,0.0,90.0,22.513802819,2.36827073669,21.2724765971,1.08672292436,0.0,0.0,0.0,0.0
9703873,34.07,-118.346,5.06855189,352.179,7.11,259.07229,60.16473,14.57766,8.901254463,34.059,-118.3885,4.24,7.9,98,368.0,1.10566364,0.09952715489,5.074343481,0.1192674686,0.1099531443,0.1537390567,0.1261674329,0.0821216913,5.71870793831,-0.650156048306,7.21277361472,-2.14422172472,5.39217688444,-0.32362499444,5.91092188122,-0.842369991223,5.94274680731,-0.874194917308,442.114,0.0,90.0,7.130059669,2.50658042879,3.22244902817,0.744556961556,0.0,0.0,0.0,0.0
