event_id,sta_lat,sta_lon,mmi,pga,pgv,psa03,psa10,psa30,r_hypo,hypo_lat,hypo_lon,magnitude,hypo_depth,n_dyfi,vs30,inst_to_mmi_dist,std_mmi_boot,mean_mmi_boot,std_pga_at_dyfi,std_pgv_at_dyfi,std_psa03_at_dyfi,std_psa10_at_dyfi,std_psa30_at_dyfi,mmi_from_pgv,mmi_res_pgv,mmi_from_pga,mmi_res_pga,mmi_from_psa03,mmi_res_psa03,mmi_from_psa10,mmi_res_psa10,mmi_from_psa30,mmi_res_psa30,CA Vs30
9659437,34.09957,-117.43876000000002,2.0,7.523289,0.1692,4.327191,0.270756,0.028449000000000002,20.49942164,34.22567,-117.46417,3.16,14.77,2,295.0,1.3949147169999998,0.3249618572,2.20735084,0.12312665689999999,0.1141193182,0.1575232284,0.1309479735,0.08841929890000001,2.645748527293417,-0.6457485272934171,3.1386619192760037,-1.1386619192760037,2.33543893086415,-0.3354389308641501,1.479016334107826,0.520983665892174,2.0014319443854545,-0.0014319443854544645,293.50055
9659437,34.15037,-118.10156,1.0,0.555246,0.0091,0.328635,0.022563,0.004905,61.03609682,34.22567,-117.46417,3.16,14.77,1,390.0,1.76163594,0.0,1.0,0.12711959720000002,0.1184529925,0.1614083719,0.1359207149,0.09516622576,1.0,0.0,1.1788382423714725,-0.1788382423714725,1.0,0.0,1.0,0.0,1.0,0.0,467.60947
9666905,34.2623,-116.92075,2.237216143,8.321823,0.2494,8.427771,1.517607,0.089271,14.7636209,34.2635,-116.76417,3.92,3.3,1,330.0,1.482950371,0.0,2.237216143,0.1241621845,0.1152409836,0.1585336969,0.13223504560000002,0.09014695032,2.89343778023951,-0.65622163723951,3.2065685495856533,-0.9693524065856534,2.8247051883886796,-0.5874890453886796,2.773774555851814,-0.5365584128518139,2.582504715859355,-0.3452885728593551,351.9
9666905,34.12128,-117.21897,4.069588647,1.3734,0.0352,1.652985,0.211896,0.012753,44.84147484,34.2635,-116.76417,3.92,3.3,1,302.0,0.9094185245,0.0,4.069588647,0.1161104651,0.1065618185,0.1506212411,0.1222760037,0.0771401346,1.4659975797475449,2.603591067252455,1.9969263797106023,2.0726622672893975,1.5693611092287731,2.5002275377712264,1.248008266023824,2.821580380976176,1.0,3.069588647,446.03555
9666905,34.241,-116.87200000000001,3.5003836089999996,12.753,0.47,23.9364,3.6100800000000004,1.01043,10.7410793,34.2635,-116.76417,3.92,3.3,4,316.0,1.063267207,0.23545475230000001,3.421330269,0.11862937529999999,0.1092664557,0.1531105197,0.1253794814,0.08110228681,3.2979838511655046,0.20239975783449493,3.4939290718086715,0.006454537191328047,3.5908601097310946,-0.09047650073109503,3.3420743883627804,0.1583092206372192,3.8154458397487265,-0.31506223074872697,351.9
9674049,35.34413,-119.1043,2.0,1.8168119999999999,0.1359,6.2146349999999995,1.62846,0.180504,133.9285925,36.016329999999996,-117.87433,5.1,2.97,3,272.0,1.085036968,0.1967297412,2.00308825,0.1189597392,0.1096219016,0.1534360383,0.1257873433,0.08162928337,2.5058326013967664,-0.5058326013967664,2.1821603983692435,-0.18216039836924347,2.60112308969953,-0.6011230896995299,2.820007395106252,-0.8200073951062521,2.9402631397648333,-0.9402631397648333,228.44888
9674049,34.416,-118.449,2.0,2.891007,0.1465,8.896689,1.115397,0.169713,185.4709672,36.016329999999996,-117.87433,5.1,2.97,2,321.0,1.23286849,0.2532082392,2.10367542,0.1210616223,0.1118872424,0.1555019786,0.1283867436,0.08502148976,2.5537813082944885,-0.5537813082944885,2.494856086300458,-0.49485608630045785,2.8644466924253824,-0.8644466924253824,2.5718424838442484,-0.5718424838442484,2.908940227504366,-0.9089402275043659,286.03976
9674049,34.305,-118.4879,2.691169465,0.988848,0.0558,3.718971,0.6739470000000001,0.094176,198.31818080000002,36.016329999999996,-117.87433,5.1,2.97,1,357.0,1.804829415,0.0,2.691169465,0.1275407917,0.1189114699,0.1618164574,0.1364468019,0.09589111677,1.9001962116945457,0.7909732533054545,1.70017797228764,0.9909914927123602,2.2242651988993165,0.4669042661006837,2.2414488551256904,0.44972060987430984,2.609683629499971,0.08148583550002941,422.0268
9674049,34.137,-118.126,2.691169465,1.8648810000000002,0.1857,3.275559,4.462569,0.185409,210.24387369999997,36.016329999999996,-117.87433,5.1,2.97,1,379.0,0.7919242515,0.0,2.691169465,0.11392293869999999,0.1042210176,0.1484487627,0.1195900156,0.07378072296,2.705153498497477,-0.01398403349747701,2.199739156874511,0.4914303081254894,2.1310830514205286,0.5600864135794716,3.481097246779002,-0.7899277817790016,2.9538865977263713,-0.2627171327263711,496.6163
9674049,34.13677,-118.1283,2.691169465,0.9554940000000001,0.066,3.6375480000000002,0.8946719999999999,0.125568,210.2921917,36.016329999999996,-117.87433,5.1,2.97,1,398.0,0.7487344431,0.0,2.691169465,0.1130472387,0.10328607990000001,0.1475762444,0.11851720689999999,0.07245742758,2.0447295852465466,0.6464398797534536,1.6691826958073877,1.0219867691926126,2.208017439267099,0.48315202573290117,2.427236388041677,0.263933076958323,2.7558619513316818,-0.06469248633168156,499.65768
9674049,34.1192,-118.3004,2.0,1.252737,0.0632,2.2710150000000002,0.642555,0.056898000000000004,214.5053123,36.016329999999996,-117.87433,5.1,2.97,1,682.0,1.579194934,0.0,2.0,0.12523459,0.11640424710000001,0.1595779984,0.1335698504,0.0919525818,2.017054105075106,-0.017054105075105852,1.9138571318077708,0.08614286819222916,1.8342272023102728,0.1657727976897272,2.2101685451533615,-0.21016854515336147,2.3536370393123125,-0.3536370393123125,577.4633
9674049,34.1183,-118.2994,2.0,1.223307,0.0657,2.356362,0.661194,0.05886,214.58734590000003,36.016329999999996,-117.87433,5.1,2.97,2,839.0,1.739201275,0.1115300982,2.071164843,0.1268972573,0.11821107380000001,0.1611928199,0.1356431215,0.09478456639,2.041821093252878,-0.04182109325287797,1.892382288735236,0.10761771126476405,1.8649894571190706,0.1350105428809294,2.228920625934102,-0.2289206259341019,2.3708632497925386,-0.3708632497925386,881.5123
9674049,36.601,-118.06,2.9370307860000002,16.677,1.16,29.6262,14.734620000000001,2.88414,67.17297183,36.016329999999996,-117.87433,5.1,2.97,3,274.0,0.5700953865,0.21208172039999998,2.906834659,0.1088806735,0.09885459752,0.1434019432,0.113432234,0.0663323499,3.87475324416357,-0.9377224581635697,3.674512703869399,-0.737481917869399,3.7473830368162266,-0.8103522508162264,4.264415780494675,-1.3273849944946745,4.3483926634259,-1.4113618774258994,293.5
10972299,34.09957,-117.43876000000002,3.53476604,19.009818,0.5144,12.228164999999999,1.074195,0.10790999999999999,21.56188941,34.2655,-117.46417,3.79,10.91,9,295.0,1.175239723,0.3007671651,3.50876281,0.1202698288,0.1110330901,0.15472475689999998,0.1274066333,0.0837356965,3.355612411076763,0.17915362892323694,3.762645750666531,-0.22787971066653112,3.097891261217891,0.436874778782109,2.547159502121736,0.9876065378782641,2.6788557284787986,0.8559103115212015,293.50055
10972299,34.23217,-117.23483,2.237216143,4.395861,0.1033,4.830444,0.815211,0.030411,24.02310572,34.2655,-117.46417,3.79,10.91,1,684.0,0.5595930036,0.0,2.237216143,0.10860181039999998,0.09855901755,0.1431211849,0.1130930662,0.0659325988,2.330727472633842,-0.0935113296338419,2.776948038798291,-0.5397318957982913,2.416188798016823,-0.1789726550168229,2.366241728079776,-0.12902558507977613,2.0353194686297735,0.2018966743702264,658.82874
10972299,34.12084,-117.63793000000001,3.0915846730000003,3.4835309999999997,0.127,4.027005,0.401229,0.038258999999999994,25.16303443,34.2655,-117.46417,3.79,10.91,1,368.0,1.508601395,0.0,3.0915846730000003,0.12445380710000001,0.1155571475,0.15881789289999998,0.1325978329,0.09063631394999999,2.4625914698052567,0.6289932031947436,2.6203604178005775,0.4712242551994228,2.2826705460783687,0.8089141269216316,1.8496832044022353,1.241901468597765,2.1519718770646787,0.9396127959353215,351.90024
10972299,34.09316,-117.31671000000001,2.0026679769999998,14.266682999999999,0.5506,42.003477000000004,2.408355,0.178542,25.8894756,34.2655,-117.46417,3.79,10.91,3,278.0,0.686464815,0.059835332000000005,2.0171483980000002,0.1117039234,0.1018542791,0.1462345991,0.116874265,0.07045165871,3.3990292243742477,-1.396361247374248,3.569430582118417,-1.5667626051184174,4.0036027402143715,-2.0009347632143717,3.07662194181884,-1.0739539648188403,2.934709810786213,-0.9320418337862133,293.72357
10972299,33.99351,-117.37545,3.2152201160000002,6.723774000000001,0.0915,1.936494,0.254079,0.023544,33.17239316,34.2655,-117.46417,3.79,10.91,8,343.0,1.3015852829999999,0.3333181396,3.271842012,0.1219646216,0.1128625054,0.1563868537,0.1295058242,0.08649943933,2.2532890082776786,0.9619311077223216,3.063030230878539,0.15218988512146137,1.7013558160311928,1.5138642999688074,1.4191041140826202,1.79611600191738,1.733498604085109,1.4817215119148912,447.25363
10972299,34.56058,-117.32961,3.449768282,6.702192,0.1046,2.070891,0.18639,0.014715,36.7148909,34.2655,-117.46417,3.79,10.91,1,377.0,0.7309129817,0.0,3.449768282,0.11267302970000001,0.10288693039999999,0.1472028931,0.1180591966,0.07189573219999999,2.3387115762609456,1.1110567057390544,3.0608660551385443,0.3889022268614557,1.7573066991813469,1.692461582818653,1.1271389400939422,2.3226293419060577,1.0292846639221676,2.4204836180778324,447.28195
10972299,33.99879,-117.68043999999999,2.0,1.54998,0.037000000000000005,2.022822,0.430659,0.042183,37.34688963,34.2655,-117.46417,3.79,10.91,1,322.0,1.3994466819999998,0.0,2.0,0.12318133810000001,0.11417850859999999,0.1575766378,0.1310158923,0.08851013390000001,1.5129977412253792,0.4870022587746208,2.075235360512429,-0.07523536051242896,1.7377235202498418,0.2622764797501582,1.9163916349517076,0.08360836504829239,2.2015843798717913,-0.20158437987179134,293.49954
10972299,33.87574,-117.56106000000001,3.0915846730000003,2.649681,0.0558,2.6908830000000004,0.250155,0.017658,45.57377882,34.2655,-117.46417,3.79,10.91,1,362.0,1.809293632,0.0,3.0915846730000003,0.1275838202,0.11895832140000001,0.1618581284,0.1365005624,0.09596530892999999,1.9001962116945457,1.1913884613054546,2.4361799812236233,0.655404691776377,1.9756828418313432,1.115901831168657,1.4044358175679859,1.6871488554320144,1.3024599627864717,1.7891247102135286,351.81018
10972299,34.14844,-118.17113,2.691169465,0.16578900000000002,0.0066,0.21680100000000002,0.053954999999999996,0.003924,67.19346282,34.2655,-117.46417,3.79,10.91,1,891.0,1.191938615,0.0,2.691169465,0.12050268630000001,0.1112841887,0.1549534577,0.1276947603,0.08411284452,1.0,1.6911694650000002,1.0,1.6911694650000002,1.0,1.6911694650000002,1.0,1.6911694650000002,1.0,1.6911694650000002,896.5088
10972299,34.1183,-118.2994,1.0,0.7171109999999999,0.0209,1.068309,0.109872,0.007848,79.29929853,34.2655,-117.46417,3.79,10.91,1,839.0,1.522402185,0.0,1.0,0.1246089199,0.11572536439999999,0.1589689897,0.1327908559,0.09089710721000001,1.0,0.0,1.4099282095722163,-0.4099282095722163,1.2053828203617345,-0.2053828203617345,1.0,0.0,1.0,0.0,881.5123
10972299,34.1192,-118.3004,1.0,0.7171109999999999,0.0209,1.02024,0.104967,0.006867,79.36743259999999,34.2655,-117.46417,3.79,10.91,1,682.0,1.579194934,0.0,1.0,0.12523459,0.11640424710000001,0.1595779984,0.1335698504,0.0919525818,1.0,0.0,1.4099282095722163,-0.4099282095722163,1.1669933026843053,-0.16699330268430534,1.0,0.0,1.0,0.0,577.4633
10972299,34.163000000000004,-117.33200000000001,2.981910646,9.81,0.34,22.288320000000002,2.7271799999999997,0.71613,19.91561956,34.2655,-117.46417,3.79,10.91,8,760.0,1.443181296,0.3380434394,3.038241703,0.12370123220000001,0.11474149369999999,0.1580841529,0.1316618983,0.08937596656999999,3.091274008052115,-0.10936336205211461,3.3173168757330744,-0.3354062297330742,3.53850137591452,-0.5565907299145199,3.1581518240020645,-0.1762411780020643,3.6405140331846093,-0.6586033871846091,343.6899
10972299,34.074,-117.35,2.8972689289999995,7.848,0.2,11.703330000000001,1.65789,0.42183000000000004,26.13009347,34.2655,-117.46417,3.79,10.91,2,282.0,1.776302627,0.4897745357,2.9532554739999997,0.12726361890000001,0.1186097341,0.1615479479,0.13610057039999998,0.09541381507,2.7525140936260524,0.14475483537394718,3.1671063555705867,-0.2698374265705872,3.06569365302152,-0.16842472402152042,2.8317531061324166,0.06551582286758295,3.3715843798717917,-0.47431545087179217,447.3187
9695397,33.48725,-117.68113999999998,2.492851837,3.079359,0.1996,6.864057000000001,1.876653,0.172656,98.95487725,32.7595,-118.28817,4.36,6.94,15,324.0,1.4954728780000002,0.19937822940000002,2.510735127,0.12430509640000001,0.1153959066,0.1586729895,0.1324128145,0.09038661228,2.751235989318488,-0.258384152318488,2.5373434150681398,-0.04449157806813986,2.6740723701301596,-0.18122053313015973,2.9130337869069853,-0.42018194990698543,2.9176761081862312,-0.42482427118623134,351.9
9695397,33.552820000000004,-117.66127,2.874381591,7.316298,0.4732,24.938982,3.123504,0.24426900000000001,105.99668940000001,32.7595,-118.28817,4.36,6.94,26,359.0,1.390096223,0.2332223547,2.865604255,0.1230683482,0.1140562062,0.1574662695,0.1308755546,0.08832248671,3.302315761855162,-0.42793417085516205,3.119881563222272,-0.2454999722222717,3.620975720528672,-0.7465941295286718,3.247133501354873,-0.3727519103548729,3.093979522945687,-0.21959793194568666,447.28177
9695397,33.684740000000005,-117.94286000000001,2.524916083,2.591802,0.1709,9.549054,1.2703950000000002,0.102024,108.0026267,32.7595,-118.28817,4.36,6.94,11,211.0,1.516481536,0.1589230938,2.513039484,0.12454252619999999,0.1156533574,0.1589043206,0.1327082304,0.09078543595,2.652130832199483,-0.12721474919948328,2.4213127363147624,0.10360334668523752,2.9163836710422957,-0.39146758804229576,2.6571715324758474,-0.13225544947584744,2.6503552938232486,-0.12543921082324871,224.07312
9695397,33.70432,-117.88578000000001,2.081679996,3.9632400000000003,0.2822,17.522622,1.496025,0.092214,111.7418942,32.7595,-118.28817,4.36,6.94,23,213.0,1.622488779,0.1389103977,2.111946059,0.1256984841,0.1169079615,0.1600290629,0.13414784529999998,0.09273877592,2.9723188038449435,-0.8906388078449434,2.7072079916545118,-0.6255279956545117,3.3619331469199647,-1.2802531509199646,2.764381646126804,-0.6827016501268037,2.5989858755553223,-0.5173058795553223,227.45026
9695397,33.664,-117.76856000000001,2.414255065,3.381507,0.237,11.72295,2.2563,0.121644,111.80476110000001,32.7595,-118.28817,4.36,6.94,31,248.0,1.1279648009999999,0.103466581,2.438523914,0.11959460029999999,0.1103054296,0.1540609718,0.126571668,0.08264674559,2.8608800686348523,-0.44662500363485247,2.6003508650153933,-0.1860958000153934,3.0669230631488666,-0.6526679981488668,3.0338532145523343,-0.6195981495523344,2.7397296584834905,-0.3254745934834906,293.493
9695397,33.78816,-117.844,2.138670112,1.81485,0.1138,7.500725999999999,0.889767,0.080442,121.8044019,32.7595,-118.28817,4.36,6.94,2,232.0,0.9400795312000001,0.2922169096,2.345802842,0.1166406341,0.1071302633,0.1511462568,0.1229282744,0.07796578601,2.392529125226807,-0.25385901322680704,2.181433054757745,-0.04276294275774539,2.739175259542928,-0.6005051475429282,2.4236311856265127,-0.2849610736265129,2.529588494132624,-0.3909183821326243,447.0045
9695397,33.82843,-117.78938000000001,2.691169465,1.229193,0.0786,4.320323999999999,0.7838189999999999,0.051012,127.76863700000001,32.7595,-118.28817,4.36,6.94,1,394.0,1.8915047280000001,0.0,2.691169465,0.1283600809,0.1198040031,0.162609315,0.1374709529,0.09730815905,2.1562711426779293,0.5348983223220709,1.8967182931676996,0.7944511718323006,2.334273257625159,0.3568962073748412,2.340489818929896,0.35067964607010405,2.2981501988963906,0.3930192661036096,430.1118
9695397,33.96273,-118.43701999999999,2.237216143,0.5601510000000001,0.0312,2.987145,0.340407,0.046107,134.68421519999998,32.7595,-118.28817,4.36,6.94,1,352.0,0.5966816327000001,0.0,2.237216143,0.10956713130000001,0.09958275309,0.14409232,0.1142677674,0.06732186782,1.3523154690200214,0.8849006739799785,1.186783170651232,1.050432972348768,2.0634338350960726,0.17378230790392735,1.6947585863225,0.5424575566774998,2.2467807806284643,-0.009564637628464379,461.02692
9695397,34.01916,-118.28596999999999,2.0,0.47676599999999997,0.0428,1.121283,0.583695,0.033354,140.2397742,32.7595,-118.28817,4.36,6.94,1,335.0,0.3228733992,0.0,2.0,0.10065412900000001,0.09019021664999999,0.1350432365,0.1034901564,0.0550857079,1.6502329787585834,0.34976702124141656,1.0411835055654373,0.9588164944345627,1.245738053589588,0.7542619464104121,2.1471648004158785,-0.14716480041587854,2.082256619783114,-0.08225661978311383,336.3873
9695397,34.07618,-118.3959,1.0,0.44733599999999996,0.0265,1.6824150000000002,0.423792,0.035316,146.91313080000003,32.7595,-118.28817,4.36,6.94,1,285.0,1.774271805,0.0,1.0,0.1272437391,0.11858809669999999,0.161528684,0.1360757423,0.09537962222999999,1.1984435464428733,-0.19844354644287332,1.0,0.0,1.5840764100379223,-0.5840764100379223,1.9012433566146625,-0.9012433566146625,2.111300212741401,-1.111300212741401,351.37506
9695397,34.0602,-117.809,2.516792781,0.9084059999999999,0.0576,3.118599,0.5699609999999999,0.028449000000000002,151.4738863,32.7595,-118.28817,4.36,6.94,1,342.0,1.482592205,0.0,2.516792781,0.1241580815,0.1152365361,0.1585296972,0.1322299424,0.090140074,1.9301167890283706,0.5866759919716293,1.6235309177982908,0.8932618632017091,2.0950422953946077,0.4217504856053922,2.1315501420751684,0.38524263892483157,2.0014319443854545,0.5153608366145455,293.50122
9695397,33.97327,-117.32673999999999,2.516792781,1.241946,0.0552,2.9802779999999998,0.221706,0.016677,161.9715362,32.7595,-118.28817,4.36,6.94,1,358.0,0.77095413,0.0,2.516792781,0.1135030917,0.10377261730000001,0.148030646,0.1190754917,0.07314473513,1.8900077986723618,0.6267849823276381,1.906042173317047,0.610750607682953,2.0617446337188787,0.4550481472811212,1.2906589389761642,1.2261338420238357,1.216818598935113,1.299974182064887,447.16913
9695397,34.156,-118.82021,2.0,0.21483899999999997,0.0117,0.563094,0.161865,0.015696,163.0859063,32.7595,-118.28817,4.36,6.94,2,376.0,1.69853797,0.5058593348,1.6037181980000002,0.1264877972,0.11776574279999999,0.1607956209,0.13513211960000002,0.09408351511,1.0,1.0,1.0,1.0,1.0,1.0,1.0,1.0,1.1259837603430087,0.8740162396569913,422.62003
9695549,32.841,-117.24799999999999,2.775114471,2.178801,0.1152,9.301842,0.7259399999999999,0.048069,105.300802,32.7335,-118.33417,4.17,25.22,3,439.0,1.152348205,0.3915111736,2.7544989230000003,0.11994588560000001,0.11068390630000001,0.154406417,0.127005957,0.08321239743,2.4003351442581735,0.3747793267418267,2.304467141483209,0.4706473295167912,2.8971322203798073,-0.12201774937980714,2.290184078959543,0.4849303920404573,2.2679557004770365,0.5071587705229637,502.5
9695549,33.48725,-117.68113999999998,2.237216143,1.807002,0.1668,3.3030269999999997,1.290015,0.13439700000000002,106.58308170000001,32.7335,-118.33417,4.17,25.22,3,324.0,1.4645885369999998,0.3568731046,2.524401816,0.12395071560000001,0.11501179630000001,0.1583275121,0.1319720612,0.08979286452,2.6366281880635283,-0.39941204506352834,2.1785157958173613,0.05870034718263861,2.137212169914512,0.10000397308548781,2.6672220689326918,-0.4300059259326918,2.790389350416671,-0.5531732074166711,351.9
9695549,33.552820000000004,-117.66127,3.006590246,3.785679,0.2746,7.277058,1.9982970000000002,0.17363699999999999,113.4057795,32.7335,-118.33417,4.17,25.22,9,359.0,1.294793283,0.2570246048,2.9725526660000003,0.1218772456,0.1127680838,0.15630130109999998,0.12939747869999998,0.08635589445,2.954889783364082,0.051700462635917876,2.6763527825187388,0.33023746348126126,2.7169560442161216,0.28963420178387844,2.954220635956017,0.052369610043982995,2.92055500848699,0.08603523751301001,447.28177
9695549,33.684740000000005,-117.94286000000001,2.379877634,1.0349549999999998,0.0769,3.360906,0.766161,0.089271,114.6702183,32.7335,-118.33417,4.17,25.22,2,211.0,1.500611053,0.08471875091,2.371882608,0.1243634333,0.115459155,0.1587298378,0.1324853899,0.09048452806,2.142311719508103,0.2375659144918969,1.7413451815379866,0.6385324524620135,2.1499619393024827,0.22991569469751738,2.3255472433204925,0.05433039067950762,2.582504715859355,-0.20262708185935496,224.07312
