event_id,sta_lat,sta_lon,mmi,pga,pgv,psa03,psa10,psa30,r_hypo,hypo_lat,hypo_lon,magnitude,hypo_depth,n_dyfi,vs30,inst_to_mmi_dist,std_mmi_boot,mean_mmi_boot,std_pga_at_dyfi,std_pgv_at_dyfi,std_psa03_at_dyfi,std_psa10_at_dyfi,std_psa30_at_dyfi,mmi_from_pgv,mmi_res_pgv,mmi_from_pga,mmi_res_pga,mmi_from_psa03,mmi_res_psa03,mmi_from_psa10,mmi_res_psa10,mmi_from_psa30,mmi_res_psa30,CA Vs30
9703873,34.174,-118.2,3.4041353819999998,15.696,0.48,25.58448,3.2765400000000002,1.02024,22.9576343,34.059,-118.3885,4.24,7.9,3,825.0,1.372880123,0.19014477440000002,3.3674211030000003,0.12285856490000001,0.11382918289999999,0.1572612884,0.1306150532,0.08797459088,3.3114246189421133,0.0927107630578865,3.633702848849758,-0.22956746684975826,3.6397311253498437,-0.2355957433498439,3.278501347051231,0.12563403494876857,3.8203552938232486,-0.4162199118232488,354.3452
9703873,33.999,-118.178,3.7737847689999997,14.715,0.62,34.79607,6.749280000000001,1.3930200000000001,21.982130899999998,34.059,-118.3885,4.24,7.9,1,297.0,1.0930900559999999,0.0,3.7737847689999997,0.1190804851,0.1097518564,0.1535549584,0.1259364619,0.08182231853,3.474815783562433,0.29896898543756656,3.5902583272693804,0.18352644173061927,3.8654367117362254,-0.09165194273622568,3.7524027239013913,0.021382045098608415,3.978603649771851,-0.2048188807718514,306.01068
9703873,34.108000000000004,-118.15299999999999,3.484615256,11.772,0.52,33.72678,3.87495,1.12815,23.71649859,34.059,-118.3885,4.24,7.9,16,419.0,1.199708929,0.2237606157,3.502291912,0.120610071,0.111400013,0.1550588893,0.1278276646,0.08428704842,3.3625249151431547,0.12209034085684545,3.440047807106893,0.04456744889310693,3.842528227491889,-0.35791297149188894,3.3885057965617245,0.09610945943827565,3.871442760057401,-0.38682750405740096,461.01727
9703873,34.07,-118.346,5.06855189,352.17900000000003,7.11,259.07229,60.164730000000006,14.57766,8.901254462999999,34.059,-118.3885,4.24,7.9,98,368.0,1.10566364,0.09952715489,5.0743434810000005,0.1192674686,0.1099531443,0.1537390567,0.1261674329,0.0821216913,5.5819079383060615,-0.5133560483060613,7.823573614715507,-2.7550217247155064,5.842176884440475,-0.7736249944404747,5.360521881223352,-0.2919699912233522,5.493146807307626,-0.4245949173076262,442.114
9703873,34.146,-118.413,4.278591227,62.784,1.92,66.49218,27.39933,4.0515300000000005,12.69189102,34.059,-118.3885,4.24,7.9,28,286.0,1.35333987,0.1624597597,4.2957331739999995,0.1226176618,0.1135685625,0.1570257951,0.13031600029999998,0.08757589133999999,4.196452806194218,0.08213842080578182,5.052590058716108,-0.7739988317161082,4.3407329472259395,-0.06214172022593978,4.671211295074286,-0.3926200680742866,4.521087847281665,-0.2424966202816652,297.6892
9703873,34.041,-118.348,5.564323332000001,162.846,5.4,165.60261,29.959740000000004,11.26188,8.963175702000001,34.059,-118.3885,4.24,7.9,18,319.0,1.370996326,0.2260517145,5.538074529,0.1228354711,0.1138041953,0.15723871820000002,0.1305863807,0.08793633299,5.204364281040581,0.3599590509594197,6.58412408072393,-1.0198007487239291,5.037552207493013,0.5267711245069879,4.729796421573576,0.8345269104264244,5.155795274006195,0.40852805799380576,445.35233
9703873,33.873000000000005,-118.175,2.963282654,9.81,0.62,32.29452,5.15025,1.3930200000000001,29.62826738,34.059,-118.3885,4.24,7.9,3,248.0,1.283154731,0.39324861060000005,2.77119634,0.121726587,0.1126053036,0.1561537516,0.12921069400000001,0.08610865526,3.474815783562433,-0.5115331295624332,3.3173168757330744,-0.35403422173307453,3.8106784100716347,-0.8473957560716348,3.575084730308764,-0.6118020763087642,3.978603649771851,-1.0153209957718512,236.91534
9703873,33.961999999999996,-118.37799999999999,3.825865463,70.632,2.56,106.39926000000001,24.84873,5.424930000000001,13.40456955,34.059,-118.3885,4.24,7.9,23,352.0,1.313167135,0.190528267,3.865891325,0.12211270380000001,0.1130225541,0.1565318115,0.12968947449999998,0.08674297563,4.380112749008418,-0.5542472860084184,5.241854391771419,-1.415988928771419,4.685776927386689,-0.859911464386689,4.607133318749497,-0.7812678557494972,4.669414690470173,-0.8435492274701732,522.1287
9703873,33.945,-118.38,3.643274501,16.677,0.84,43.14438,9.46665,2.1680099999999998,14.95695652,34.059,-118.3885,4.24,7.9,10,327.0,1.613244286,0.3449111015,3.675454435,0.1256003446,0.11680137189999999,0.1599336713,0.1340255373,0.09257219559,3.668690550510966,-0.025416049510965877,3.674512703869399,-0.031238202869399156,4.023272633510506,-0.37999813251050574,3.9742804253148956,-0.3310059243148955,4.203365247055254,-0.5600907460552542,497.7082
9703873,33.924,-118.167,4.63387172,20.601,1.07,60.164730000000006,9.81981,2.30535,26.54741002,34.059,-118.3885,4.24,7.9,3,264.0,1.371010698,0.8248143370000001,4.430292829,0.1228356474,0.113804386,0.1572388905,0.13058659960000002,0.08793662501,3.823194153197258,0.8106775668027422,3.816756782570649,0.8171149374293512,4.267338613540505,0.366533106459495,3.9982996391595402,0.6355720808404599,4.234575685701607,0.3992960342983931,253.42662
9703873,34.257,-118.50299999999999,3.643882239,28.449,1.22,48.4614,9.5157,2.7271799999999997,25.65417334,34.059,-118.3885,4.24,7.9,14,366.0,1.387740054,0.20267670850000002,3.701057809,0.1230397719,0.1140252777,0.1574383524,0.1308400652,0.08827505873,3.90694895109188,-0.26306671209187993,4.034033772476456,-0.39015153347645626,4.108569846899606,-0.46468760789960584,3.9776695009077985,-0.3337872619077986,4.319958698067825,-0.6760764590678248,467.21164
9703873,34.185,-118.62299999999999,3.3137402710000003,8.829,0.32,20.74815,4.85595,0.7259399999999999,26.9197065,34.059,-118.3885,4.24,7.9,13,278.0,1.229787371,0.3166723943,3.355095664,0.1210201143,0.11184244210000001,0.15546126529999998,0.1283353368,0.08495384880000001,3.052570468130262,0.26116980286973845,3.2463927653640274,0.06734750563597292,3.4859458314103353,-0.17220556041033497,3.536498032555458,-0.22275776155545746,3.6474273989289174,-0.3336871279289171,289.809
9703873,34.037,-118.26299999999999,4.14302378,63.765,2.59,130.8654,19.78677,5.464169999999999,14.21580531,34.059,-118.3885,4.24,7.9,33,303.0,1.586360371,0.17685524719999998,4.14880602,0.1253121285,0.1164884198,0.1596534206,0.1336664356,0.09208377749,4.38755065319944,-0.24452687319944033,5.0775035745542905,-0.9344797945542904,4.837684655209738,-0.6946608752097383,4.457750088467044,-0.3147263084670442,4.673076865196938,-0.5300530851969381,296.886
9703873,33.92,-118.126,2.99581496,12.753,0.62,31.068270000000002,8.35812,1.49112,29.78274924,34.059,-118.3885,4.24,7.9,4,260.0,1.4910030019999998,0.1833927104,3.051194344,0.12425420460000001,0.1153407342,0.15862339109999998,0.1323495061,0.09030123322000001,3.474815783562433,-0.479000823562433,3.4939290718086715,-0.4981141118086714,3.782266530317173,-0.786451570317173,3.8926079702634864,-0.8967930102634862,4.01318328473906,-1.0173683247390595,234.5511
9703873,34.18,-118.336,3.71958677,51.012,1.44,63.67671,11.48751,3.09996,16.33378739,34.059,-118.3885,4.24,7.9,19,328.0,1.49794637,0.1962177762,3.7172895880000003,0.1243332013,0.1154263771,0.1587003781,0.1324477783,0.09043377886,4.0127928633800165,-0.2932060933800167,4.718936526424482,-0.9993497564244822,4.308977922650241,-0.5893911526502413,4.1011650937250375,-0.38157832372503764,4.385060173507208,-0.6654734035072081,299.00916
9703873,34.236,-118.439,3.742737978,60.821999999999996,2.57,80.16731999999999,17.39313,5.55246,21.71101667,34.059,-118.3885,4.24,7.9,5,313.0,1.4404683809999999,0.5304720632,3.762477123,0.1236693852,0.11470699570000001,0.1580530791,0.13162231300000002,0.08932281447000001,4.382601691297003,-0.6398637132970029,5.001573406119265,-1.2588354281192649,4.4780062281717345,-0.7352682501717345,4.373194372923155,-0.6304563949231552,4.681221511333953,-0.9384835333339527,301.20822
9703873,34.163000000000004,-118.255,3.456783906,51.993,0.96,36.17928,6.79833,1.99143,18.63330889,34.059,-118.3885,4.24,7.9,28,335.0,1.369769047,0.1338992752,3.468208587,0.1228204109,0.1137879003,0.15722399869999998,0.13056768289999998,0.08791138785,3.753938712568165,-0.29715480656816506,4.749544872498644,-1.2927609664986441,3.894047945143532,-0.43726403914353185,3.7571513664295972,-0.30036746042959717,4.160196651202135,-0.7034127452021348,357.5003
9703873,34.219,-118.429,3.449768282,91.23299999999999,2.74,71.66205,25.2117,5.53284,19.81992918,34.059,-118.3885,4.24,7.9,3,302.0,1.388798835,0.2178121782,3.385888245,0.1230526183,0.11403918140000001,0.1574509027,0.1308560192,0.08829637843,4.4234933273459704,-0.9737250453459705,5.653111064625286,-2.2033427826252856,4.395689475475475,-0.945921193475475,4.616643198396024,-1.166874916396024,4.679422838504186,-1.2296545565041859,315.48166
9706897,33.82843,-117.78938000000001,2.0,1.375362,0.04,1.749123,0.100062,0.007848,15.856342499999998,33.9225,-117.77383,3.1,11.83,3,394.0,1.6022373509999999,0.0373699849,2.006822795,0.1254828526,0.11667378169999999,0.1598194453,0.13387913199999998,0.09237294741,1.5864701811816788,0.4135298188183212,1.9982159338515988,0.0017840661484012088,1.616499870127327,0.383500129872673,1.0,1.0,1.0,1.0,430.1118
9706897,33.94551,-117.92368,3.1663041639999996,2.81547,0.1154,7.457561999999999,0.36296999999999996,0.023544,18.37430664,33.9225,-117.77383,3.1,11.83,8,333.0,1.323405111,0.4812774337,3.064039945,0.1222426579,0.1131630366,0.1566589886,0.1298506734,0.08695696854,2.4014425389649774,0.7648616250350222,2.477033815670762,0.6892703483292375,2.734939395520016,0.4313647684799835,1.7552413672516827,1.411062796748317,1.733498604085109,1.4328055599148906,342.56732
9706897,33.8717,-117.92251,2.395365588,1.0751760000000001,0.0578,3.7876410000000003,0.309996,0.023544,18.97806057,33.9225,-117.77383,3.1,11.83,3,295.0,1.237167353,0.29062930670000003,2.280727602,0.12111938439999999,0.1119495905,0.1555586292,0.1284582859,0.08511566175,1.9333834093725484,0.46198217862745183,1.7757860181284368,0.6195795698715634,2.2376939679632852,0.15767162003671498,1.60656459530824,0.7888009926917603,1.733498604085109,0.6618669839148912,293.62802
9706897,33.78816,-117.844,2.0,2.602593,0.0507,1.752066,0.16578900000000002,0.011772,20.12649339,33.9225,-117.77383,3.1,11.83,4,232.0,1.390501676,0.0,2.0,0.12307326140000001,0.1140615239,0.1574710692,0.1308816565,0.08833064232000001,1.8098672717533395,0.1901327282466605,2.424109613205685,-0.42410961320568497,1.6179016839714995,0.38209831602850053,1.016757775037975,0.983242224962025,1.0,1.0,447.0045
9706897,34.1183,-118.2994,1.0,0.952551,0.0063,0.202086,0.033354,0.000981,54.40761164,33.9225,-117.77383,3.1,11.83,1,839.0,1.522402185,0.0,1.0,0.1246089199,0.11572536439999999,0.1589689897,0.1327908559,0.09089710721000001,1.0,0.0,1.6663960637085178,-0.6663960637085178,1.0,0.0,1.0,0.0,1.0,0.0,881.5123
9706897,34.1192,-118.3004,1.0,0.887805,0.0071,0.18148499999999998,0.037278,0.003924,54.52951164,33.9225,-117.77383,3.1,11.83,1,682.0,1.579194934,0.0,1.0,0.12523459,0.11640424710000001,0.1595779984,0.1335698504,0.0919525818,1.0,0.0,1.60280911024669,-0.6028091102466899,1.0,0.0,1.0,0.0,1.0,0.0,577.4633
9718013,33.4947,-116.6022,4.341701836,166.54437,1.3364,48.196529999999996,6.6089970000000005,1.1399219999999999,17.32995159,33.50833,-116.51433,5.09,15.22,1,650.0,1.5042867580000001,0.0,4.341701836,0.1244050589,0.11550428830000001,0.1587703974,0.13253717880000002,0.09055442504000001,3.9651266064401574,0.376575229559843,6.620209664999191,-2.2785078289991905,4.10454733460649,0.23715450139351013,3.738628668668313,0.6030731673316874,3.8767174566672202,0.46498437933278014,650.2997
9718013,33.6117,-116.4594,4.069588647,48.153366,0.6534,21.622221,4.290894000000001,0.6298020000000001,19.74009655,33.50833,-116.51433,5.09,15.22,1,726.0,0.6241228012,0.0,4.069588647,0.1102483151,0.1003060798,0.1447763504,0.1150977598,0.06831146672999999,3.508313321304945,0.5612753256950547,4.6262674342419885,-0.5566787872419887,3.516232191031868,0.5533564559681317,3.455371138005212,0.6142175089947877,3.575242269684234,0.4943463773157659,680.4341
9718013,33.5736,-116.6747,4.593639298,103.291452,1.2145,65.298303,11.744532000000001,2.242566,22.47740536,33.50833,-116.51433,5.09,15.22,2,655.0,1.4614797519999998,9.112518314e-16,4.593639298,0.12391468369999999,0.11497275189999999,0.158292372,0.1319272591,0.08973259730000001,3.9040643531374895,0.6895749448625108,5.852587042844338,-1.2589477448443374,4.3274348829458456,0.2662044150541547,4.1156759114996815,0.4779633865003188,4.220545471333013,0.3730938266669872,351.9
9718013,33.82434,-116.51208999999999,6.012290902,46.137411,1.1148,51.184656,9.907119,1.8168119999999999,38.29386671,33.50833,-116.51433,5.09,15.22,2,273.0,1.3520333619999998,0.7153069029000001,5.726752024,0.12260144640000001,0.11355102310000001,0.1570099398,0.13029587439999998,0.08754908552000001,3.8493795312606616,2.1629113707393386,4.557545743304104,1.4547451586958964,4.148696923889222,1.863593978110778,4.004104524188014,2.0081863778119864,4.1135662361883965,1.8987246658116037,293.50043
9718013,33.81841,-116.36873999999999,4.341701836,60.680735999999996,2.3226,61.74414,17.908154999999997,1.260585,40.02528441,33.50833,-116.51433,5.09,15.22,2,244.0,1.727326385,0.8304401988,4.194664249,0.12677855470000002,0.1180819475,0.1610777038,0.1354949536,0.09458108948999999,4.31798239990282,0.023719436097180413,4.997836934665024,-0.6561350986650236,4.286357491414113,0.05534434458588766,4.392330756467246,-0.05062892046724521,3.9278429462144318,0.4138588897855686,293.5
9718013,33.0859,-116.5959,4.069588647,26.874495,1.0928,55.994499,2.549619,0.276642,49.95495473,33.50833,-116.51433,5.09,15.22,2,617.0,1.686509106,0.9064478997,3.900563886,0.1263650315,0.117632269,0.1606764706,0.134978963,0.09387378263,3.836654808916062,0.23293383808393786,3.9957073981277036,0.07388124887229619,4.214616344610469,-0.14502769761046963,3.1140016642122976,0.9555869827877022,3.157217743577328,0.9123709034226719,710.0442
9718013,33.8084,-116.96799999999999,5.806191437000001,43.586811,0.9435,81.833058,21.749751,2.804679,55.74955699,33.50833,-116.51433,5.09,15.22,2,252.0,0.844206384,0.5193202488,5.7531310520000005,0.1149290034,0.10529663980000001,0.14944915720000002,0.1208242549,0.07531625128,3.7428705996163965,2.0633208373836043,4.466162680329765,1.340028756670236,4.493100319835646,1.3130911171643547,4.519779957924181,1.28641147907582,4.334196848612522,1.4719945883874788,281.27722
9718013,33.38852,-117.19053999999998,3.449768282,14.817023999999998,0.3017,6.3647279999999995,0.877014,0.146169,65.91804269,33.50833,-116.51433,5.09,15.22,1,716.0,1.44193162,0.0,3.449768282,0.12368656869999999,0.1147256094,0.15806984570000002,0.1316436716,0.0893514916,3.014975705957233,0.4347925760427671,3.5949094400117647,-0.14514115801176475,2.6186386248518803,0.8311296571481197,2.4141638355476047,1.0356044464523952,2.833054220886036,0.6167140611139641,702.6547
9718013,32.99862,-116.94153,4.069588647,17.607969,0.4544,16.883991,1.099701,0.217782,70.86554944,33.50833,-116.51433,5.09,15.22,1,659.0,1.371966046,0.0,4.069588647,0.1228473625,0.1138170617,0.1572503401,0.1306011446,0.08795603169999999,3.276434334373355,0.7931543126266449,3.7110792749537227,0.3585093720462771,3.3346836199961967,0.7349050270038031,2.5625486571841787,1.507039989815821,3.035659266950922,1.0339293800490776,700.0273
9718013,33.57508,-117.26118999999998,3.282541128,16.086438,0.3372,8.884917,2.5937639999999997,0.168732,71.25937856,33.50833,-116.51433,5.09,15.22,5,401.0,1.09603832,0.21904324530000002,3.302628995,0.1191244967,0.1097992302,0.1535982972,0.1259908217,0.08189273551,3.0859947219504757,0.19654640604952434,3.6502427429513458,-0.3677016149513457,2.8634748847039067,0.41906624329609343,3.1252589728943088,0.15728215510569132,2.905994569725508,0.37654655827449224,677.68884
9718013,33.16,-117.23,3.0957791219999997,9.620667,0.179,4.765698,0.970209,0.251136,78.43640133,33.50833,-116.51433,5.09,15.22,9,650.0,1.258545822,0.1003352623,3.0992055030000003,0.12140406470000001,0.11225694580000001,0.1558377359,0.1288109655,0.08558052428,2.681693955540443,0.41408516645955684,3.304197947448123,-0.20841882544812318,2.4062844959114416,0.6894946260885582,2.4803905824775097,0.6153885395224901,3.10806704625854,-0.012287924258540084,707.88544
9718013,34.226409999999994,-116.04082,2.138670112,4.75785,0.1726,9.831582000000001,1.793268,0.114777,92.29522685,33.50833,-116.51433,5.09,15.22,2,744.0,1.21966132,0.06871111699,2.133007285,0.12088305740000001,0.11169453210000001,0.15532680810000002,0.1281656152,0.08473068722,2.6584499633274103,-0.5197798513274106,2.8302165705665834,-0.6915464585665836,2.9377842365255558,-0.799114124525556,2.883228231176466,-0.7445581191764661,2.7102037450866847,-0.5715336330866849,710.09924
9718013,33.97327,-117.32673999999999,3.1291496960000003,8.971245,0.3015,20.637297,1.730484,0.10790999999999999,92.45151627,33.50833,-116.51433,5.09,15.22,6,358.0,1.164761015,0.2506158123,3.161422533,0.1201222313,0.1108739726,0.1545797383,0.1272240515,0.08349706804,3.01455235521997,0.11459734078003025,3.257151625942349,-0.1280019299423487,3.482013936961434,-0.35286424096143376,2.859857039167428,0.2692926568325724,2.6788557284787986,0.45029396752120165,447.16913
9718013,34.12128,-117.21897,2.0,4.247730000000001,0.2295,14.228423999999999,3.5551440000000003,0.275661,95.47093934,33.50833,-116.51433,5.09,15.22,2,302.0,1.5462289969999998,0.5516791636999999,1.7211648430000002,0.12487385349999999,0.1160127609,0.1592269585,0.1331206334,0.09134334849999999,2.8403505541137215,-0.8403505541137215,2.7538731150807907,-0.7538731150807907,3.209085670156436,-1.209085670156436,3.33201834756298,-1.3320183475629799,3.155412681132619,-1.1554126811326189,446.03555
9718013,33.99351,-117.37545,2.471764309,5.079618,0.1124,3.136257,1.306692,0.093195,97.36782543,33.50833,-116.51433,5.09,15.22,2,343.0,0.9293585871,1.012944118,2.3725364069999997,0.11645699039999999,0.1069333119,0.1509644641,0.1227022795,0.077679288,2.3846264775125716,0.08713783148742849,2.8742680471862974,-0.40250373818629726,2.0991863585177946,0.37257795048220554,2.6756455616655357,-0.20388125266553558,2.604362905031627,-0.13259859603162694,447.25363
9718013,32.841,-117.24799999999999,3.5737506060000004,12.549933,0.6988,51.293547,7.380063000000001,0.5738850000000001,101.9819025,33.50833,-116.51433,5.09,15.22,7,439.0,1.285612384,0.18271663,3.449347429,0.1217584998,0.1126397812,0.1561850095,0.1292502559,0.0861609975,3.551198757577013,0.02255184842298741,3.483124095557418,0.0906265104425823,4.150256697828737,-0.5765060918287364,3.8109946855127426,-0.23724407951274218,3.527998650159827,0.04575195584017333,502.5
9718013,33.87574,-117.56106000000001,3.0915846730000003,7.415379,0.2288,9.808038,2.4819299999999997,0.15696,106.2013787,33.50833,-116.51433,5.09,15.22,1,362.0,0.2781170508,0.0,3.0915846730000003,0.09859524286,0.08804017549000001,0.1329255641,0.1010230585,0.052449293279999996,2.8384003495778503,0.25318432342215,3.128936611012351,-0.037351938012350594,2.9360244970026477,0.1555601759973526,3.096356169141254,-0.004771496141253717,2.8692466665511076,0.22233800644889268,351.81018
9718013,33.48725,-117.68113999999998,2.0,2.209212,0.1828,5.718249,4.113333,0.36296999999999996,109.28375919999999,33.50833,-116.51433,5.09,15.22,3,324.0,1.300839967,0.4680117283,2.119495904,0.12195505289999999,0.11285216460000001,0.1563774854,0.1294939584,0.08648371390000001,2.6951050013547846,-0.6951050013547846,2.3137978743110024,-0.31379787431100237,2.540025256708504,-0.5400252567085042,3.427656724395157,-1.427656724395157,3.2952223040020594,-1.2952223040020594,351.9
9718013,33.99879,-117.68043999999999,2.1883001909999997,4.104504,0.3359,13.130685,4.465512,0.42477299999999996,121.7713851,33.50833,-116.51433,5.09,15.22,2,322.0,1.804816697,0.029780890289999997,2.1906388690000003,0.127540669,0.1189113363,0.1618163386,0.1364466485,0.09589090522,3.0835287056472462,-0.8952285146472465,2.730783973314862,-0.542483782314862,3.15015635785243,-0.9618561668524301,3.4815295847801617,-1.293229393780162,3.375117125577113,-1.1868169345771133,293.49954
