event_id,sta_lat,sta_lon,mmi,pga,pgv,psa03,psa10,psa30,r_hypo,hypo_lat,hypo_lon,magnitude,hypo_depth,n_dyfi,vs30,inst_to_mmi_dist,std_mmi_boot,mean_mmi_boot,std_pga_at_dyfi,std_pgv_at_dyfi,std_psa03_at_dyfi,std_psa10_at_dyfi,std_psa30_at_dyfi,mmi_from_pgv,mmi_res_pgv,mmi_from_pga,mmi_res_pga,mmi_from_psa03,mmi_res_psa03,mmi_from_psa10,mmi_res_psa10,mmi_from_psa30,mmi_res_psa30,CA Vs30
9613261,34.282,-118.47923999999999,3.954040889,135.973467,2.7163,50.380236,4.037796,0.450279,10.99553917,34.289,-118.40299999999999,4.05,8.44,11,460.0,1.675610566,0.3094115318,3.932016571,0.1262531396,0.11751063640000001,0.1605678496,0.1348393938,0.09368281222000001,4.417947268437728,-0.46390637943772806,6.294329260986363,-2.3402883719863627,4.137070414632697,-0.1830295256326968,3.415501984962266,0.538538904037734,3.404747128922271,0.5492937600777288,321.32343
9613261,34.3087,-118.5026,4.593639298,20.202714,0.45,16.64757,2.714427,0.103986,12.63880844,34.289,-118.40299999999999,4.05,8.44,1,307.0,0.3416187569,0.0,4.593639298,0.10144346539999999,0.09101649697999999,0.1358522982,0.10443828460000001,0.056115472740000005,3.270222395249755,1.3234169027502451,3.8036149737620146,0.7900243242379856,3.3243336167355144,1.2693056812644858,3.1550780124686066,1.4385612855313936,2.660034149203457,1.933605148796543,339.24902
9613261,34.19551,-118.3534,2.6412269090000002,14.582564999999999,0.836,34.518446999999995,2.843919,0.339426,14.14529751,34.289,-118.40299999999999,4.05,8.44,12,328.0,1.3864717309999999,0.24592561,2.718251931,0.12302437179999999,0.11400861050000001,0.1574233068,0.1308209401,0.08824950422,3.665643227835354,-1.0244163188353537,3.584172491721557,-0.9429455827215567,3.8595572905160926,-1.2183303815160924,3.1856389873518154,-0.5444120783518152,3.261145322431224,-0.6199184134312237,297.53003
9613261,34.416,-118.449,3.132186263,9.225324,0.2328,11.382543,2.742876,0.138321,16.98498731,34.289,-118.40299999999999,4.05,8.44,15,321.0,0.88710964,0.3634587343,3.1701622510000003,0.1157148409,0.1061379175,0.1502290822,0.12178959199999999,0.07652691587,2.8494649746874408,0.28272128831255916,3.2759514374350722,-0.1437651744350723,3.0452950971110453,0.08689116588895462,3.161915304446971,-0.029729041446971305,2.80501264865047,0.3271736143495301,286.03976
9613261,34.22869,-118.55828999999999,3.438417353,18.21717,0.6485,39.299841,2.811546,0.24034499999999998,17.88532616,34.289,-118.40299999999999,4.05,8.44,6,285.0,1.557087387,0.5049943675999999,3.290085299,0.12499340910000001,0.1161424866,0.1593433276,0.1332694892,0.09154505365,3.503507671217545,-0.06509031821754485,3.733975326529734,-0.2955579735297338,3.954771121427913,-0.5163537684279129,3.1781312231183705,0.2602861298816297,3.0857506055501784,0.35266674744982174,292.94907
9613261,34.1058,-118.4538,3.0915846730000003,4.285008,0.1858,7.809741000000001,1.037898,0.083385,22.53965054,34.289,-118.40299999999999,4.05,8.44,1,677.0,1.099137959,0.0,3.0915846730000003,0.119170657,0.10984891990000001,0.1536437477,0.12604783890000001,0.08196662228,2.7054971931967056,0.3860874798032947,2.759754951762929,0.33182972123707133,2.7688065876419623,0.322778085358038,2.5246175403915116,0.5669671326084886,2.5478464299293977,0.5437382430706026,583.12616
9613261,34.1192,-118.3004,2.6769748719999997,11.557161,0.2654,19.622943,1.741275,0.11281500000000001,22.73209215,34.289,-118.40299999999999,4.05,8.44,6,682.0,1.661941452,0.3488498575,2.850795582,0.1261119013,0.1173571283,0.1604307067,0.1346632486,0.09344200744999999,2.933134350236773,-0.2561594782367731,3.4276492175176996,-0.7506743455176998,3.4450220812857344,-0.7680472092857347,2.8639337018263493,-0.1869588298263496,2.7014427600574007,-0.024467888057400966,577.4633
9613261,34.1183,-118.2994,2.590539708,11.961333,0.2788,21.135645,1.808964,0.11281500000000001,22.85348732,34.289,-118.40299999999999,4.05,8.44,6,839.0,1.5855016080000002,0.3528675469,2.671789485,0.1253028518,0.1164783489,0.1596443977,0.1336548796,0.09206807674,2.9645803710561784,-0.37404066305617834,3.4507882651251194,-0.8602485571251193,3.499526885555855,-0.9089871775558547,2.8889431664093608,-0.29840345840936067,2.7014427600574007,-0.11090305205740059,881.5123
9613261,34.07618,-118.3959,2.891030176,4.909905,0.1838,5.879133,1.8903869999999998,0.123606,25.13302417,34.289,-118.40299999999999,4.05,8.44,22,285.0,1.4962605469999999,0.1681158841,2.851697487,0.1243140506,0.1154056144,0.1586817157,0.13242395380000002,0.09040163832999999,2.6985878953636355,0.1924422806363646,2.851393202546847,0.03963697345315298,2.5603901325257015,0.33064004347429865,2.917815571295503,-0.026785395295502834,2.747859824631224,0.14317035136877632,351.37506
9613261,34.15573,-118.64093000000001,3.4779808919999997,7.753824000000001,0.2132,11.283462,1.360647,0.089271,27.73789598,34.289,-118.40299999999999,4.05,8.44,6,306.0,1.570309933,0.1695152475,3.407139103,0.1251380161,0.1162994225,0.1594840444,0.1334495678,0.09178929864,2.793317184521166,0.6846637074788338,3.15897961968141,0.31900127231858955,3.0388782871309257,0.43910260486907404,2.7021796383864287,0.775801253613571,2.582504715859355,0.8954761761406447,476.65723
9613261,34.14844,-118.17113,2.0,1.2301739999999999,0.0507,2.418165,0.22563000000000002,0.020600999999999998,27.74968758,34.289,-118.40299999999999,4.05,8.44,3,891.0,1.4627106580000002,0.0,2.0,0.1239289583,0.1149882197,0.15830629359999998,0.1319450079,0.08975647086,1.8098672717533395,0.1901327282466605,1.8974389414088382,0.10256105859116182,1.8865777845680842,0.11342221543191577,1.3071930301844796,0.6928069698155204,1.5334263870120894,0.46657361298791056,896.5088
9613261,34.08377,-118.59899999999999,2.237216143,5.867361,0.1463,6.500106,0.365913,0.031392,30.28259194,34.289,-118.40299999999999,4.05,8.44,1,352.0,0.6217236344,0.0,2.237216143,0.1101898099,0.1002439252,0.1447176413,0.1150264395,0.06822617267000002,2.552909159404207,-0.3156930164042069,2.9713162694718402,-0.7341001264718403,2.634086222531283,-0.39687007953128317,1.762851791051156,0.47436435194884385,2.0514517614779657,0.18576438152203423,426.5421
9613261,34.13677,-118.1283,2.8055779210000003,2.4132599999999997,0.1106,5.727078,0.439488,0.084366,31.55639082,34.289,-118.40299999999999,4.05,8.44,16,398.0,1.13497628,0.18528022670000002,2.73360324,0.11969628560000001,0.1104149667,0.1541609919,0.12669735810000002,0.08281028817000001,2.3743200366439585,0.43125788435604173,2.373266291743312,0.4323116292566884,2.541157616420514,0.2644203045794864,1.935516916402276,0.8700610045977242,2.5537894747986494,0.2517884462013509,499.65768
9613261,34.01467,-118.45617,2.5034947999999995,3.520809,0.1455,7.047503999999999,1.6716240000000002,0.094176,32.02611811,34.289,-118.40299999999999,4.05,8.44,14,375.0,1.222585499,0.2789017019,2.535986428,0.120922738,0.111737352,0.1553657398,0.1282147495,0.08479526748999999,2.5494086001832312,-0.04591380018323177,2.627525736149596,-0.12403093614959637,2.6934303902027708,-0.1899355902027713,2.8371632637160977,-0.33366846371609826,2.609683629499971,-0.10618882949997133,473.9156
9613261,34.27128,-118.74427,2.674433875,4.0211190000000006,0.207,6.088086,1.5745049999999998,0.110853,32.5315125,34.289,-118.40299999999999,4.05,8.44,8,287.0,0.7128885640000001,0.3686965811,2.819293425,0.11228639439999999,0.102474762,0.1468168263,0.1175862477,0.07131777151,2.774476407821669,-0.10004253282166875,2.716967649123652,-0.042533774123652,2.58602319662801,0.08841067837199024,2.797911487644514,-0.12347761264451407,2.6925280657192765,-0.018094190719276426,293.5622
9613261,34.15037,-118.10156,2.30713326,3.777831,0.1588,6.732603,0.896634,0.048069,32.81821926,34.289,-118.40299999999999,4.05,8.44,11,390.0,1.3452080030000002,0.22662189600000002,2.295835511,0.1225165125,0.11345916,0.1569268837,0.1301904647,0.08740874392,2.6052502321938835,-0.29811697219388344,2.674955829598307,-0.36782256959830706,2.6598799613438766,-0.35274670134387653,2.428672937723854,-0.12153967772385377,2.2679557004770365,0.039177559522963534,467.60947
9613261,34.01916,-118.28596999999999,2.0026679769999998,2.4731009999999998,0.1256,6.868962,0.753408,0.05886,32.97711291,34.289,-118.40299999999999,4.05,8.44,6,335.0,1.042456192,0.2464877711,2.143466089,0.11830800279999999,0.10892084369999999,0.1527936489,0.1249829036,0.08059125712000001,2.4555147699197306,-0.45284679291973085,2.389754786531565,-0.3870868095315654,2.6745966630836753,-0.6719286860836755,2.314539624413352,-0.31187164741335227,2.3708632497925386,-0.36819527279253883,336.3873
9613261,34.00033,-118.37794,4.385009428,5.1012,0.2805,10.85967,1.9796580000000001,0.109872,33.2697284,34.289,-118.40299999999999,4.05,8.44,3,359.0,1.459671568,0.9206265664,4.300801751,0.12389369539999999,0.11495000970000001,0.1582719021,0.1319011632,0.08969750092,2.968461312420505,1.416548115579495,2.8771220583670134,1.5078873696329866,3.0107807825036836,1.3742286454963164,2.948075136636115,1.436934291363885,2.688011373367788,1.6969980546322119,525.505
9613261,34.483990000000006,-118.11762,1.0,4.265388,0.1455,10.139616,0.61803,0.03924,35.03021354,34.289,-118.40299999999999,4.05,8.44,1,458.0,1.9812549919999998,0.0,1.0,0.1291745637,0.1206922416,0.1633963085,0.1384901759,0.09872596612,2.5494086001832312,-1.5494086001832312,2.756665655625172,-1.7566656556251719,2.9604270293188475,-1.9604270293188475,2.1846484118406777,-1.1846484118406777,2.1648364766973915,-1.1648364766973915,447.3615
9613261,34.14647,-118.76698999999999,2.3565125940000002,2.535885,0.0911,3.7817550000000004,0.6405930000000001,0.036297,37.98055086,34.289,-118.40299999999999,4.05,8.44,4,402.0,1.293541566,0.12716771400000002,2.472280928,0.1218610992,0.1127506367,0.15628549,0.1293774587,0.08632938103,2.250492014150307,0.10602057984969315,2.4066307242495144,-0.05011813024951417,2.2365525094526313,0.11996008454736895,2.208163085891131,0.14834950810886927,2.1252223040020595,0.23129028999794077,351.9
9613261,34.61462,-118.29104,2.237216143,1.914912,0.0603,3.6924839999999994,0.21091500000000002,0.01962,38.56925401,34.289,-118.40299999999999,4.05,8.44,1,391.0,1.370599387,0.0,2.237216143,0.1228306015,0.1137989263,0.15723395869999998,0.1305803348,0.08792826674000001,1.9732885673441283,0.26392757565587166,2.217560586395617,0.019655556604382785,2.2190191521549627,0.01819699084503723,1.2436350840431682,0.9935810589568317,1.4603233052208022,0.7768928377791977,351.9001
9613261,34.156,-118.82021,2.0,0.956475,0.0403,0.959418,0.59841,0.036297,41.96884693,34.289,-118.40299999999999,4.05,8.44,2,376.0,1.26932925,0.4442616583,1.75,0.1215460624,0.1124102991,0.155976894,0.128986933,0.08581285302000001,1.5935119501262078,0.40648804987379217,1.670109666152824,0.3298903338471759,1.1157398924228414,0.8842601075771586,2.163492233032028,-0.1634922330320281,2.1252223040020595,-0.12522230400205947,422.62003
9613261,34.28085,-118.9049,3.0915846730000003,1.482291,0.1019,3.253977,1.3743809999999999,0.079461,46.88652403,34.289,-118.40299999999999,4.05,8.44,1,331.0,0.859443648,0.0,3.0915846730000003,0.1152119981,0.1055994879,0.1497301719,0.1211717626,0.07575109944,2.322016050489447,0.7695686225105534,2.045176795458564,1.0464078775414363,2.126231150086567,0.9653535229134333,2.7087657664472884,0.3828189065527119,2.5233537589316954,0.5682309140683048,293.49924
9613261,33.8693,-118.33106000000001,2.0,2.416203,0.1032,4.319343,0.538569,0.131454,47.88612978,34.289,-118.40299999999999,4.05,8.44,1,281.0,1.274600549,0.0,2.0,0.1216150931,0.11248486099999999,0.15604453,0.12907249029999998,0.08592590687000001,2.330109155018053,-0.3301091550180528,2.374086714083684,-0.3740867140836839,2.3341065816452407,-0.33410658164524065,2.0943984222854075,-0.09439842228540751,2.7791389009305005,-0.7791389009305005,433.7392
9613261,34.39727,-118.91807,2.237216143,2.91357,0.1799,5.528916000000001,1.073214,0.083385,49.52183365,34.289,-118.40299999999999,4.05,8.44,1,280.0,1.320511968,0.0,2.237216143,0.1222060234,0.1131234316,0.1566231403,0.129805228,0.0868966177,2.6848958101179603,-0.44767966711796037,2.5000893721747532,-0.2628732291747533,2.515312266917711,-0.2780961239177109,2.546560338381861,-0.3093441953818612,2.5478464299293977,-0.31063028692939776,351.9
9613261,33.78816,-117.844,1.0,0.527778,0.0256,1.366533,0.14715,0.011772,76.32640753,34.289,-118.40299999999999,4.05,8.44,4,232.0,1.4446348409999998,0.0,1.0,0.12371827390000001,0.1147599546,0.15810078,0.1316830815,0.08940441502,1.1658807247267138,-0.16588072472671378,1.1330071988859567,-0.1330071988859567,1.4106754347646568,-0.41067543476465684,1.0,0.0,1.0,0.0,447.0045
9613261,34.139,-118.36399999999999,3.500110668,26.487,1.37,69.15853800000001,10.710558,2.946924,19.03394018,34.289,-118.40299999999999,4.05,8.44,18,413.0,1.031216256,0.1630411409,3.525446735,0.1181320986,0.10873173900000001,0.1526201202,0.1247659125,0.08031222353999999,3.9809792337199177,-0.48086856571991765,3.9859307101795043,-0.48582004217950425,4.369590089144451,-0.8694794211444505,4.055240248020382,-0.5551295800203824,4.359335202992268,-0.859224534992268,351.64426
9613261,34.288000000000004,-118.40700000000001,2.237216143,97.119,2.54,47.76489,24.9174,24.8193,8.448728151000001,34.289,-118.40299999999999,4.05,8.44,1,449.0,0.9447186667,0.0,2.237216143,0.1167195349,0.10721489769999999,0.1512243409,0.1230253895,0.07808904069,4.375105563431308,-2.1378894204313084,5.753574374986659,-3.516358231986659,4.097944522201203,-1.8607283792012033,4.608943094261876,-2.3717269512618757,6.1887629596789235,-3.9515468166789236,450.4949
9613261,34.258,-118.301,3.887118975,14.715,0.54,30.961340999999997,3.8151089999999996,1.159542,13.07512103,34.289,-118.40299999999999,4.05,8.44,16,373.0,1.112086702,0.2369639211,3.906868965,0.1193622727,0.1100552213,0.1538323711,0.1262845627,0.08227368471,3.3866188269397637,0.5005001480602362,3.5902583272693804,0.2968606477306195,3.7797360795649775,0.10738289543502244,3.3782994763184333,0.5088194986815666,3.8853887344016016,0.001730240598398325,353.319
9613261,34.152,-118.45299999999999,3.8397372919999997,27.468000000000004,1.19,44.633538,9.193932,2.531961,18.01205029,34.289,-118.40299999999999,4.05,8.44,24,291.0,1.304416388,0.17228950350000002,3.818736723,0.1220009251,0.11290173960000001,0.1564223952,0.129550844,0.08655911381,3.89105403324702,-0.051316741247020126,4.010411824313514,-0.17067453231351415,4.04817830098429,-0.2084410089842903,3.9551109248524057,-0.11537363285240598,4.282218252160002,-0.44248096016000193,283.43698
9613261,34.257,-118.50299999999999,3.396538508,14.715,0.76,19.789713,6.177357,1.750104,12.97411621,34.289,-118.40299999999999,4.05,8.44,16,366.0,1.3892122619999998,0.2067315919,3.3497796510000004,0.1230576322,0.114044608,0.1574558009,0.1308622461,0.08830470002,3.604795980652763,-0.2082574726527633,3.5902583272693804,-0.19371981926938053,3.451233428822949,-0.05469492082294902,3.6943360590518837,-0.29779755105188377,4.094558261390597,-0.6980197533905974,467.21164
9613261,34.273,-118.464,4.381034836,61.803000000000004,1.68,52.772895,11.109825,3.415842,10.28641923,34.289,-118.40299999999999,4.05,8.44,13,319.0,1.400277335,0.2429986165,4.344331917,0.1231913437,0.1141893397,0.1575864101,0.1310283207,0.08852675976,4.111204644137018,0.2698301918629822,5.027284187953978,-0.6462493519539771,4.171125134245177,0.2099097017548237,4.0792418802999215,0.3017929557000789,4.434365943977811,-0.05333110797781071,476.31924
9613261,34.055,-118.264,2.0,9.81,0.34,15.214329000000001,2.458386,0.7769520000000001,30.1956626,34.289,-118.40299999999999,4.05,8.44,4,389.0,1.298782264,0.43471639240000004,2.27198078,0.12192861029999999,0.112823589,0.1563515957,0.1294611689,0.08644026471,3.091274008052115,-1.0912740080521148,3.3173168757330744,-1.3173168757330744,3.2582579184200746,-1.2582579184200746,3.0901055928195476,-1.0901055928195476,3.681934749303383,-1.681934749303383,399.52127
9613261,34.219,-118.62700000000001,2.9219381980000003,23.544,0.81,26.652789000000002,6.767919,1.739313,23.5724658,34.289,-118.40299999999999,4.05,8.44,7,299.0,1.266091846,0.1632912078,2.8628433560000004,0.1215035427,0.1123643759,0.15593522869999998,0.1289342378,0.08574325278999999,3.645472977751615,-0.7235347797516147,3.9066443003860636,-0.9847061023860633,3.669755778115378,-0.7478175801153775,3.7542112610351266,-0.8322730630351263,4.091415507496749,-1.1694773094967488,291.66574
9613261,34.262,-118.669,3.210360073,12.753,0.32,16.757442,2.362248,0.665118,26.03124595,34.289,-118.40299999999999,4.05,8.44,5,600.0,1.116299961,0.279738605,3.22258083,0.1194242013,0.1101219081,0.15389331679999999,0.1263610835,0.08237304566,3.052570468130262,0.15778960486973803,3.4939290718086715,-0.2835689988086716,3.3291617358453536,-0.11880166284535365,3.063945470870307,0.14641460212969282,3.602965028668139,-0.39260495566813924,413.3815
9613261,34.044000000000004,-118.443,2.9119188210000004,6.867000000000001,0.32,16.385642999999998,2.410317,0.6965100000000001,28.75664876,34.289,-118.40299999999999,4.05,8.44,25,295.0,1.412694079,0.1696741401,2.908706983,0.12334029560000001,0.114350599,0.1577318655,0.1312133601,0.08877444024,3.052570468130262,-0.14065164713026146,3.077218837755172,-0.1653000167551717,3.3126939763008068,-0.4007751553008063,3.0771559684506906,-0.16523714745069018,3.6263985548449935,-0.7144797338449931,306.9519
9613261,34.075,-118.21799999999999,3.615635324,9.81,0.28,11.810259,2.282787,0.601353,30.44775825,34.289,-118.40299999999999,4.05,8.44,2,337.0,0.9395551439000001,0.12789437310000001,3.5971192210000003,0.1166316942,0.1071206743,0.1511374086,0.1229172714,0.07795182674,2.9673223060730622,0.6483130179269376,3.3173168757330744,0.29831844826692544,3.0723691036450593,0.5432662203549405,3.041506720928731,0.5741286030712689,3.5517550420302215,0.06388028196977835,445.5487
9613261,34.029,-118.43299999999999,2.882688695,8.829,0.34,11.384505,3.863178,0.766161,30.24368703,34.289,-118.40299999999999,4.05,8.44,25,281.0,1.427431017,0.17912732059999997,2.863017015,0.1235156053,0.1145404357,0.1579030054,0.13143119109999998,0.08906636732,3.091274008052115,-0.2085853130521147,3.2463927653640274,-0.3637040703640273,3.0454215979170147,-0.1627329029170146,3.386510506986939,-0.5038218119869389,3.6748279964801167,-0.7921393014801166,296.32474
9613261,34.387,-118.53299999999999,3.491894373,20.601,0.71,17.130222,4.7088,1.5264360000000001,18.23325181,34.289,-118.40299999999999,4.05,8.44,18,296.0,1.3991583509999999,0.24051588989999997,3.484557878,0.12317786380000001,0.1141747476,0.1575732445,0.1310115768,0.08850436117,3.5613497726170404,-0.06945539961704039,3.816756782570649,-0.32486240957064894,3.3453101359824045,0.1465842370175956,3.5163184506029053,-0.024424077602905214,4.02507751024847,-0.5331831372484697,284.0541
9613261,34.084,-118.307,2.810465916,13.734000000000002,0.55,30.748464000000002,4.245768,1.186029,25.86149858,34.289,-118.40299999999999,4.05,8.44,8,382.0,1.61690147,0.4328003915,2.580636931,0.1256392278,0.11684360140000001,0.1599714679,0.1340739942,0.09263817886,3.398333153556538,-0.5878672375565381,3.5438153310343434,-0.7333494150343434,3.774672270738259,-0.9642063547382591,3.4484379328345236,-0.6379720168345235,3.8968650588507785,-1.0863991428507784,374.04074
9613261,34.199,-118.396,3.5204206019999997,11.772,0.6,23.300712,5.26797,1.32435,13.1071939,34.289,-118.40299999999999,4.05,8.44,10,321.0,1.507781464,0.38004252619999995,3.606545107,0.1244445526,0.1155471123,0.1588088765,0.1325863178,0.09062076529999999,3.453882338063956,0.06653826393604367,3.440047807106893,0.08037279489310656,3.5711046151723425,-0.05068401317234272,3.5899053535720977,-0.06948475157209799,3.952916795982832,-0.43249619398283246,306.90775
9627557,33.81841,-116.36873999999999,2.1883001909999997,6.394158,0.2283,9.657945,0.8103060000000001,0.085347,22.14426587,33.81517,-116.14633,3.89,8.25,2,244.0,1.5566293709999999,0.43001531600000004,2.3764612730000003,0.1249883808,0.11613703019999999,0.1593384339,0.1332632282,0.09153656625,2.8370036898906457,-0.6487034988906459,3.029194127733218,-0.8408939367332184,2.924705870819934,-0.7364056798199341,2.3622840536195464,-0.17398386261954668,2.55966381240746,-0.37136362140746026,293.5
