event_id,sta_lat,sta_lon,mmi,pga,pgv,psa03,psa10,psa30,r_hypo,hypo_lat,hypo_lon,magnitude,hypo_depth,n_dyfi,vs30,inst_to_mmi_dist,std_mmi_boot,mean_mmi_boot,std_pga_at_dyfi,std_pgv_at_dyfi,std_psa03_at_dyfi,std_psa10_at_dyfi,std_psa30_at_dyfi,mmi_from_pgv,mmi_res_pgv,mmi_from_pga,mmi_res_pga,mmi_from_psa03,mmi_res_psa03,mmi_from_psa10,mmi_res_psa10,mmi_from_psa30,mmi_res_psa30,CA Vs30,ztor,dip,r_rup,r_rup_var,r_jb,r_jb_var,r_x,r_y,r_y0,width
9652545,33.70432,-117.88578,2.237216143,1.01043,0.04,1.982601,0.131454,0.013734,71.6654438,34.22617,-117.43967,3.84,8.73,1,213.0,1.682217327,0.0,2.237216143,0.1263210447,0.1175844508,0.1606337725,0.1349240933,0.09379868755,1.79527018118,0.441945961818,2.04929748343,0.187918659565,1.78416248997,0.453053653027,1.0453592391,1.1918569039,1.0,1.237216143,227.45026,0.0,90.0,70.8040543733,0.732283288837,70.3902180663,0.484096159166,0.0,0.0,0.0,0.0
9652545,33.84822,-118.09624,2.379877634,4.558707,0.1581,8.371854,0.398286,0.046107,74.17898607,34.22617,-117.43967,3.84,8.73,2,241.0,1.819883622,0.2081086632,2.406296243,0.1276855224,0.1190690702,0.1619566084,0.1366276427,0.09614077122,2.8112298488,-0.4313522148,3.14632102873,-0.766443394725,2.891987798,-0.512110163999,2.08270748142,0.29717015258,2.28432067174,0.0955569622641,229.2819,0.0,90.0,73.3173500509,0.727160037852,72.9217696956,0.484208990092,0.0,0.0,0.0,0.0
9652545,34.01916,-118.28597,1.0,0.366894,0.0151,1.261566,0.090252,0.006867,81.70012463,34.22617,-117.43967,3.84,8.73,1,335.0,0.3573196382,0.0,1.0,0.1020761808,0.09167961727,0.1364997157,0.1051991922,0.05694851005,1.0,0.0,1.19222017149,-0.192220171488,1.44136558234,-0.441365582338,1.0,0.0,1.0,0.0,336.3873,0.0,90.0,80.8433003214,0.716011739118,80.4901815867,0.48446994299,0.0,0.0,0.0,0.0
9652545,33.7902,-118.1985,3.091584673,1.719693,0.0523,3.559068,0.177561,0.015696,85.54902981,34.22617,-117.43967,3.84,8.73,1,207.0,1.470579988,0.0,3.091584673,0.1240199708,0.115086847,0.1583950462,0.1320581793,0.08990875437,2.04794866484,1.04363600816,2.55323823613,0.538346436867,2.3013380569,0.790246616097,1.29102074004,1.80056393296,1.1282211598,1.9633635132,228.18095,0.0,90.0,84.6914118873,0.710311475928,84.360004305,0.484603371438,0.0,0.0,0.0,0.0
9652545,34.07618,-118.3959,2.0,0.390438,0.0149,0.759294,0.121644,0.006867,89.98340729,34.22617,-117.43967,3.84,8.73,2,285.0,1.692160731,0.9490498479,1.988735447,0.1264228065,0.1176950806,0.1607325476,0.1350510372,0.09397245876,1.0,1.0,1.29118253812,0.708817461875,1.04316939616,0.95683060384,1.0,1.0,1.0,1.0,351.37506,0.0,90.0,89.12262714,0.703747452832,88.8162205973,0.484757018275,0.0,0.0,0.0,0.0
9652545,33.38852,-117.19054,3.773784769,4.251654,0.0761,1.172295,0.074556,0.006867,96.34069145,34.22617,-117.43967,3.84,8.73,1,716.0,1.674500283,0.0,3.773784769,0.1262417051,0.1174982074,0.160556748,0.134825132,0.09366330634,2.34443544545,1.42934932355,3.21518063572,0.558604133283,1.42312152476,2.35066324424,1.0,2.773784769,1.0,2.773784769,702.6547,0.0,90.0,95.4718230793,0.694342297269,95.2012388767,0.484977168691,0.0,0.0,0.0,0.0
9652545,34.235,-117.408,4.19928939,30.975075,0.7998,54.725085,3.094074,0.366894,9.254945411,34.22617,-117.43967,3.84,8.73,5,436.0,0.8090082765,0.2908579483,4.361254562,0.1142578873,0.1045789463,0.1487820617,0.1200007264,0.07429014153,3.8461826577,0.353106732298,3.54849908254,0.650790307465,3.74778577245,0.451503617551,3.90732533255,0.291964057455,3.83428606142,0.365003328582,352.1925,0.0,90.0,7.80982197719,1.1596080509,2.47119947831,0.354945952268,0.0,0.0,0.0,0.0
9652545,34.069,-117.276,3.133629732,8.667135,0.3569,19.410066,1.563714,0.115758,24.66765328,34.22617,-117.43967,3.84,8.73,25,266.0,0.7927287118,0.097334163,3.129178153,0.1139388514,0.104238018,0.1484646024,0.1196095229,0.07380488348,3.33104342549,-0.197413693495,3.0911074264,0.0425223055963,3.22229303253,-0.0886633005341,3.26765890153,-0.134029169529,3.02461536915,0.109014362846,286.80032,0.0,90.0,23.7958273522,1.0954118489,22.3427226021,0.477166137891,0.0,0.0,0.0,0.0
9652545,34.103,-117.349,3.091584673,7.434018,0.2146,10.459422,0.970209,0.089271,18.25874134,34.22617,-117.43967,3.84,8.73,5,287.0,1.327213574,0.1458348898,3.071871656,0.1222907763,0.1132150598,0.1567060705,0.1299103682,0.08703626812,3.00629568492,0.085288988084,2.8545267602,0.237057912795,2.69010117113,0.401483501868,3.0186698727,0.0729148003049,2.96706633917,0.124518333826,447.99936,0.0,90.0,17.3293871005,1.21882602113,15.3172113205,0.472420794824,0.0,0.0,0.0,0.0
9652545,34.145,-117.219,3.015185952,6.59232,0.2778,13.087521,1.120302,0.08829,23.86794817,34.22617,-117.43967,3.84,8.73,5,303.0,1.246428355,0.1371600512,3.063089328,0.1212432284,0.112083284,0.1556800682,0.1286116945,0.08531773992,3.17108639486,-0.15590044286,2.89231063678,0.122875315223,2.92442872412,0.0907572278831,3.05599060689,-0.040804654886,2.89513542382,0.120050528183,353.63168,0.0,90.0,22.9978334951,1.11082092277,21.4865292735,0.476701991121,0.0,0.0,0.0,0.0
9652545,34.165,-117.289,3.096303064,11.17359,0.3422,16.39251,1.291977,0.103005,17.73429606,34.22617,-117.43967,3.84,8.73,8,332.0,1.444049169,0.2723979036,2.967868112,0.1237114091,0.1147525181,0.1580940823,0.1316745484,0.08939295488,3.30419160765,-0.207888543651,3.11591888153,-0.0196158175345,3.01228987617,0.0840131878269,3.21269986471,-0.116396800706,3.04699381275,0.0493092512474,295.36575,0.0,90.0,16.7992338121,1.22733352495,14.7187005304,0.471753695843,0.0,0.0,0.0,0.0
9652545,34.123,-117.288,3.131017095,14.498199,0.5243,27.973215,1.509759,0.199143,20.06243927,34.22617,-117.43967,3.84,8.73,20,279.0,1.633471886,0.1523294284,3.157475812,0.125814448,0.1170339284,0.1601417567,0.1342923879,0.09293578807,3.57658239084,-0.445565295839,3.34589811171,-0.214881016715,3.4366755496,-0.305658454597,3.2886064679,-0.157589372903,3.35143792218,-0.220420827184,354.97635,0.0,90.0,19.157628157,1.18649341668,17.3407700928,0.474220278942,0.0,0.0,0.0,0.0
9652545,34.206,-117.367,3.583103019,104.876748,3.0647,97.290675,4.712724,0.710244,11.22015563,34.22617,-117.43967,3.84,8.73,5,404.0,1.171625048,0.3350051434,3.768126301,0.1202190445,0.1109783383,0.1546748648,0.1273438076,0.0836535534,4.70379031346,-1.12068729446,5.38526077191,-1.80215775291,4.2000903652,-0.616987346201,4.15876525862,-0.57566223962,4.1414210472,-0.558318028195,362.61166,0.0,90.0,9.98459161056,1.29844834971,6.36448778771,0.448122243594,0.0,0.0,0.0,0.0
9652545,34.14,-117.294,3.642509773,13.025718,0.4744,19.618038,2.013012,0.162846,18.64320004,34.22617,-117.43967,3.84,8.73,6,276.0,0.9101456722,0.2611898559,3.666320027,0.1161232174,0.1065754864,0.1506338764,0.1222916871,0.07715994209,3.51273268012,0.129777092876,3.24130337415,0.401206398851,3.15715087218,0.485358900821,3.49287696521,0.149632807786,3.26735608791,0.375153685089,294.2605,0.0,90.0,17.7151443433,1.21263567715,15.7527077651,0.472906198327,0.0,0.0,0.0,0.0
9652545,34.092,-117.29,3.008460728,11.81124,0.4276,19.591551,1.848204,0.151074,22.10071103,34.22617,-117.43967,3.84,8.73,23,274.0,1.55007777,0.1563461235,3.009846763,0.1249163138,0.1160588307,0.1592682902,0.133173497,0.09141496068,3.44642541391,-0.437964685909,3.25078230153,-0.242321573533,3.20049073263,-0.192030004632,3.40065727822,-0.392196550223,3.18711396992,-0.178653241918,295.95847,0.0,90.0,21.2300517483,1.14565563646,19.5780903331,0.475559571614,0.0,0.0,0.0,0.0
9652545,34.047,-117.277,3.029871072,6.689439,0.2658,10.772361,1.39302,0.094176,26.40600794,34.22617,-117.43967,3.84,8.73,15,281.0,1.460279559,0.162643575,3.073191109,0.1239007551,0.1149576593,0.1582787875,0.1319099409,0.08970930538,3.14289581561,-0.113024743612,2.94692075045,0.0829503215528,2.80787774965,0.221993322351,3.17736523491,-0.147494162912,2.90291306227,0.126958009735,509.53244,0.0,90.0,25.5573377185,1.0638549094,24.1914850443,0.477789363229,0.0,0.0,0.0,0.0
9652545,34.36,-117.63,2.471764309,6.598206,0.1612,7.324146,0.462051,0.055917,24.56379367,34.22617,-117.43967,3.84,8.73,6,579.0,0.9575841794,0.3297284402,2.454657106,0.1169365944,0.1074477804,0.1514390875,0.1232926144,0.07842862605,2.82362660508,-0.35186229608,2.90564136292,-0.433877053921,2.50586726332,-0.0341029543195,2.45785422853,0.0139100804742,2.65593146675,-0.18416715775,403.53238,0.0,90.0,23.6900584977,1.09730666679,22.2317147479,0.477128716691,0.0,0.0,0.0,0.0
9652545,34.234,-117.482,4.069588647,35.176698,0.6874,26.631207,2.032632,0.214839,9.597673647,34.22617,-117.43967,3.84,8.73,1,386.0,0.3831236484,0.0,4.069588647,0.1030654339,0.09271781024,0.1375099964,0.1063904827,0.05826450237,3.74949800587,0.320090641132,3.6341252732,0.435463373797,3.21916121778,0.850427429225,3.63179270629,0.437795940714,3.56234590121,0.507242745793,352.0347,0.0,90.0,8.19661462953,1.20345599,3.35249491981,0.398195664771,0.0,0.0,0.0,0.0
9652545,34.156,-117.398,2.5464838,32.93217,0.6521,40.963617,1.659852,0.1962,12.31998632,34.22617,-117.43967,3.84,8.73,3,308.0,1.540027492,0.1070772107,2.608323249,0.124805243,0.1159383233,0.1591601645,0.133035219,0.09122768712,3.7158418743,-1.1693580743,3.68216388477,-1.13568008477,3.58956993793,-1.04308613793,3.45452971327,-0.908045913267,3.46458355318,-0.918099753183,352.09036,0.0,90.0,11.179081752,1.29907338531,7.99798302008,0.457038090471,0.0,0.0,0.0,0.0
9652545,34.166,-117.251,3.449768282,6.919974,0.28,14.365764,0.976095,0.106929,20.54452377,34.22617,-117.43967,3.84,8.73,3,593.0,1.697122718,1.355043085e-15,3.449768282,0.1264733927,0.1177500808,0.1607816421,0.135114148,0.09405889558,3.17612230607,0.273645975927,2.85854183167,0.59122645033,2.95375387753,0.496014404467,2.99753595558,0.452232326423,3.02957852463,0.420189757368,418.07376,0.0,90.0,19.6516662059,1.1767582364,17.874117296,0.474539548391,0.0,0.0,0.0,0.0
9652545,33.979,-117.373,3.065562457,8.829,0.2,8.77995,1.60884,0.55917,29.48333893,34.22617,-117.43967,3.84,8.73,34,342.0,0.708879717,0.1247789739,3.036498186,0.1121992471,0.1023818928,0.1467297625,0.1174796834,0.07118783529,2.96131409363,0.104248363374,3.18256096363,-0.116998506629,2.68649823188,0.379064225118,3.24836582688,-0.182803369884,3.78074116895,-0.71517871195,447.2582,0.0,90.0,28.6424769788,1.00858554803,27.4294390768,0.478880890702,0.0,0.0,0.0,0.0
9652545,34.096,-117.746,2.455609363,6.867,0.23,10.90872,1.83447,0.50031,32.86527457,34.22617,-117.43967,3.84,8.73,10,354.0,1.077005125,0.2322960477,2.445804059,0.1188385313,0.109491472,0.1533166337,0.1256376798,0.0814357363,3.05053991895,-0.594930555946,3.06149084796,-0.605881484959,2.87413075261,-0.418521389608,3.31132374823,-0.855714385232,3.69734315188,-1.24173378888,351.90005,0.0,90.0,32.0196869316,0.95627222962,30.9508688401,0.479893430103,0.0,0.0,0.0,0.0
9652545,34.097,-117.286,3.0754115,11.772,0.42,21.91554,2.80566,0.87309,21.96410727,34.22617,-117.43967,3.84,8.73,28,278.0,1.295466321,0.1343194322,3.091777783,0.1218859217,0.1127774591,0.1563097968,0.1294082364,0.08637014286,3.43497645688,-0.359564956885,3.24579563431,-0.170384134312,3.28114999211,-0.205738492106,3.67571724971,-0.60030574971,4.08003586765,-1.00462436765,299.84656,0.0,90.0,21.0923975276,1.1483681576,19.429483371,0.475470613309,0.0,0.0,0.0,0.0
9652545,34.076,-117.67,2.691169465,9.81,0.26,11.01663,1.80504,0.54936,28.35967967,34.22617,-117.43967,3.84,8.73,3,354.0,1.301121809,0.1950920154,2.555831571,0.1219586719,0.1128560756,0.1563810286,0.1294984461,0.08648966125,3.12881082152,-0.437641356517,3.23627222322,-0.545102758223,2.84293388394,-0.151764418942,3.33209544759,-0.640925982586,3.78136652543,-1.09019706043,293.5,0.0,90.0,27.5201717423,1.02869131586,26.2515432156,0.478483817216,0.0,0.0,0.0,0.0
9652545,34.134,-117.253,3.331165556,10.791,0.25,12.39984,1.78542,0.51993,21.82003545,34.22617,-117.43967,3.84,8.73,7,261.0,1.5067648,0.2700652631,3.392668226,0.1244330715,0.1155346629,0.1587976907,0.1325720325,0.09060147742,3.10377181275,0.227393743252,3.1843080986,0.146857457404,2.86143712929,0.469728426713,3.38071280663,-0.049547250626,3.81828144673,-0.487115890733,295.59253,0.0,90.0,20.9470435871,1.15123240423,19.272564045,0.475376679102,0.0,0.0,0.0,0.0
9652545,34.163,-117.332,3.530018618,17.658,0.83,38.24919,6.20973,1.8639,14.95380521,34.22617,-117.43967,3.84,8.73,26,760.0,1.568467432,0.1616398659,3.549015834,0.1251179296,0.1162776218,0.1594645007,0.1334245522,0.09175535415,3.86984479579,-0.339826177793,3.3484360122,0.181582605796,3.58973330219,-0.0597146841927,4.2785354419,-0.748516823895,4.56055952003,-1.03054090203,343.6899,0.0,90.0,13.9324580441,1.27113286545,11.4309621702,0.46723339569,0.0,0.0,0.0,0.0
9652545,34.074,-117.35,2.870500287,24.525,0.54,17.12826,3.46293,1.12815,20.75104075,34.22617,-117.43967,3.84,8.73,6,282.0,1.212045421,0.2464566965,2.906109569,0.1207793202,0.1115825992,0.155225014,0.128037176,0.08456196749,3.59541882694,-0.72491853994,3.71470457009,-0.844204283088,3.0854499977,-0.214949710702,3.82583444451,-0.95533415751,4.22433002661,-1.35382973961,447.3187,0.0,90.0,19.8625111356,1.17260346856,18.1017385365,0.4746758058,0.0,0.0,0.0,0.0
9652545,34.135,-117.322,3.334516567,17.658,0.49,34.68816,4.13001,1.04967,17.20899104,34.22617,-117.43967,3.84,8.73,3,287.0,0.5014731449,0.222353222,3.187946153,0.1069709065,0.09683293586,0.1414756549,0.1111124471,0.06362053475,3.53338823764,-0.198871670642,3.41065977528,-0.0761432082804,3.55461026152,-0.220093694516,3.98118999673,-0.646673429728,4.23402472391,-0.899508156909,293.36707,0.0,90.0,16.2631533414,1.23593614376,14.1134983121,0.47107913861,0.0,0.0,0.0,0.0
9653493,34.07618,-118.3959,1.0,0.162846,0.0097,0.224649,0.149112,0.00981,194.0575083,35.796,-118.04617,4.1,8.44,1,285.0,1.968855533,0.0,1.0,0.1290639827,0.1205715921,0.1632895303,0.1383517347,0.09853294657,1.0,0.0,1.0,0.0,1.0,0.0,1.0,0.0,1.0,0.0,351.37506,0.0,90.0,192.903570051,1.09667935641,192.895830373,0.837300603972,0.0,0.0,0.0,0.0
9653493,33.55282,-117.66127,2.691169465,0.063765,0.0077,0.211896,0.07848,0.007848,252.0420033,35.796,-118.04617,4.1,8.44,1,359.0,0.6515662847,0.0,2.691169465,0.1109039864,0.1010030321,0.1454337886,0.1158974885,0.06927120856,1.0,1.691169465,1.0,1.691169465,1.0,1.691169465,1.0,1.691169465,1.0,1.691169465,447.28177,0.0,90.0,250.881837619,1.07834199837,250.921727496,0.837944396272,0.0,0.0,0.0,0.0
9655209,33.8084,-116.968,3.028038898,9.075231,0.1821,5.687838,0.501291,0.034335,34.04539703,34.02383,-116.75717,3.78,14.38,6,252.0,0.92382752,0.2396079424,2.843709613,0.1163615237,0.1068309479,0.150869932,0.1225848204,0.0775305632,2.91225562032,0.115783277681,3.27500890247,-0.24697000447,2.40534652176,0.622692376244,2.47045112381,0.557587774195,2.33991260891,0.688126289086,281.27722,0.0,90.0,33.1483148385,1.06234172056,30.1698389108,0.423509927947,0.0,0.0,0.0,0.0
9655209,33.82434,-116.51209,2.870500287,14.232348,0.4361,19.059849,1.19682,0.090252,34.78757989,34.02383,-116.75717,3.78,14.38,6,273.0,1.137271525,0.201767998,3.064482512,0.1197294538,0.1104506995,0.1541936126,0.1267383602,0.0828636677,3.46979154741,-0.59929126041,3.58746127448,-0.71696098748,3.29850709083,-0.428006803827,3.0365496603,-0.166049373299,2.82564624132,0.0448540456836,293.50043,0.0,90.0,33.898580341,1.05391108455,30.9864405254,0.423667969382,0.0,0.0,0.0,0.0
9655209,33.81841,-116.36874,3.449768282,3.426633,0.1365,5.116896,0.801477,0.053955,44.86720428,34.02383,-116.75717,3.78,14.38,1,244.0,1.705491831,0.0,3.449768282,0.1265584219,0.1178425374,0.1608641529,0.1352202388,0.09420426619,2.72824499752,0.721523284476,2.74164227271,0.708126009291,2.39962922346,1.05013905854,2.71945427309,0.730314008908,2.50125109839,0.94851718361,293.5,0.0,90.0,44.0203818412,0.933132749504,41.8073149796,0.425250225959,0.0,0.0,0.0,0.0
9655209,33.723,-116.338,2.691169465,15.696,0.36,10.6929,2.41326,0.75537,53.13481264,34.02383,-116.75717,3.78,14.38,1,239.0,0.3944513306,0.0,2.691169465,0.1034815304,0.09315499951,0.1379342293,0.1068921423,0.05882295744,3.34736467613,-0.656195211128,3.84098958546,-1.14982012046,2.98464957686,-0.293480111863,3.40632040866,-0.715150943657,3.80035431778,-1.10918485278,293.5,0.0,90.0,52.3006904844,0.85858371085,50.4573771748,0.426033969375,0.0,0.0,0.0,0.0
9655209,33.751,-117.015,2.691169465,15.696,0.34,11.86029,2.26611,0.70632,41.15274199,34.02383,-116.75717,3.78,14.38,2,340.0,0.6671052961,9.112518314e-16,2.691169465,0.11126466,0.1013867118,0.1457950298,0.1163377477,0.06980215134,3.31087400805,-0.619704543052,3.72778960177,-1.03662013677,2.9941110181,-0.302941553097,3.41944287089,-0.728273405891,3.82949800457,-1.13832853957,228.20152,0.0,90.0,40.2971758109,0.975314915789,37.8664599764,0.424773490747,0.0,0.0,0.0,0.0
9655209,33.962,-116.509,3.489200704,20.601,0.79,31.33314,5.55246,1.79523,27.88403183,34.02383,-116.75717,3.78,14.38,5,379.0,1.641656365,0.5404460104,3.726775928,0.1259004211,0.1171273299,0.160225289,0.1343995629,0.09308197189,3.8491118242,-0.359911120197,3.73841946378,-0.249218759785,3.60571064606,-0.116509942055,4.08997276405,-0.600772060049,4.39984138703,-0.910640683032,368.41217,0.0,90.0,26.9057281161,1.10978681514,23.2042139345,0.421666404378,0.0,0.0,0.0,0.0
9655209,33.829,-116.512,2.741784792,20.601,0.56,25.00569,3.5316,1.15758,34.46452658,34.02383,-116.75717,3.78,14.38,5,275.0,1.15179856,0.1947686843,2.858353031,0.1199380387,0.11067545,0.1543987033,0.1269962537,0.08319974143,3.6294363997,-0.887651607699,3.83227654612,-1.09049175412,3.49535971549,-0.753574923488,3.74814852289,-1.00636373089,4.12442601458,-1.38264122258,293.50067,0.0,90.0,33.5724287932,1.05757600713,30.6314516853,0.423599266425,0.0,0.0,0.0,0.0
9659437,34.09957,-117.43876,2.0,7.523289,0.1692,4.327191,0.270756,0.028449,20.49942164,34.22567,-117.46417,3.16,14.77,2,295.0,1.394914717,0.3249618572,2.20735084,0.1231266569,0.1141193182,0.1575232284,0.1309479735,0.0884192989,2.97694852729,-0.976948527293,3.02943835971,-1.02943835971,2.07248389583,-0.0724838958264,2.18986294606,-0.189862946055,2.50013922767,-0.500139227671,293.50055,0.0,90.0,19.8482909287,0.316212613686,13.8559870266,0.115290820089,0.0,0.0,0.0,0.0
9659437,34.15037,-118.10156,1.0,0.555246,0.0091,0.328635,0.022563,0.004905,61.03609682,34.22567,-117.46417,3.16,14.77,1,390.0,1.76163594,0.0,1.0,0.1271195972,0.1184529925,0.1614083719,0.1359207149,0.09516622576,1.0,0.0,1.5529367307,-0.552936730697,1.0,0.0,1.0,0.0,1.0,0.0,467.60947,0.0,90.0,60.5939256936,0.224647178184,58.8571604161,0.116788538529,0.0,0.0,0.0,0.0
9666905,34.2623,-116.92075,2.237216143,8.321823,0.2494,8.427771,1.517607,0.089271,14.7636209,34.2635,-116.76417,3.92,3.3,1,330.0,1.482950371,0.0,2.237216143,0.1241621845,0.1152409836,0.1585336969,0.1322350456,0.09014695032,3.08783778024,-0.85062163724,2.82274529214,-0.585529149144,2.47622091931,-0.239004776305,3.33407004227,-1.09685389927,3.00286477149,-0.765648628489,351.9,0.0,90.0,13.9732541136,0.936142932659,13.6202523356,0.528816383352,0.0,0.0,0.0,0.0
9666905,34.12128,-117.21897,4.069588647,1.3734,0.0352,1.652985,0.211896,0.012753,44.84147484,34.2635,-116.76417,3.92,3.3,1,302.0,0.9094185245,0.0,4.069588647,0.1161104651,0.1065618185,0.1506212411,0.1222760037,0.0771401346,1.66039757975,2.40919106725,2.10523986561,1.96434878139,1.51036904211,2.55921960489,1.57188512083,2.49770352617,1.0,3.069588647,446.03555,0.0,90.0,43.9489776622,0.733572719936,43.9255250846,0.54132392734,0.0,0.0,0.0,0.0
9666905,34.241,-116.872,3.500383609,12.753,0.47,23.9364,3.61008,1.01043,10.7410793,34.2635,-116.76417,3.92,3.3,4,316.0,1.063267207,0.2354547523,3.421330269,0.1186293753,0.1092664557,0.1531105197,0.1253794814,0.08110228681,3.49238385117,0.0079997578345,2.9691979532,0.531185655797,3.15948886349,0.340894745508,3.97006090612,-0.469677297124,4.31454852368,-0.814164914675,351.9,0.0,90.0,9.96811069259,1.03300467738,9.46609836489,0.520123259887,0.0,0.0,0.0,0.0
9674049,35.34413,-119.1043,2.0,1.816812,0.1359,6.214635,1.62846,0.180504,133.9285925,36.01633,-117.87433,5.1,2.97,3,272.0,1.085036968,0.1967297412,2.00308825,0.1189597392,0.1096219016,0.1534360383,0.1257873433,0.08162928337,2.4878326014,-0.487832601397,2.57457116918,-0.574571169178,2.82724707253,-0.827247072528,2.5688394758,-0.568839475796,2.56694535608,-0.566945356078,228.44888,0.0,90.0,131.435700147,4.30051137741,131.583522209,3.84270341694,0.0,0.0,0.0,0.0
