event_id,sta_lat,sta_lon,mmi,pga,pgv,psa03,psa10,psa30,r_hypo,hypo_lat,hypo_lon,magnitude,hypo_depth,n_dyfi,vs30,inst_to_mmi_dist,std_mmi_boot,mean_mmi_boot,std_pga_at_dyfi,std_pgv_at_dyfi,std_psa03_at_dyfi,std_psa10_at_dyfi,std_psa30_at_dyfi,mmi_from_pgv,mmi_res_pgv,mmi_from_pga,mmi_res_pga,mmi_from_psa03,mmi_res_psa03,mmi_from_psa10,mmi_res_psa10,mmi_from_psa30,mmi_res_psa30,CA Vs30
9695549,33.70432,-117.88578000000001,2.0,1.4489370000000001,0.0812,4.722534,0.965304,0.080442,118.4441358,32.7335,-118.33417,4.17,25.22,3,213.0,1.7342437240000002,0.1311145311,2.034452852,0.1268477875,0.11815725740000001,0.1611448479,0.1355813691,0.09469974251,2.1770473629845277,-0.17704736298452772,2.0298566434665966,-0.029856643466596555,2.3996065884555713,-0.3996065884555713,2.477066780797095,-0.4770667807970952,2.529588494132624,-0.5295884941326241,227.45026
9695549,33.664,-117.76856000000001,2.0,2.073834,0.1125,4.2163379999999995,1.5087780000000002,0.0981,118.789454,32.7335,-118.33417,4.17,25.22,15,248.0,0.9530249687000001,0.08419625367999999,2.039388815,0.1168599662,0.10736555789999999,0.1513632869,0.12319826689999999,0.07830865802999999,2.3851942079976505,-0.3851942079976505,2.2712295993387563,-0.27122959933875634,2.3163915380713096,-0.3163915380713096,2.769948248718541,-0.7699482487185412,2.630426286843676,-0.6304262868436759,293.493
9695549,33.78816,-117.844,1.0,0.705339,0.0561,2.18763,0.567999,0.055916999999999994,128.31979009999998,32.7335,-118.33417,4.17,25.22,1,232.0,0.9522251942000001,0.0,1.0,0.11684649130000001,0.1073511001,0.1513499562,0.12318167699999999,0.07828757134,1.9052494089258705,-0.9052494089258705,1.3949761574962634,-0.39497615749626336,1.803034628283115,-0.8030346282831149,2.129288813394197,-1.1292888133941972,2.3447998679804902,-1.3447998679804902,447.0045
9695549,34.1183,-118.2994,1.0,0.47088,0.0139,0.280566,0.324711,0.013734,156.06774730000004,32.7335,-118.33417,4.17,25.22,1,839.0,1.89139383,0.0,1.0,0.1283590538,0.11980288359999999,0.1626083218,0.13746966830000001,0.09730637681,1.0,0.0,1.0299618392410892,-0.029961839241089194,1.0,0.0,1.6502703725196135,-0.6502703725196135,1.0,0.0,881.5123
9695549,34.1192,-118.3004,1.0,0.474804,0.0136,0.267813,0.31392,0.014715,156.16459650000002,32.7335,-118.33417,4.17,25.22,1,682.0,1.980311264,0.0,1.0,0.1291661686,0.1206830816,0.1633882029,0.138479665,0.09871130672,1.0,0.0,1.0374584177202446,-0.03745841772024461,1.0,0.0,1.6184190789805002,-0.6184190789805002,1.0292846639221676,-0.029284663922167553,577.4633
9695549,34.156,-118.82021,1.0,0.109872,0.0085,0.251136,0.17658,0.014715,166.3993321,32.7335,-118.33417,4.17,25.22,1,376.0,1.915217144,0.0,1.0,0.1285784999,0.12004210929999999,0.1628204804,0.1377441715,0.09768748812999999,1.0,0.0,1.0,0.0,1.0,0.0,1.0761849621004786,-0.07618496210047865,1.0292846639221676,-0.029284663922167553,422.62003
9698857,33.6117,-116.4594,3.7737847689999997,7.372215,0.0939,0.893691,0.084366,0.00981,29.96625721,33.647,-116.74183000000001,3.39,14.1,1,726.0,1.977295495,0.0,3.7737847689999997,0.1291393179,0.12065378480000001,0.1633622773,0.1384460481,0.09866442669,2.269818420631183,1.5039663483688166,3.125006802363611,0.6487779666363886,1.056564575018803,2.7172201939811966,1.0,2.7737847689999997,1.0,2.7737847689999997,680.4341
9698857,33.81841,-116.36873999999999,3.0915846730000003,3.8572919999999997,0.0879,2.58003,0.174618,0.020600999999999998,41.86180722,33.647,-116.74183000000001,3.39,14.1,1,244.0,1.8806003009999999,0.0,3.0915846730000003,0.1282588342,0.1196936535,0.1625114012,0.1373443306,0.09713254429,2.2276636463584447,0.8639210266415556,2.6889678149312264,0.4026168580687739,1.9406043283309817,1.1509803446690186,1.0656550310366038,2.0259296419633968,1.5334263870120894,1.5581582859879108,293.5
9700049,33.4947,-116.6022,2.0,2.7468,0.0801,2.917494,0.192276,0.023544,23.99001028,33.37167,-116.41667,3.49,9.59,1,650.0,0.48310622729999997,0.0,2.0,0.1064212825,0.09625223956000001,0.1409197257,0.1104461182,0.06285133021,2.1683397986438293,-0.1683397986438293,2.460411824313514,-0.460411824313514,2.0461175326928727,-0.046117532692872665,1.1564393008698572,0.8435606991301428,1.733498604085109,0.26650139591489097,650.2997
9703061,33.684740000000005,-117.94286000000001,2.237216143,0.287433,0.0075,0.420849,0.02943,0.002943,78.62112812,34.27617,-117.49983,3.08,13.7,1,211.0,1.123895992,0.0,2.237216143,0.1195353387,0.1102415992,0.1540026711,0.1264984249,0.08255150717,1.0,1.237216143,1.0,1.237216143,1.0,1.237216143,1.0,1.237216143,1.0,1.237216143,224.07312
9703873,34.07618,-118.3959,4.555263224,83.353608,3.3647,161.043903,42.156513000000004,2.974392,8.156222631,34.059,-118.3885,4.24,7.9,56,285.0,1.497167,0.14786241619999999,4.527060103,0.1243243501,0.11541678080000001,0.1586917527,0.1324367669,0.09041892331,4.554611131792258,0.0006520922077415392,5.50796911955115,-0.9527058955511505,4.98998652646489,-0.43472330246489044,4.953769648991546,-0.3985064249915462,4.364049447286894,0.1912137767131057,351.37506
9703873,34.00033,-118.37794,4.027391993999999,128.478627,4.3751,150.861123,25.212681,2.794869,10.29160013,34.059,-118.3885,4.24,7.9,20,359.0,1.5329056319999999,0.2175098877,4.045371955,0.12472615210000002,0.11585252369999999,0.1590831563,0.1329367668,0.09109444231000001,4.915522029363846,-0.8881300353638464,6.2032231089296825,-2.175831114929683,4.942046379010244,-0.9146543850102447,4.616668714812738,-0.5892767208127383,4.332416452453863,-0.3050244584538637,525.505
9703873,34.01467,-118.45617,3.903191076,49.035284999999995,1.8875,68.824017,11.904435000000001,1.3371030000000002,11.20662233,34.059,-118.3885,4.24,7.9,41,375.0,1.349336338,0.13965115349999999,3.90256873,0.1225679298,0.1135147708,0.1569771659,0.13025427609999998,0.08749369108999999,4.185553831642801,-0.2823627556428012,4.655431031819585,-0.7522399558195851,4.3660313097576715,-0.46284023375767136,4.124544250974379,-0.22135317497437912,3.9577864381702432,-0.05459536217024308,473.9156
9703873,34.01916,-118.28596999999999,4.500509217,84.767229,4.0136,141.014826,18.686088,1.2919770000000002,13.08768258,34.059,-118.3885,4.24,7.9,32,335.0,0.9778931419,0.17272532350000003,4.507835186,0.1172741196,0.1078100555,0.1517728235,0.1237083126,0.07895815045,4.797167718142237,-0.2966585011422369,5.534992377761869,-1.0344831607618685,4.892508151945637,-0.39199893494563653,4.420216749584973,0.0802924674150276,3.940341643548962,0.5601675734510381,336.3873
9703873,34.1192,-118.3004,4.842144118,26.923545,0.7421,37.198539000000004,4.696047,0.262908,13.15441738,34.059,-118.3885,4.24,7.9,22,682.0,1.6031391640000001,0.1952657713,4.788576826,0.1254925053,0.11668426330000001,0.1598288307,0.1338911593,0.09238930952999999,3.589579774435712,1.2525643435642881,3.9969348901654067,0.8452092278345935,3.914439422985109,0.9277046950148913,3.514539957663512,1.327604160336488,3.1313439958573577,1.7108001221426425,577.4633
9703873,34.1183,-118.2994,4.854023601000001,27.316926000000002,0.7703,39.1419,4.823576999999999,0.269775,13.16101518,34.059,-118.3885,4.24,7.9,25,839.0,1.562496289,0.1934173856,4.80416777,0.125052692,0.1162068203,0.15940102050000002,0.1333433099,0.09164514777,3.613390049855968,1.2406335511440325,4.006699244877218,0.8473243561227823,3.951815496929247,0.9022081040707537,3.532111496683913,1.3219121043160875,3.144445538625083,1.7095780623749177,881.5123
9703873,33.96273,-118.43701999999999,3.383333946,28.030113,0.6604,28.186092,8.558244,0.823059,14.03574794,34.059,-118.3885,4.24,7.9,16,352.0,1.142906721,0.2873982412,3.412966008,0.11981064039999999,0.11053817029999999,0.1542734495,0.12683873,0.08299439698,3.5151163849484113,-0.13178243894841124,4.0240484295766175,-0.6407144835766174,3.710809602835174,-0.327475656835174,3.9081248240948296,-0.5247908780948296,3.7112277810132546,-0.32789383501325453,461.02692
9703873,34.176390000000005,-118.3598,3.89867313,12.393953999999999,0.6486,34.89417,6.055713,0.40515300000000004,15.48469037,34.059,-118.3885,4.24,7.9,21,328.0,1.355423324,0.22132531239999997,3.9198425510000003,0.12264349179999999,0.1135965025,0.1570510504,0.1303480605,0.08761859926000001,3.503606108175322,0.3950670218246781,3.4747052281985153,0.4239679018014848,3.8675030353826108,0.0311700946173894,3.681293560386105,0.21737956961389537,3.3510878472816645,0.5475852827183356,311.48782
9703873,34.19551,-118.3534,3.4704803930000003,22.385439,0.9058,42.315435,4.121181,0.48853800000000003,17.41427444,34.059,-118.3885,4.24,7.9,10,328.0,1.347202816,0.2060943686,3.4884171939999997,0.1225413745,0.1134860492,0.1569511975,0.1302213191,0.08744981387,3.716837505029999,-0.24635711202999877,3.872676618684463,-0.40219622568446267,4.009033669230532,-0.5385532762305316,3.4289067312881367,0.04157366171186361,3.446184617872545,0.02429577512745551,297.53003
9703873,34.08377,-118.59899999999999,3.6691734389999997,10.291671000000001,0.3669,14.533515,1.5676379999999999,0.103986,21.11664608,34.059,-118.3885,4.24,7.9,3,352.0,0.6575396975,0.2718666438,3.4541554619999997,0.1110435107,0.10115143119999999,0.1455735664,0.11606777119999999,0.06947634783,3.139885136281243,0.5292883027187565,3.3495830506278805,0.31959038837211917,3.2246571015478005,0.4445163374521992,2.7950451123825077,0.874128326617492,2.660034149203457,1.0091392897965425,426.5421
9703873,33.8693,-118.33106000000001,2.584787048,11.592477,0.5418,15.684228,6.628617,0.9162540000000001,23.13903296,34.059,-118.3885,4.24,7.9,11,281.0,0.9492263006999999,0.2825951961,2.529645094,0.1167958765,0.1072967961,0.1512998801,0.1231193651,0.07820839105,3.3887433310248096,-0.8039562830248097,3.4297030908027204,-0.8449160428027205,3.2805833991224755,-0.6957963511224756,3.7405725997424817,-1.1557855517424818,3.7657321320328845,-1.1809450840328846,433.7392
9703873,34.25353,-118.33383,2.237216143,8.359100999999999,0.4686,17.232246,3.072492,0.25604099999999996,23.57126832,34.059,-118.3885,4.24,7.9,4,430.0,1.674393188,0.4447675849,2.366859149,0.1262406018,0.1174970082,0.1605556768,0.1348237559,0.09366142435000001,3.2960793578635874,-1.0588632148635875,3.209577251957792,-0.9723611089577919,3.3496684677418687,-1.1124523247418687,3.2363350297784867,-0.9991188867784868,3.1178956804294637,-0.8806795374294638,512.37024
9703873,34.14844,-118.17113,2.868580152,4.3742790000000005,0.1845,9.247887,1.1418840000000001,0.095157,23.7037228,34.059,-118.3885,4.24,7.9,7,891.0,1.258407426,0.1200776105,2.844204366,0.12140223539999999,0.11225497039999999,0.1558359429,0.1288086988,0.08557753324999999,2.701014664627766,0.16756548737223387,2.7736349578749655,0.09494519412503433,2.892862530186248,-0.02428237818624801,2.5872331824397126,0.28134696956028726,2.614949215935182,0.2536309360648179,896.5088
9703873,34.059329999999996,-118.64613999999999,2.691169465,4.233015,0.1739,9.207666,2.029689,0.141264,25.01420511,34.059,-118.3885,4.24,7.9,1,644.0,1.219396753,0.0,2.691169465,0.12087946320000001,0.11169065369999999,0.1553232815,0.1281611648,0.08472483880000001,2.663240385543987,0.027929079456013195,2.751537115812478,-0.06036765081247797,2.889663432509886,-0.19849396750988602,2.9644425230710283,-0.2732730580710281,2.815710402595117,-0.12454093759511675,438.92453
9703873,33.975590000000004,-118.14915,2.8972689289999995,7.420284,0.395,23.361534,4.109408999999999,0.315882,25.20062505,34.059,-118.3885,4.24,7.9,2,285.0,1.301432825,0.1442488695,2.874302239,0.1219626647,0.1128603905,0.1563849377,0.1295033974,0.08649622314,3.1869977305708965,-0.289728801570897,3.129381732001227,-0.2321128030012276,3.5730179735201055,-0.675749044520106,3.42703082631121,-0.5297618973112104,3.2246176567277978,-0.3273487277277982,447.73123
9703873,34.22869,-118.55828999999999,2.91720799,23.278149,0.8637,47.059551,5.387652,0.328635,25.74086836,34.059,-118.3885,4.24,7.9,10,285.0,1.640170573,0.28888699019999997,3.070033852,0.1258848416,0.1171104035,0.1602101528,0.1343801404,0.09305547355,3.686453491808684,-0.7692455018086841,3.89900000205461,-0.9817920120546098,4.087025427614133,-1.169817437614133,3.6046372802984923,-0.6874292902984922,3.2447287110767844,-0.3275207210767843,292.94907
9703873,34.13677,-118.1283,3.2354751619999997,17.348004,0.753,29.604618,3.2794830000000004,0.24230700000000002,26.66861777,34.059,-118.3885,4.24,7.9,52,398.0,0.9862453783,0.154074452,3.1970373789999997,0.1174111601,0.1079571951,0.1519082587,0.1238771501,0.07917365623,3.5988886150150297,-0.3634134530150299,3.7010666603955205,-0.4655914983955207,3.746848170820275,-0.5113730088202755,3.2790901108205475,-0.04361494882054773,3.089881722157484,0.1455934398425156,499.65768
9703873,34.137,-118.126,3.194143995,11.794563,1.1323,21.313206,31.459689,0.685719,26.86725526,34.059,-118.3885,4.24,7.9,54,379.0,1.0748441229999999,0.1478389582,3.156709255,0.1188057853,0.1094562385,0.15328436980000001,0.12559725060000002,0.08138348589,3.8593234157523146,-0.6651794207523145,3.441336788750362,-0.24719279375036196,3.5056671233077497,-0.31152312830774953,4.7618331627992125,-1.5676891677992124,3.618464582466123,-0.42432058746612267,496.6163
9703873,34.282,-118.47923999999999,2.691169465,37.168128,1.0392,51.939045,4.995252,0.404172,27.33064342,34.059,-118.3885,4.24,7.9,2,460.0,1.676289435,9.112518314e-16,2.691169465,0.1262601279,0.1175182325,0.1605746343,0.1348481101,0.09369473422,3.8045477329555077,-1.1133782679555075,4.210180373590912,-1.519010908590912,4.159435473181994,-1.468266008181994,3.5550456585880115,-0.8638761935880113,3.3498560296024427,-0.6586865646024425,321.32343
9703873,34.1717,-118.64971000000001,3.449768282,38.244285,1.213,90.471744,3.742515,0.326673,28.24362422,34.059,-118.3885,4.24,7.9,4,382.0,1.1305517090000001,0.6251192185,3.52696469,0.11963218140000001,0.11034591070000001,0.1540979399,0.1266181188,0.08270716956,3.903275377273862,-0.45350709527386224,4.256045047635492,-0.8062767656354923,4.566757586827054,-1.1169893048270536,3.365700941025027,0.08406734097497282,3.24168604004607,0.20808224195392988,407.97638
9703873,33.8811,-118.17568,2.691169465,16.925193,0.6463,36.813006,5.153193,0.516987,28.9635489,34.059,-118.3885,4.24,7.9,1,256.0,1.107333578,0.0,2.691169465,0.11929216289999998,0.1099797317,0.15376336470000002,0.126197941,0.08216126877,3.5013382092063288,-0.8101687442063286,3.6844570403250247,-0.9932875753250245,3.9067928466701094,-1.2156233816701092,3.575459357378463,-0.884289892378463,3.474944706642355,-0.7837752416423549,248.23335
9703873,34.15037,-118.10156,3.075628524,18.481059,0.6772,30.537549,2.79585,0.221706,29.38687289,34.059,-118.3885,4.24,7.9,20,390.0,1.084256377,0.1732130109,3.075468486,0.11894799369999999,0.1096092615,0.1534244689,0.1257728393,0.08161051804,3.531153915672239,-0.45552539167223927,3.7436565372205752,-0.6680280132205754,3.769620439611436,-0.693991915611436,3.1744599207786193,-0.09883139677861941,3.0447331606461345,0.030895363353865335,467.60947
9703873,34.0505,-118.0799,3.2152201160000002,13.84191,0.6448,34.231014,1.887444,0.19423800000000002,29.52220029,34.059,-118.3885,4.24,7.9,6,300.0,1.3937393980000001,0.0653521934,3.173886416,0.12311245050000001,0.1141039411,0.1575093515,0.1309303288,0.08839570694,3.4998547923316403,-0.2846346763316401,3.5490837470523133,-0.3338636310523131,3.8534200820966937,-0.6381999660966935,2.9167938343954782,0.298426281604522,2.9775245594496678,0.23769555655033248,293.50842
9703873,34.305,-118.4879,3.227339915,11.9682,0.4126,20.755998,2.644776,0.29626199999999997,29.90404214,34.059,-118.3885,4.24,7.9,4,357.0,1.733980584,0.350458547,3.3656450710000003,0.1268451582,0.11815439720000001,0.1611422981,0.13557808710000002,0.09469523520999999,3.214827958746585,0.012511956253415057,3.4511746132789343,-0.22383469827893432,3.4862233988427507,-0.25888348384275073,3.138031212839325,0.08930870216067488,3.1920344101035414,0.03530550489645856,422.0268
9703873,34.3087,-118.5026,3.227339915,10.861632,0.5833,23.154543,3.163725,0.37964699999999996,30.71612388,34.059,-118.3885,4.24,7.9,4,307.0,1.448604831,0.2640839748,3.4037630869999997,0.1237647428,0.1148102956,0.15814611580000001,0.1317408461,0.08948200932,3.4358612053521225,-0.20852129035212252,3.3858672952577322,-0.15852738025773228,3.566485882012934,-0.339145967012934,3.255524057812412,-0.028184142812412105,3.318048115915802,-0.090708200915802,339.24902
9703873,33.7902,-118.1985,3.334516567,5.857551,0.2664,13.451472,3.976974,0.261927,35.54006089,34.059,-118.3885,4.24,7.9,3,207.0,1.535445185,0.3048330855,3.321268245,0.1247543915,0.1158831574,0.1591106534,0.132971918,0.091142007,2.935535304132447,0.3989812628675531,2.970189836064833,0.3643267309351672,3.1678716629573596,0.16664490404264054,3.4055486361448235,-0.0710320691448234,3.129444462640228,0.2050721043597723,228.18095
9703873,33.84822,-118.09624,2.761266794,9.777627,0.7081,23.598936,6.716907000000001,0.574866,36.58403324,34.059,-118.3885,4.24,7.9,6,241.0,1.489783417,0.160437984,2.7759627539999996,0.124240296,0.11532565619999999,0.158609835,0.1323322046,0.09027790570000001,3.55963905374845,-0.7983722597484499,3.3150917860375335,-0.5538249920375335,3.5804388747249014,-0.8191720807249014,3.7492496772454205,-0.9879828832454205,3.5288664975848416,-0.7675997035848416,229.2819
9703873,34.14647,-118.76698999999999,2.9528062210000003,5.034492,0.14,9.452916,0.915273,0.060822,37.03300519,34.059,-118.3885,4.24,7.9,5,402.0,1.6048626959999999,0.3900054703,3.123573597,0.12551094029999998,0.1167042817,0.1598467546,0.1339141297,0.09242056191999999,2.5248082124470095,0.42799800855299086,2.8682611796725554,0.08454504132744489,2.908956880560099,0.04384934043990141,2.442165464222984,0.5106407567770161,2.3875245635566316,0.5652816574433688,351.9
9703873,33.71264,-118.29381000000001,2.691169465,1.026126,0.0599,2.908665,1.322388,0.079461,40.27526392,34.059,-118.3885,4.24,7.9,1,333.0,1.520333969,0.0,2.691169465,0.1245857527,0.1157002378,0.1589464252,0.13276202410000001,0.09085813382999999,1.9670162045848056,0.7241532604151946,1.7336059693248782,0.957563495675122,2.043893042332117,0.6472764226678831,2.6834759193867135,0.007693545613286723,2.5233537589316954,0.16781570606830476,391.45135
9703873,34.416,-118.449,2.55017701,6.354918,0.3878,16.120773,4.663673999999999,0.200124,40.85534997,34.059,-118.3885,4.24,7.9,16,321.0,1.149164254,0.2543381719,2.4762896619999997,0.1199003852,0.1106348734,0.1543616869,0.1269496935,0.08313902448,3.175253472971749,-0.6250764629717489,3.025050338428019,-0.4748733284280191,3.300732788590337,-0.750555778590337,3.5100035400279324,-0.9598265300279323,2.9926935827319774,-0.4425165727319773,286.03976
9703873,34.27128,-118.74427,2.5039882469999997,3.3206849999999997,0.1866,8.439542999999999,2.016936,0.104967,41.1218295,34.059,-118.3885,4.24,7.9,7,287.0,1.378653418,0.2714192933,2.685086922,0.1229291687,0.1139055817,0.1573302855,0.1307027182,0.08809160465,2.7082401099334072,-0.20425186293340758,2.5881328189158768,-0.0841445719158771,2.8257296729208434,-0.32174142592084376,2.9603090787538586,-0.45632083175385896,2.664805306735371,-0.16081705973537153,293.5622
9703873,34.156,-118.82021,2.0,2.2935779999999997,0.0643,2.006145,0.932931,0.059841,41.93493795,34.059,-118.3885,4.24,7.9,8,376.0,1.586324169,0.0,2.0,0.1253117375,0.1164879953,0.1596530403,0.1336659485,0.09208311572999998,2.028070130198606,-0.028070130198606158,2.339025861313097,-0.3390258613130972,1.7308204509298988,0.2691795490701012,2.4546967627412646,-0.4546967627412646,2.379262193806273,-0.379262193806273,422.62003
9703873,33.94551,-117.92368,2.0,1.6775099999999998,0.0799,4.651902,0.8103060000000001,0.040221,45.36104885,34.059,-118.3885,4.24,7.9,1,333.0,0.9788448177,0.0,2.0,0.11728978570000001,0.1078268747,0.151788308,0.12372761199999999,0.0789827716,2.1667437655915673,-0.16674376559156734,2.128460846840913,-0.12846084684091297,2.388546322113908,-0.3885463221139078,2.3622840536195464,-0.3622840536195464,2.177383399205766,-0.17738339920576607,342.56732
