event_id,sta_lat,sta_lon,mmi,pga,pgv,psa03,psa10,psa30,r_hypo,hypo_lat,hypo_lon,magnitude,hypo_depth,n_dyfi,vs30,inst_to_mmi_dist,std_mmi_boot,mean_mmi_boot,std_pga_at_dyfi,std_pgv_at_dyfi,std_psa03_at_dyfi,std_psa10_at_dyfi,std_psa30_at_dyfi,mmi_from_pgv,mmi_res_pgv,mmi_from_pga,mmi_res_pga,mmi_from_psa03,mmi_res_psa03,mmi_from_psa10,mmi_res_psa10,mmi_from_psa30,mmi_res_psa30,CA Vs30,ztor,dip,r_rup,r_rup_var,r_jb,r_jb_var,r_x,r_y,r_y0,width
9703873,34.146,-118.413,4.278591227,62.784,1.92,66.49218,27.39933,4.05153,12.69189102,34.059,-118.3885,4.24,7.9,28,286.0,1.35333987,0.1624597597,4.295733174,0.1226176618,0.1135685625,0.1570257951,0.1303160003,0.08757589134,4.33325280619,-0.0546615791942,4.54738691974,-0.268795692741,3.95284874783,0.325742479171,5.17088339125,-0.892292164249,4.91167783671,-0.633086609709,297.6892,0.0,90.0,11.2668971925,2.84056522908,8.90204993127,1.02202634242,0.0,0.0,0.0,0.0
9703873,34.041,-118.348,5.564323332,162.846,5.4,165.60261,29.95974,11.26188,8.963175702,34.059,-118.3885,4.24,7.9,18,319.0,1.370996326,0.2260517145,5.538074529,0.1228354711,0.1138041953,0.1572387182,0.1305863807,0.08793633299,5.34116428104,0.223159050959,5.97332408072,-0.409000748724,4.58755220749,0.976771124507,5.28019642157,0.284126910426,5.60539527401,-0.0410719420062,445.35233,0.0,90.0,7.19145850314,2.53339460714,3.34397594124,0.767324857453,0.0,0.0,0.0,0.0
9703873,33.873,-118.175,2.963282654,9.81,0.62,32.29452,5.15025,1.39302,29.62826738,34.059,-118.3885,4.24,7.9,3,248.0,1.283154731,0.3932486106,2.77119634,0.121726587,0.1126053036,0.1561537516,0.129210694,0.08610865526,3.61161578356,-0.648333129562,3.18765725612,-0.224374602122,3.64370216324,-0.680419509242,3.89434866522,-0.93106601122,4.15933108426,-1.19604843026,236.91534,0.0,90.0,28.4163623922,2.15817070828,27.4545548916,1.09601956306,0.0,0.0,0.0,0.0
9703873,33.962,-118.378,3.825865463,70.632,2.56,106.39926,24.84873,5.42493,13.40456955,34.059,-118.3885,4.24,7.9,23,352.0,1.313167135,0.190528267,3.865891325,0.1221127038,0.1130225541,0.1565318115,0.1296894745,0.08674297563,4.51691274901,-0.691047286008,4.76085232162,-0.934986858618,4.31212865083,-0.486263187826,5.09517941127,-1.26931394827,5.0464805532,-1.2206150902,522.1287,0.0,90.0,12.0234644978,2.80821138184,9.79009550366,1.03197486747,0.0,0.0,0.0,0.0
9703873,33.945,-118.38,3.643274501,16.677,0.84,43.14438,9.46665,2.16801,14.95695652,34.059,-118.3885,4.24,7.9,10,327.0,1.613244286,0.3449111015,3.675454435,0.1256003446,0.1168013719,0.1599336713,0.1340255373,0.09257219559,3.80549055051,-0.162216049511,3.24205279965,0.401221701348,3.67817857221,-0.0349040712062,4.43900724205,-0.795732741047,4.55330460529,-0.910030104294,497.7082,0.0,90.0,13.6038776532,2.74062658741,11.6451570364,1.05275660064,0.0,0.0,0.0,0.0
9703873,33.924,-118.167,4.63387172,20.601,1.07,60.16473,9.81981,2.30535,26.54741002,34.059,-118.3885,4.24,7.9,3,264.0,1.371010698,0.824814337,4.430292829,0.1228356474,0.113804386,0.1572388905,0.1305865996,0.08793662501,3.9599941532,0.673877566803,3.63845938319,0.995412336805,4.07175190803,0.562119811975,4.340928782,0.292942938003,4.44248305594,0.191388664059,253.42662,0.0,90.0,25.3429646012,2.25910597229,24.248954149,1.09174549837,0.0,0.0,0.0,0.0
9703873,34.257,-118.503,3.643882239,28.449,1.22,48.4614,9.5157,2.72718,25.65417334,34.059,-118.3885,4.24,7.9,14,366.0,1.387740054,0.2026767085,3.701057809,0.1230397719,0.1140252777,0.1574383524,0.1308400652,0.08827505873,4.04374895109,-0.399866712092,3.84057495782,-0.196692718825,3.90406466181,-0.26018242281,4.32758206873,-0.683699829731,4.5363386239,-0.892456384903,467.21164,0.0,90.0,24.4539822728,2.29340784469,23.3136820973,1.09016729964,0.0,0.0,0.0,0.0
9703873,34.185,-118.623,3.313740271,8.829,0.32,20.74815,4.85595,0.72594,26.9197065,34.059,-118.3885,4.24,7.9,13,278.0,1.229787371,0.3166723943,3.355095664,0.1210201143,0.1118424421,0.1554612653,0.1283353368,0.0849538488,3.18937046813,0.12436980287,3.07426449233,0.23947577867,3.29398802374,0.0197522472568,3.87616357548,-0.562423304484,3.85188731621,-0.538147045213,289.809,0.0,90.0,25.712611905,2.24484292764,24.6378491598,1.09240172841,0.0,0.0,0.0,0.0
9703873,34.037,-118.263,4.14302378,63.765,2.59,130.8654,19.78677,5.46417,14.21580531,34.059,-118.3885,4.24,7.9,33,303.0,1.586360371,0.1768552472,4.14880602,0.1253121285,0.1164884198,0.1596534206,0.1336664356,0.09208377749,4.5243506532,-0.381326873199,4.62253047093,-0.479506690931,4.47934753543,-0.336323755431,4.93329206962,-0.790268289619,5.03559712899,-0.892573348986,296.886,0.0,90.0,12.8590802742,2.77247710547,10.7709267994,1.04296284491,0.0,0.0,0.0,0.0
9703873,33.92,-118.126,2.99581496,12.753,0.62,31.06827,8.35812,1.49112,29.78274924,34.059,-118.3885,4.24,7.9,4,260.0,1.491003002,0.1833927104,3.051194344,0.1242542046,0.1153407342,0.1586233911,0.1323495061,0.09030123322,3.61161578356,-0.615800823562,3.36657315242,-0.370758192416,3.61664540126,-0.620830441262,4.21076522566,-1.21495026566,4.19262335734,-1.19680839734,234.5511,0.0,90.0,28.5719901244,2.15447199858,27.6146504482,1.0961414162,0.0,0.0,0.0,0.0
9703873,34.18,-118.336,3.71958677,51.012,1.44,63.67671,11.48751,3.09996,16.33378739,34.059,-118.3885,4.24,7.9,19,328.0,1.49794637,0.1962177762,3.717289588,0.1243332013,0.1154263771,0.1587003781,0.1324477783,0.09043377886,4.14959286338,-0.43000609338,4.32548516265,-0.605898392651,3.98683006161,-0.267243291607,4.54715251358,-0.827565743577,4.7132006415,-0.993613871498,299.00916,0.0,90.0,15.0369815658,2.67817489728,13.2329826938,1.0615582434,0.0,0.0,0.0,0.0
9703873,34.236,-118.439,3.742737978,60.822,2.57,80.16732,17.39313,5.55246,21.71101667,34.059,-118.3885,4.24,7.9,5,313.0,1.440468381,0.5304720632,3.762477123,0.1236693852,0.1147069957,0.1580530791,0.131622313,0.08932281447,4.5194016913,-0.776663713297,4.73418717014,-0.991449192138,4.23001432465,-0.487276346653,4.75862109413,-1.01588311613,4.93891381968,-1.19617584168,301.20822,0.0,90.0,20.4845379901,2.44657103693,19.1375470047,1.08312039697,0.0,0.0,0.0,0.0
9703873,34.163,-118.255,3.456783906,51.993,0.96,36.17928,6.79833,1.99143,18.63330889,34.059,-118.3885,4.24,7.9,28,335.0,1.369769047,0.1338992752,3.468208587,0.1228204109,0.1137879003,0.1572239987,0.1305676829,0.08791138785,3.89073871257,-0.433954806568,4.41444065562,-0.957656749624,3.60622193522,-0.149438029217,4.17510927454,-0.718325368536,4.45573136063,-0.998947454632,357.5003,0.0,90.0,17.3851553391,2.5754381946,15.8016637057,1.07246556521,0.0,0.0,0.0,0.0
9703873,34.219,-118.429,3.449768282,91.233,2.74,71.66205,25.2117,5.53284,19.81992918,34.059,-118.3885,4.24,7.9,3,302.0,1.388798835,0.2178121782,3.385888245,0.1230526183,0.1140391814,0.1574509027,0.1308560192,0.08829637843,4.56029332735,-1.11052504535,5.34535520494,-1.89558692294,4.12395073448,-0.674182452482,5.02146317021,-1.57169488821,4.95967464245,-1.50990636045,315.48166,0.0,90.0,18.5701456454,2.52359279961,17.0979315261,1.07796987275,0.0,0.0,0.0,0.0
9706897,33.82843,-117.78938,2.0,1.375362,0.04,1.749123,0.100062,0.007848,15.8563425,33.9225,-117.77383,3.1,11.83,3,394.0,1.602237351,0.0373699849,2.006822795,0.1254828526,0.1166737817,0.1598194453,0.133879132,0.09237294741,1.92847018118,0.0715298188183,1.7854230123,0.214576987701,1.28662168098,0.713378319021,1.32380651989,0.676193480112,1.0,1.0,430.1118,0.0,90.0,15.2350707355,0.280877453006,10.2226881281,0.10121583532,0.0,0.0,0.0,0.0
9706897,33.94551,-117.92368,3.166304164,2.81547,0.1154,7.457562,0.36297,0.023544,18.37430664,33.9225,-117.77383,3.1,11.83,8,333.0,1.323405111,0.4812774337,3.064039945,0.1222426579,0.1131630366,0.1566589886,0.1298506734,0.08695696854,2.74344253896,0.422861625035,2.3295289947,0.8367751693,2.44346597142,0.722838192581,2.50677799693,0.659526167066,2.27189835698,0.894405807019,342.56732,0.0,90.0,17.8128778915,0.271888979458,13.7216587774,0.101754591679,0.0,0.0,0.0,0.0
9706897,33.8717,-117.92251,2.395365588,1.075176,0.0578,3.787641,0.309996,0.023544,18.97806057,33.9225,-117.77383,3.1,11.83,3,295.0,1.237167353,0.2906293067,2.280727602,0.1211193844,0.1119495905,0.1555586292,0.1284582859,0.08511566175,2.27538340937,0.119982178627,1.64260288308,0.752762704917,1.954645065,0.440720523004,2.3512211994,0.0441443886015,2.2638950619,0.131470526096,293.62802,0.0,90.0,18.4334963373,0.270709080473,14.5016780651,0.101836823091,0.0,0.0,0.0,0.0
9706897,33.78816,-117.844,2.0,2.602593,0.0507,1.752066,0.165789,0.011772,20.12649339,33.9225,-117.77383,3.1,11.83,4,232.0,1.390501676,0.0,2.0,0.1230732614,0.1140615239,0.1574710692,0.1308816565,0.08833064232,2.15186727175,-0.151867271753,2.31695309048,-0.316953090482,1.35016255296,0.649837447043,1.7489113987,0.251088601301,1.21079729351,0.789202706492,447.0045,0.0,90.0,19.5979134897,0.268808525812,15.9440768537,0.101977640437,0.0,0.0,0.0,0.0
9706897,34.1183,-118.2994,1.0,0.952551,0.0063,0.202086,0.033354,0.000981,54.40761164,33.9225,-117.77383,3.1,11.83,1,839.0,1.522402185,0.0,1.0,0.1246089199,0.1157253644,0.1589689897,0.1327908559,0.09089710721,1.0,0.0,1.99976891881,-0.999768918813,1.0,0.0,1.0,0.0,1.0,0.0,881.5123,0.0,90.0,53.9958790697,0.188476060358,52.7633363767,0.102971209082,0.0,0.0,0.0,0.0
9706897,34.1192,-118.3004,1.0,0.887805,0.0071,0.181485,0.037278,0.003924,54.52951164,33.9225,-117.77383,3.1,11.83,1,682.0,1.579194934,0.0,1.0,0.12523459,0.1164042471,0.1595779984,0.1335698504,0.0919525818,1.0,0.0,1.93717335062,-0.937173350624,1.0,0.0,1.0,0.0,1.0,0.0,577.4633,0.0,90.0,54.1174236418,0.188269185862,52.8882127988,0.102972383008,0.0,0.0,0.0,0.0
9718013,33.4947,-116.6022,4.341701836,166.54437,1.3364,48.19653,6.608997,1.139922,17.32995159,33.50833,-116.51433,5.09,15.22,1,650.0,1.504286758,0.0,4.341701836,0.1244050589,0.1155042883,0.1587703974,0.1325371788,0.09055442504,3.94892660644,0.39277522956,6.10848296153,-1.76678112553,3.79782574433,0.543876091667,3.92551796739,0.416183868609,4.01170296743,0.329998868573,650.2997,0.0,90.0,13.5482749637,13.1612154368,6.26786597116,3.77707599032,0.0,0.0,0.0,0.0
9718013,33.6117,-116.4594,4.069588647,48.153366,0.6534,21.622221,4.290894,0.629802,19.74009655,33.50833,-116.51433,5.09,15.22,1,726.0,0.6241228012,0.0,4.069588647,0.1102483151,0.1003060798,0.1447763504,0.1150977598,0.06831146673,3.4921133213,0.577475325695,4.17222369219,-0.102635045191,3.24344175453,0.826146892469,3.61454999448,0.455038652519,3.67799318436,0.39159546264,680.4341,0.0,90.0,16.1943793862,15.2809948349,10.2948521127,5.06522968883,0.0,0.0,0.0,0.0
9718013,33.5736,-116.6747,4.593639298,103.291452,1.2145,65.298303,11.744532,2.242566,22.47740536,33.50833,-116.51433,5.09,15.22,2,655.0,1.461479752,9.112518314e-16,4.593639298,0.1239146837,0.1149727519,0.158292372,0.1319272591,0.0897325973,3.88786435314,0.705774944863,5.45606814417,-0.862428846165,4.08848258961,0.505156708395,4.24722028439,0.346419013606,4.29115015001,0.302489147994,351.9,0.0,90.0,19.1291118149,15.8990090067,14.1420349506,5.61703895818,0.0,0.0,0.0,0.0
9718013,33.82434,-116.51209,6.012290902,46.137411,1.1148,51.184656,9.907119,1.816812,38.29386671,33.50833,-116.51433,5.09,15.22,2,273.0,1.352033362,0.7153069029,5.726752024,0.1226014464,0.1135510231,0.1570099398,0.1302958744,0.08754908552,3.83317953126,2.17911137074,4.39703754903,1.61525335297,4.04857445667,1.96371644533,4.02227120575,1.99001969625,4.05228258005,1.96000832195,293.50043,0.0,90.0,35.4043830534,14.2764143658,32.5456716355,6.28391066258,0.0,0.0,0.0,0.0
9718013,33.81841,-116.36874,4.341701836,60.680736,2.3226,61.74414,17.908155,1.260585,40.02528441,33.50833,-116.51433,5.09,15.22,2,244.0,1.727326385,0.8304401988,4.194664249,0.1267785547,0.1180819475,0.1610777038,0.1354949536,0.09458108949,4.3017823999,0.0399194360972,4.85691804979,-0.515216213791,4.19775814737,0.14394368863,4.40108688744,-0.0593850514362,3.85561232306,0.486089512944,293.5,0.0,90.0,37.1448551343,14.0875839374,34.4155314687,6.30824570135,0.0,0.0,0.0,0.0
9718013,33.0859,-116.5959,4.069588647,26.874495,1.0928,55.994499,2.549619,0.276642,49.95495473,33.50833,-116.51433,5.09,15.22,2,617.0,1.686509106,0.9064478997,3.900563886,0.1263650315,0.117632269,0.1606764706,0.134978963,0.09387378263,3.82045480892,0.249133838084,3.95295753927,0.116631107735,4.18376348646,-0.114174839456,3.07559816504,0.993990481962,3.03012795882,1.03946068818,710.0442,0.0,90.0,47.1164098631,13.0875742356,44.9397187457,6.39381573719,0.0,0.0,0.0,0.0
9718013,33.8084,-116.968,5.806191437,43.586811,0.9435,81.833058,21.749751,2.804679,55.74955699,33.50833,-116.51433,5.09,15.22,2,252.0,0.844206384,0.5193202488,5.753131052,0.1149290034,0.1052966398,0.1494491572,0.1208242549,0.07531625128,3.72667059962,2.07952083738,4.47202892939,1.33416250761,4.49084517222,1.31534626478,4.45802166181,1.34816977519,4.17993923885,1.62625219815,281.27722,0.0,90.0,52.9015407482,12.5691491971,50.9758836051,6.42652837665,0.0,0.0,0.0,0.0
9718013,33.38852,-117.19054,3.449768282,14.817024,0.3017,6.364728,0.877014,0.146169,65.91804269,33.50833,-116.51433,5.09,15.22,1,716.0,1.44193162,0.0,3.449768282,0.1236865687,0.1147256094,0.1580698457,0.1316436716,0.0893514916,2.99877570596,0.450992576043,3.67499382942,-0.225225547416,2.66004120685,0.789727075145,2.31675172691,1.13301655509,2.63732176798,0.812446514017,702.6547,0.0,90.0,63.0440242307,11.7853493484,61.4614640593,6.46389530448,0.0,0.0,0.0,0.0
9718013,32.99862,-116.94153,4.069588647,17.607969,0.4544,16.883991,1.099701,0.217782,70.86554944,33.50833,-116.51433,5.09,15.22,1,659.0,1.371966046,0.0,4.069588647,0.1228473625,0.1138170617,0.1572503401,0.1306011446,0.0879560317,3.26023433437,0.809354312627,3.8232231368,0.246365510195,3.3949447152,0.674643931797,2.44973542943,1.61985321757,2.8220112265,1.2475774205,700.0273,0.0,90.0,67.9763133269,11.483349084,66.5290511948,6.47780279776,0.0,0.0,0.0,0.0
9718013,33.57508,-117.26119,3.282541128,16.086438,0.3372,8.884917,2.593764,0.168732,71.25937856,33.50833,-116.51433,5.09,15.22,5,401.0,1.09603832,0.2190432453,3.302628995,0.1191244967,0.1097992302,0.1535982972,0.1259908217,0.08189273551,3.06979472195,0.21274640605,3.76484161419,-0.482300486193,2.92518010308,0.357361024919,3.01126637789,0.271274750114,2.69097461227,0.591566515733,677.68884,0.0,90.0,68.3703555772,11.4645172366,66.931792096,6.47862865363,0.0,0.0,0.0,0.0
9718013,33.16,-117.23,3.095779122,9.620667,0.179,4.765698,0.970209,0.251136,78.43640133,33.50833,-116.51433,5.09,15.22,9,650.0,1.258545822,0.1003352623,3.099205503,0.1214040647,0.1122569458,0.1558377359,0.1288109655,0.08558052428,2.66549395554,0.43028516646,3.46130596063,-0.365526838626,2.4929950919,0.602784030102,2.34597692909,0.749802192912,2.86929198007,0.226487141929,707.88544,0.0,90.0,75.5346736476,11.1221241443,74.254265547,6.49364403355,0.0,0.0,0.0,0.0
9718013,34.22641,-116.04082,2.138670112,4.75785,0.1726,9.831582,1.793268,0.114777,92.29522685,33.50833,-116.51433,5.09,15.22,2,744.0,1.21966132,0.06871111699,2.133007285,0.1208830574,0.1116945321,0.1553268081,0.1281656152,0.08473068722,2.64224996333,-0.503579851327,3.05939939698,-0.920729284984,3.06689178148,-0.928221669477,2.7141904028,-0.575520290799,2.43115157738,-0.292481465383,710.09924,0.0,90.0,89.3413711286,10.5586488742,88.3270266934,6.51851277386,0.0,0.0,0.0,0.0
9718013,33.97327,-117.32674,3.129149696,8.971245,0.3015,20.637297,1.730484,0.10791,92.45151627,33.50833,-116.51433,5.09,15.22,6,358.0,1.164761015,0.2506158123,3.161422533,0.1201222313,0.1108739726,0.1545797383,0.1272240515,0.08349706804,2.99835235522,0.13079734078,3.487083945,-0.357934248997,3.61156235993,-0.482412663935,2.69045916041,0.438690535594,2.39938472665,0.729764969346,447.16913,0.0,90.0,89.497552248,10.5543592352,88.4853799085,6.51870609658,0.0,0.0,0.0,0.0
9718013,34.12128,-117.21897,2.0,4.24773,0.2295,14.228424,3.555144,0.275661,95.47093934,33.50833,-116.51433,5.09,15.22,2,302.0,1.546228997,0.5516791637,1.721164843,0.1248738535,0.1160127609,0.1592269585,0.1331206334,0.0913433485,2.82415055411,-0.824150554114,2.99804173461,-0.998041734609,3.34700838753,-1.34700838753,3.15578146171,-1.15578146171,2.86798609963,-0.867986099632,446.03555,0.0,90.0,92.5134837471,10.4715242713,91.5432556042,6.52243924997,0.0,0.0,0.0,0.0
9718013,33.99351,-117.37545,2.471764309,5.079618,0.1124,3.136257,1.306692,0.093195,97.36782543,33.50833,-116.51433,5.09,15.22,2,343.0,0.9293585871,1.012944118,2.372536407,0.1164569904,0.1069333119,0.1509644641,0.1227022795,0.077679288,2.36842647751,0.103337831487,3.12715182738,-0.655387518375,2.24223564098,0.229528668018,2.49522198099,-0.0234576719865,2.31206608669,0.159698222309,447.25363,0.0,90.0,94.4068883231,10.4195204045,93.4629927855,6.52478292711,0.0,0.0,0.0,0.0
9718013,32.841,-117.248,3.573750606,12.549933,0.6988,51.293547,7.380063,0.573885,101.9819025,33.50833,-116.51433,5.09,15.22,7,439.0,1.285612384,0.18271663,3.449347429,0.1217584998,0.1126397812,0.1561850095,0.1292502559,0.0861609975,3.53499875758,0.038751848423,3.75651766734,-0.182767061337,4.30537056358,-0.731619957582,3.62071836181,-0.0469677558145,3.22424047769,0.349510128305,502.5,0.0,90.0,99.0087445599,10.2931267528,98.1288495351,6.53047915569,0.0,0.0,0.0,0.0
9718013,33.87574,-117.56106,3.091584673,7.415379,0.2288,9.808038,2.48193,0.15696,106.2013787,33.50833,-116.51433,5.09,15.22,1,362.0,0.2781170508,0.0,3.091584673,0.09859524286,0.08804017549,0.1329255641,0.1010230585,0.05244929328,2.82220034958,0.269384323422,3.42028936887,-0.328704695875,3.10170258986,-0.010117916863,2.89745239331,0.194132279695,2.55545247833,0.536132194666,351.81018,0.0,90.0,103.212870636,10.1776570771,102.391444675,6.53568306948,0.0,0.0,0.0,0.0
9718013,33.48725,-117.68114,2.0,2.209212,0.1828,5.718249,4.113333,0.36297,109.2837592,33.50833,-116.51433,5.09,15.22,3,324.0,1.300839967,0.4680117283,2.119495904,0.1219550529,0.1128521646,0.1563774854,0.1294939584,0.0864837139,2.67890500135,-0.678905001355,2.61782461251,-0.617824612508,2.71315863212,-0.713158632119,3.22266446781,-1.22266446781,2.97434559736,-0.974345597362,351.9,0.0,90.0,106.281797537,10.0933665522,105.503052808,6.53948182116,0.0,0.0,0.0,0.0
9718013,33.99879,-117.68044,2.188300191,4.104504,0.3359,13.130685,4.465512,0.424773,121.7713851,33.50833,-116.51433,5.09,15.22,2,322.0,1.804816697,0.02978089029,2.190638869,0.127540669,0.1189113363,0.1618163386,0.1364466485,0.09589090522,3.06732870565,-0.879028514647,3.08274012422,-0.894439933223,3.35148350545,-1.16318331445,3.25351241425,-1.06521222325,3.02745633536,-0.839156144364,293.49954,0.0,90.0,118.748037941,9.8615366945,118.095110798,6.55044946333,0.0,0.0,0.0,0.0
9718013,33.82843,-117.78938,2.0,1.762857,0.0954,5.527935,1.626498,0.218763,124.1837296,33.50833,-116.51433,5.09,15.22,2,394.0,1.825527256,0.512989176,1.5,0.1277395107,0.1191278668,0.1620088784,0.1366951098,0.09623397285,2.26373611082,-0.263736110815,2.52251238807,-0.522512388066,2.72162084797,-0.721620847967,2.58702511432,-0.587025114319,2.68542609827,-0.685426098273,430.1118,0.0,90.0,121.157546147,9.82533655164,120.52523459,6.5522218159,0.0,0.0,0.0,0.0
9718013,33.78816,-117.844,2.691169465,2.891988,0.1611,4.820634,2.611422,0.329616,127.8608157,33.50833,-116.51433,5.09,15.22,1,232.0,1.798522684,0.0,2.691169465,0.1274798453,0.118845113,0.1617574281,0.1363706597,0.09578607349,2.59823044442,0.0929390205837,2.86865668862,-0.177487223616,2.62873919278,0.0624302722206,2.89130697873,-0.200137513728,2.88650288307,-0.195333418074,447.0045,0.0,90.0,124.828949221,9.77017786179,124.228049936,6.55492237555,0.0,0.0,0.0,0.0
9718013,33.70432,-117.88578,3.091584673,1.961019,0.1705,5.84676,3.037176,0.398286,129.7605072,33.50833,-116.51433,5.09,15.22,2,213.0,1.784498021,0.3403586167,2.998832152,0.127343643,0.1186968387,0.1616254853,0.1362005199,0.09555151005,2.63443484349,0.457149829507,2.61368209172,0.477902581281,2.77422300283,0.317361670172,2.98721377784,0.104370895161,2.97901050151,0.112574171487,227.45026,0.0,90.0,126.725101579,9.74169031148,126.140425643,6.55631712096,0.0,0.0,0.0,0.0
