event_id,sta_lat,sta_lon,mmi,pga,pgv,psa03,psa10,psa30,r_hypo,hypo_lat,hypo_lon,magnitude,hypo_depth,n_dyfi,vs30,inst_to_mmi_dist,std_mmi_boot,mean_mmi_boot,std_pga_at_dyfi,std_pgv_at_dyfi,std_psa03_at_dyfi,std_psa10_at_dyfi,std_psa30_at_dyfi,mmi_from_pgv,mmi_res_pgv,mmi_from_pga,mmi_res_pga,mmi_from_psa03,mmi_res_psa03,mmi_from_psa10,mmi_res_psa10,mmi_from_psa30,mmi_res_psa30,CA Vs30
9627721,33.979,-117.344,3.2597569980000003,14.715,1.05,22.347179999999998,11.66409,2.3544,51.16855638,34.2895,-116.94583,5.13,9.12,27,348.0,1.291372881,0.08010317487,3.262592582,0.1218330922,0.11272037439999999,0.1562580635,0.1293427338,0.08628340097000001,3.8111482696328087,-0.5513912716328084,3.5902583272693804,-0.33050132926938014,3.54043708958445,-0.2806800915844496,4.111168782639993,-0.8514117846399927,4.245273439646255,-0.9855164416462543,447.20972
9627721,34.134,-117.25299999999999,3.63523626,21.581999999999997,0.69,35.8065,5.75847,1.54017,34.35053998,34.2895,-116.94583,5.13,9.12,12,261.0,1.222410204,0.17791719309999998,3.6879366719999997,0.1209203616,0.1117347875,0.15536340839999999,0.1282118069,0.08479139924000001,3.543108163383765,0.09212809661623522,3.8480720310074936,-0.2128357710074935,3.8864462441500844,-0.25120998415008433,3.6482877150496664,-0.013051455049666316,4.029628880162479,-0.39439262016247856,295.59253
9627721,34.163000000000004,-117.33200000000001,3.0831255769999997,7.848,0.36,16.91244,2.9037599999999997,0.79461,39.26264448,34.2895,-116.94583,5.13,9.12,11,760.0,1.303902759,0.3582962044,3.019599082,0.12199434390000001,0.11289462689999999,0.1564159523,0.1295426825,0.08654829437999999,3.127764676127912,-0.044639099127912196,3.1671063555705867,-0.08398077857058706,3.3359192751345352,-0.25279369813453556,3.1992946658647665,-0.11616908886476685,3.693353758931696,-0.6102281819316961,343.6899
9627721,34.13,-116.314,2.953461944,15.696,0.97,56.6037,7.78914,2.04048,61.42819587,34.2895,-116.94583,5.13,9.12,4,374.0,1.036967079,0.4740283974,2.8361173660000003,0.11822230619999999,0.1088287102,0.1527091174,0.1248771835,0.08045525797,3.7605544493713796,-0.8070925053713798,3.633702848849758,-0.6802409048497582,4.222558427451828,-1.2690964834518281,3.8463731408306847,-0.8929111968306849,4.172560388750107,-1.2190984447501068,422.60846
9627721,33.716,-117.19,2.55017701,7.848,0.46,8.829,4.64013,1.01043,68.23800539,34.2895,-116.94583,5.13,9.12,8,374.0,1.3983924730000001,0.3457129417,2.5885593819999997,0.1231686322,0.11416475449999999,0.1575642279,0.13100011,0.0884890232,3.284254012571914,-0.7340770025719139,3.1671063555705867,-0.6169293455705867,2.858841144171101,-0.3086641341711007,3.506684504679864,-0.956507494679864,3.8154458397487265,-1.2652688297487265,451.08612
9627721,33.705999999999996,-116.235,2.691169465,11.772,0.77,34.6293,6.09201,1.6677,92.66542819,34.2895,-116.94583,5.13,9.12,2,232.0,1.812635751,0.3160532268,2.740524123,0.1276159727,0.1189933323,0.1618892642,0.1365407361,0.09602076469000001,3.613141366003548,-0.9219719010035479,3.440047807106893,-0.748878342106893,3.8619105553240622,-1.170741090324062,3.6852124984324055,-0.9940430334324053,4.070051524856256,-1.3788820598562554,293.5
9627721,33.729,-116.979,3.505961297,14.715,0.46,17.285220000000002,5.1993,0.981,63.0626466,34.2895,-116.94583,5.13,9.12,9,338.0,1.2800293729999999,0.116817614,3.507906647,0.12168592689999999,0.112561378,0.1561139231,0.1291602909,0.08604198817,3.284254012571914,0.22170728442808585,3.5902583272693804,-0.08429703026938062,3.3519212811071313,0.15404001589286853,3.5813007452629604,-0.07533944826296057,3.8004262868436753,-0.29446498984367553,293.5084
9627953,33.99351,-117.37545,4.341701836,2.40345,0.0434,1.550961,0.143226,0.018639,52.22197866,34.2875,-116.94183000000001,4.22,8.12,2,343.0,1.3912185019999999,0.6126778575999999,4.290982799,0.1230819446,0.11407092220000001,0.1574795518,0.1308924407,0.08834505693,1.6633527130421482,2.678349122957852,2.3705243064980994,1.971177529501901,1.5162384815004875,2.825463354499513,1.0,3.3417018360000004,1.3834697434673267,2.9582320925326737,447.25363
9627953,33.8084,-116.96799999999999,2.691169465,5.897772,0.1548,7.434017999999999,0.6631560000000001,0.043164,53.94267747,34.2875,-116.94183000000001,4.22,8.12,1,252.0,0.7077688282,0.0,2.691169465,0.112175022,0.1023560792,0.1467055575,0.1174500632,0.07115173758,2.588963305829904,0.10220615917009601,2.9747962822011242,-0.28362681720112404,2.7326185788055084,-0.0414491138055082,2.23086369303764,0.4603057719623602,2.213265918332515,0.477903546667485,281.27722
9627953,33.82843,-117.78938000000001,2.0,0.538569,0.0185,0.872109,0.103986,0.005886,93.63595833,34.2875,-116.94183000000001,4.22,8.12,1,394.0,1.949392475,0.0,2.0,0.1288891734,0.12038090130000001,0.1631206873,0.13813292359999998,0.09822815238,1.0,1.0,1.1512905419560582,0.8487094580439418,1.0361806722934568,0.9638193277065432,1.0,1.0,1.0,1.0,430.1118
9627953,34.13677,-118.1283,2.237216143,1.235079,0.0406,1.7834580000000002,0.183447,0.042183,110.678046,34.2875,-116.94183000000001,4.22,8.12,2,398.0,1.32252344,0.0,2.237216143,0.1222315011,0.113150975,0.1566480716,0.1298368331,0.086938587,1.6005014928625112,0.6367146501374887,1.9010335841242214,0.3361825588757785,1.632709538691668,0.604506604308332,1.1121399122105065,1.1250762307894935,2.2015843798717913,0.03563176312820859,499.65768
9627953,34.14844,-118.17113,3.449768282,0.334521,0.0129,0.830907,0.081423,0.005886,114.37175479999999,34.2875,-116.94183000000001,4.22,8.12,1,891.0,0.8898970203000001,0.0,3.449768282,0.11576474269999999,0.1061913725,0.15027856480000001,0.12185092970000001,0.07660412675,1.0,2.449768282,1.0,2.449768282,1.0,2.449768282,1.0,2.449768282,1.0,2.449768282,896.5088
9627953,34.1183,-118.2994,2.0,0.6631560000000001,0.0209,1.624536,0.11281500000000001,0.005886,126.5170564,34.2875,-116.94183000000001,4.22,8.12,2,839.0,1.752539831,0.0,2.0,0.12702974949999998,0.1183552245,0.1613212782,0.1358085295,0.09501191393,1.0,1.0,1.3392691930584708,0.6607308069415292,1.5548851295324606,0.4451148704675394,1.0,1.0,1.0,1.0,881.5123
9627953,34.1192,-118.3004,2.0,0.604296,0.021,1.5028920000000001,0.110853,0.007848,126.59231499999999,34.2875,-116.94183000000001,4.22,8.12,2,682.0,1.888140203,0.0,2.0,0.1283288961,0.11977001300000001,0.1625791587,0.1374319504,0.09725405335000001,1.0,1.0,1.2553079468018722,0.7446920531981278,1.4899861206000904,0.5100138793999096,1.0,1.0,1.0,1.0,577.4633
9627953,34.241,-116.87200000000001,3.6691734389999997,10.790999999999999,0.29,14.5188,2.20725,0.60822,11.56932072,34.2875,-116.94183000000001,4.22,8.12,3,316.0,0.8487544821999999,0.5173693778,3.3430904580000003,0.1150139356,0.1053875172,0.1495335129,0.1209285336,0.07544662336,2.9897250569114653,0.6794483820885344,3.381475537728323,0.2876979012716765,3.22391360223612,0.4452598367638796,3.0194397845139265,0.6497336544860732,3.5575245635566324,0.11164887544336732,351.9
9630113,33.8084,-116.96799999999999,2.691169465,3.7278,0.0828,3.654225,0.200124,0.016677,26.74474383,33.67467,-116.80883,3.29,16.66,3,252.0,0.8591099575,0.3021631734,2.6065875590000003,0.1152058475,0.10559290449999999,0.1497240662,0.1211642084,0.07574163499,2.1895045950737737,0.5016648699262265,2.66598145048913,0.02518801451087027,2.2113747114911284,0.4797947535088718,1.194141089340505,1.4970283756594953,1.216818598935113,1.4743508660648872,281.27722
9630113,33.82434,-116.51208999999999,3.0915846730000003,7.737147,0.1308,2.414241,0.157941,0.015696,36.15556515,33.67467,-116.80883,3.29,16.66,1,273.0,1.211695947,0.0,3.0915846730000003,0.1207745464,0.1115774485,0.1552203291,0.1280312658,0.08455420716,2.481413383662725,0.6101712893372753,3.1575302290134135,-0.06594555601341323,1.885223589540027,1.2063610834599734,1.0,2.0915846730000003,1.1259837603430087,1.9656009126569916,293.50043
9630113,33.57508,-117.26118999999998,2.237216143,3.205908,0.0561,1.003563,0.05886,0.005886,46.41604804,33.67467,-116.80883,3.29,16.66,1,401.0,0.8475307990000001,0.0,2.237216143,0.1149911233,0.10536310689999999,0.149510857,0.12090052359999999,0.07541159486,1.9052494089258705,0.33196673407412947,2.5644540499166597,-0.32723790691665977,1.153250507957994,1.083965635042006,1.0,1.237216143,1.0,1.237216143,677.68884
9630113,33.81841,-116.36873999999999,2.237216143,4.233996,0.09,1.610802,0.11772,0.012753,46.78364044,33.67467,-116.80883,3.29,16.66,1,244.0,1.3681115209999999,0.0,2.237216143,0.12280005220000001,0.1137658732,0.1572041,0.1305424075,0.08787767205,2.2427364888758072,-0.005520345875807298,2.7516931015499275,-0.5144769585499276,1.5478057445748166,0.6894103984251834,1.0,1.237216143,1.0,1.237216143,293.5
9639729,34.12084,-117.63793000000001,2.509329332,4.391937,0.1069,4.3105139999999995,0.247212,0.02943,12.70668097,34.047670000000004,-117.5705,3.35,7.53,8,368.0,1.500900834,0.3325077688,2.683409904,0.12436671810000001,0.1154627166,0.1587330387,0.1324894767,0.09049004301000001,2.3525972266569033,0.15673210534309678,2.776346872027414,-0.26701754002741396,2.332604792086433,0.1767245399135673,1.3932827995222534,1.1160465324777467,2.0186581548656806,0.4906711771343195,351.90024
9639729,34.09957,-117.43876000000002,2.58323659,10.55556,0.2595,6.166566,0.32373,0.036297,15.40248975,34.047670000000004,-117.5705,3.35,7.53,4,295.0,1.3837415000000002,0.09282251467000001,2.601145506,0.1229911793,0.113972688,0.15739087699999998,0.1307797204,0.08819443742000001,2.9187819224111804,-0.33554533241118056,3.3666258962951483,-0.7833893062951485,2.595423999810481,-0.012187409810481054,1.6474188755613204,0.9358177144386794,2.1252223040020595,0.45801428599794036,293.50055
9639729,34.0602,-117.809,3.449768282,2.21706,0.0507,1.60884,0.161865,0.011772,23.26832603,34.047670000000004,-117.5705,3.35,7.53,1,342.0,1.9575199719999998,0.0,3.449768282,0.1289623559,0.1204607273,0.1631913788,0.1382245212,0.09835570191,1.8098672717533395,1.6399010102466605,2.3161849564115453,1.1335833255884546,1.5467894794822263,1.9029788025177736,1.0,2.449768282,1.0,2.449768282,293.50122
9639729,33.78816,-117.844,1.0,0.40221,0.0155,0.669042,0.069651,0.006867,39.06760467,34.047670000000004,-117.5705,3.35,7.53,1,232.0,1.988824678,0.0,1.0,0.1292417747,0.1207655807,0.1634611975,0.13857432990000002,0.09884336364,1.0,0.0,1.0,0.0,1.0,0.0,1.0,0.0,1.0,0.0,447.0045
9644101,33.82843,-117.78938000000001,2.718743473,5.710401,0.2316,19.734776999999998,2.513322,0.36296999999999996,11.41124315,33.87767,-117.68817,3.64,3.59,12,394.0,1.451069179,0.3017119764,2.615428976,0.12379353230000001,0.1148414855,0.1581742011,0.13177663550000002,0.08953009807,2.8461656759314358,-0.1274222029314358,2.9530631546246386,-0.23431968162463868,3.4491931381187912,-0.7304496651187913,3.1045986615328567,-0.3858551885328567,3.2952223040020594,-0.5764788310020594,430.1118
9644101,33.78816,-117.844,2.352009968,5.934069,0.2292,11.308968,1.35378,0.167751,17.86392427,33.87767,-117.68817,3.64,3.59,11,232.0,1.234812332,0.19046900719999998,2.289696553,0.1210877626,0.1119154575,0.1555276167,0.12841911949999998,0.08506410123,2.8395154815441677,-0.4875055135441677,2.978926431719468,-0.6269164637194682,3.040535508810669,-0.688525540810669,2.698861602631636,-0.34685163463163615,2.9030317360024958,-0.5510217680024958,447.0045
9644101,33.8717,-117.92251,2.843519193,6.144984,0.3386,18.404541000000002,2.772306,0.328635,21.94027602,33.87767,-117.68817,3.64,3.59,4,295.0,0.5925261084000001,0.23706509109999999,2.696228943,0.10946161189999999,0.09947077355,0.143986267,0.1141392747,0.06716925706,3.0886398220461873,-0.24512062904618714,3.0024370867603993,-0.15891789376039922,3.3979739152521002,-0.5544547222521001,3.1689141400097034,-0.3253949470097033,3.2447287110767844,-0.4012095180767843,293.62802
9644101,33.94551,-117.92368,2.054308463,4.233015,0.1817,12.276234,0.5738850000000001,0.063765,23.28336656,33.87767,-117.68817,3.64,3.59,3,333.0,1.7312895030000002,0.1363913864,2.1309239030000002,0.12681824949999998,0.1181251257,0.16111620210000002,0.1355444991,0.09464911126,2.6912517431428102,-0.6369432801428103,2.751537115812478,-0.6972286528124783,3.1007707978027814,-1.0464623348027815,2.136049539949862,-0.0817410769498621,2.4115349141158164,-0.3572264511158165,342.56732
9644101,33.7902,-118.1985,1.0,0.505215,0.0344,1.248813,0.644517,0.25604099999999996,48.26307888,33.87767,-117.68817,3.64,3.59,1,207.0,1.968977661,0.0,1.0,0.1290650748,0.1205727836,0.163290585,0.1383531019,0.09853485207999998,1.4443318203802202,-0.44433182038022023,1.0935391019055438,-0.09353910190554382,1.3355598262456645,-0.3355598262456645,2.2121678902010378,-1.2121678902010378,3.1178956804294637,-2.1178956804294637,228.18095
9644101,34.13677,-118.1283,1.0,0.564075,0.0219,1.413621,0.187371,0.032373,49.88828939,33.87767,-117.68817,3.64,3.59,1,398.0,1.5888725330000002,0.0,1.0,0.1253392407,0.1165178537,0.1596797901,0.13370021,0.09212967182,1.0187637292030574,-0.018763729203057355,1.1930891824542993,-0.1930891824542993,1.438924134393506,-0.43892413439350597,1.1320860329538727,-0.13208603295387267,2.0670875965008033,-1.0670875965008033,499.65768
9644101,33.854,-117.81700000000001,2.011329383,14.715,0.77,31.333140000000004,7.48503,1.7069400000000001,12.70054363,33.87767,-117.68817,3.64,3.59,4,293.0,1.8068921000000002,0.14438117849999998,2.093656952,0.1275606845,0.11893312980000001,0.16183572300000001,0.1364716559,0.09592541386,3.613141366003548,-1.601811983003548,3.5902583272693804,-1.5789289442693804,3.7884973041648067,-1.7771679211648066,3.8202562344776387,-1.8089268514776387,4.081868907334316,-2.070539524334316,351.89532
9644101,34.065,-117.89299999999999,2.0,9.81,0.35,15.1074,2.57022,0.73575,28.34714299,33.87767,-117.68817,3.64,3.59,2,369.0,1.155879265,0.8339668084999999,2.532135431,0.1199962183,0.11073815039999998,0.1544558929,0.1270682003,0.08329359991,3.109780025194905,-1.109780025194905,3.3173168757330744,-1.3173168757330744,3.2530813214322647,-1.2530813214322647,3.119279132058585,-1.119279132058585,3.6542479650119644,-1.6542479650119644,430.6017
9644101,33.869,-117.709,4.608273166,142.245,5.43,265.83137999999997,37.66059,11.291310000000001,4.185176223,33.87767,-117.68817,3.64,3.59,30,323.0,1.4209383530000002,0.1739957784,4.616605058999999,0.12343856460000001,0.11445700539999999,0.1578278044,0.1313354578,0.08893802279999999,5.211967461500757,-0.6036942955007571,6.366785763245133,-1.758512597245133,5.888483951350922,-1.2802107853509224,4.87981353146305,-0.27154036546304994,5.1592069150653845,-0.5509337490653845,351.75992
9644101,33.863,-117.742,4.532809637,97.119,4.58,171.13545,28.086029999999997,9.57456,6.344178482,33.87767,-117.68817,3.64,3.59,32,346.0,1.218580526,0.1777866477,4.512889605,0.12086837019999999,0.1116786836,0.15531239730000002,0.1281474296,0.08470678982999999,4.978334910492227,-0.44552527349222704,5.753574374986659,-1.2207647379866593,5.096641615682378,-0.5638319786823782,4.687444417678384,-0.15463478067838388,4.958082573513704,-0.42527293651370446,447.08914
9645945,33.57508,-117.26118999999998,1.0,1.222326,0.0246,1.149732,0.047088,0.004905,50.08381478,33.7045,-116.77617,3.4,16.89,1,401.0,0.8475307990000001,0.0,1.0,0.1149911233,0.10536310689999999,0.149510857,0.12090052359999999,0.07541159486,1.1283291824143333,-0.12832918241433333,1.891657593532021,-0.891657593532021,1.2666303056602248,-0.26663030566022483,1.0,0.0,1.0,0.0,677.68884
9652545,34.09957,-117.43876000000002,2.843519193,8.268849000000001,0.1562,10.55556,0.542493,0.032373,16.56471123,34.22617,-117.43966999999999,3.84,8.73,12,295.0,1.1795834840000001,0.295280735,2.8536885260000004,0.1203306766,0.11109869650000001,0.15478452880000002,0.1274819144,0.08383416890999999,2.5947111134256837,0.2488080795743164,3.202269759180031,-0.358750566180031,2.9899340417669675,-0.14641484876696742,2.099159130435864,0.744360062564136,2.0670875965008033,0.7764315964991968,293.50055
9652545,34.09316,-117.31671000000001,3.517089294,24.119847,0.8477,39.599046,2.380887,0.179523,20.56593117,34.22617,-117.43966999999999,3.84,8.73,7,278.0,1.0970337609999998,0.4035646769,3.3894767989999997,0.1191393334,0.10981520089999999,0.15361290619999998,0.1260091476,0.0819164803,3.6745160092412443,-0.15742671524124452,3.922910464633949,-0.4058211706339492,3.9603378630400465,-0.4432485690400467,3.0690995444269906,0.4479897495730092,2.937494061828278,0.5795952321717217,293.72357
9652545,34.23217,-117.23483,2.237216143,4.510638,0.08,4.464531,0.297243,0.023544,20.76784477,34.22617,-117.43966999999999,3.84,8.73,1,684.0,0.8991694404,0.0,2.237216143,0.1159297705,0.1063681787,0.15044216970000002,0.12205380869999999,0.07685974923,2.167542280878157,0.06967386212184312,2.7942987744796275,-0.5570826314796276,2.358371855224446,-0.12115571222444599,1.566974129876306,0.6702420131236939,1.733498604085109,0.5037175389148909,658.82874
9652545,34.12084,-117.63793000000001,2.471764309,4.068207,0.1575,6.8375699999999995,0.6405930000000001,0.050031,23.36778677,34.22617,-117.43966999999999,3.84,8.73,4,368.0,1.668248247,0.1137276767,2.461405156,0.1261771928,0.1174280883,0.16049410960000002,0.1347446728,0.09355329142,2.6000024204446603,-0.12823811144466024,2.7248046305473017,-0.2530403215473016,2.671234698204278,-0.19947038920427795,2.208163085891131,0.26360122310886913,2.2882833928782613,0.18348091612173878,351.90024
9652545,33.99351,-117.37545,3.022262388,10.232811,0.1096,2.117979,0.149112,0.016677,27.93668337,34.22617,-117.43966999999999,3.84,8.73,29,343.0,1.43538722,0.1406616435,2.99888325,0.12360959630000001,0.1146422338,0.1579947365,0.131548001,0.08922306776000001,2.3685215145980747,0.6537408734019254,3.3457220911076018,-0.32345970310760164,1.7760543645123699,1.2462080234876303,1.0,2.022262388,1.216818598935113,1.8054437890648871,447.25363
9652545,34.0046,-117.5609,3.0915846730000003,8.239419,0.1903,8.176635000000001,0.44439300000000004,0.052974,28.42130384,34.22617,-117.43966999999999,3.84,8.73,1,346.0,0.4441718136,0.0,3.0915846730000003,0.1051934054,0.09495678972,0.1396752223,0.1089596343,0.06115113734,2.7207750187819197,0.37080965421808054,3.199869626686257,-0.1082849536862569,2.8025017742558425,0.2890828987441578,1.9459767243941497,1.1456079486058506,2.317326985836549,0.7742576871634514,293.49994
9652545,33.99879,-117.68043999999999,2.486840165,5.706477,0.2251,10.228887,0.60822,0.055916999999999994,34.7389338,34.22617,-117.43966999999999,3.84,8.73,3,322.0,0.89772366,0.20724866260000002,2.560017796,0.1159041367,0.1063407126,0.1504167607,0.1220222923,0.07682001504,2.8279919776507643,-0.34115181265076444,2.952600424620544,-0.4657602596205441,2.9668606445027805,-0.4800204795027807,2.174155633308132,0.31268453169186783,2.3447998679804902,0.1420402970195096,293.49954
9652545,34.0602,-117.809,2.53908532,3.862197,0.1664,8.959473,0.55917,0.061803,39.64917219,34.22617,-117.43966999999999,3.84,8.73,4,342.0,1.447134434,0.1291832283,2.5715233680000003,0.1237475447,0.1147916641,0.1581293376,0.13171946710000002,0.08945328807,2.6350953832734163,-0.09601006327341643,2.68982326865793,-0.15073794865793033,2.8696080466436076,-0.3305227266436077,2.119015214231231,0.4200701057687688,2.3956547297043653,0.14343059029563454,293.50122
9652545,33.87574,-117.56106000000001,2.8972689289999995,3.406032,0.1106,6.790482000000001,0.260946,0.026487,41.46850406,34.22617,-117.43966999999999,3.84,8.73,4,362.0,1.051154468,0.2694508943,2.9389312089999997,0.11844299929999999,0.1090660031,0.1529267799,0.1251494689,0.08080572609,2.3743200366439585,0.522948892356041,2.605215436314978,0.29205349268502134,2.666162698697846,0.23110623030215338,1.444236777515719,1.4530321514842806,1.9099748065285755,0.987294122471424,351.81018
9652545,33.94551,-117.92368,3.0915846730000003,6.354918,0.2376,11.243241000000001,0.408096,0.042183,55.10815118,34.22617,-117.43966999999999,3.84,8.73,1,333.0,1.336093716,0.0,3.0915846730000003,0.12240250720000001,0.1133358708,0.15681537710000001,0.1300489946,0.08722053476,2.862494261374459,0.22909041162554145,3.025050338428019,0.0665343345719811,3.036257349393817,0.05532732360618331,1.8656761534863353,1.225908519513665,2.2015843798717913,0.8900002931282089,342.56732
