event_id,sta_lat,sta_lon,mmi,pga,pgv,psa03,psa10,psa30,r_hypo,hypo_lat,hypo_lon,magnitude,hypo_depth,n_dyfi,vs30,inst_to_mmi_dist,std_mmi_boot,mean_mmi_boot,std_pga_at_dyfi,std_pgv_at_dyfi,std_psa03_at_dyfi,std_psa10_at_dyfi,std_psa30_at_dyfi,mmi_from_pgv,mmi_res_pgv,mmi_from_pga,mmi_res_pga,mmi_from_psa03,mmi_res_psa03,mmi_from_psa10,mmi_res_psa10,mmi_from_psa30,mmi_res_psa30,CA Vs30
9703873,33.81,-117.9817,2.754321745,3.336381,0.2795,9.708957,3.486474,0.389457,47.30198512,34.059,-118.3885,4.24,7.9,4,237.0,1.469484391,0.40102678659999996,2.9942166560000003,0.12400732519999999,0.11507314269999999,0.1583827156,0.132042454,0.08988758835,2.96618126396699,-0.21185951896698985,2.5913071552287934,0.16301458977120653,2.928572336966503,-0.17425059196650317,3.3192274916043862,-0.5649057466043863,3.33101117975652,-0.5766894347565201,229.89532
9703873,34.28085,-118.9049,3.449768282,2.5192080000000003,0.14,3.775869,1.2811860000000002,0.077499,54.11120074,34.059,-118.3885,4.24,7.9,2,331.0,1.4867132809999999,0.1312196871,3.1453122139999996,0.1242052387,0.11528765310000001,0.15857566480000002,0.1322885974,0.09021912052999999,2.5248082124470095,0.9249600695529905,2.4021891557981387,1.0475791262018612,2.235409272968501,1.214359009031499,2.6627183793437426,0.7870499026562574,2.510649983653491,0.939118298346509,293.49924
9703873,33.684740000000005,-117.94286000000001,2.0,3.162744,0.2483,8.249229,2.1650669999999996,0.267813,59.05101708,34.059,-118.3885,4.24,7.9,2,211.0,1.2307432059999999,0.09735145088,2.047443229,0.1210330008,0.11185635039999998,0.1554739054,0.12835129609999998,0.08497484561,2.8906157777452095,-0.8906157777452095,2.5553291770893067,-0.5553291770893067,2.8089892589097545,-0.8089892589097545,3.0067857052398677,-1.0067857052398677,3.1407365838813597,-1.1407365838813597,224.07312
9703873,33.78816,-117.844,1.0,0.9084059999999999,0.064,2.77623,0.8603370000000001,0.146169,59.10497512,34.059,-118.3885,4.24,7.9,2,232.0,1.439842928,0.0,1.0,0.12366203560000001,0.11469903449999999,0.1580459077,0.13161317779999998,0.08931055015,2.025084561756314,-1.025084561756314,1.6235309177982908,-0.6235309177982908,2.0096903792546925,-1.0096903792546925,2.4015735681484904,-1.4015735681484904,2.833054220886036,-1.8330542208860359,447.0045
9703873,33.70432,-117.88578000000001,2.498852898,2.5623720000000003,0.2042,7.307469,2.4211080000000003,0.320787,61.41220268,34.059,-118.3885,4.24,7.9,5,213.0,1.421824578,0.31609232190000003,2.537550944,0.1234490984,0.1144684124,0.1578380874,0.1313485469,0.08895556633,2.76578193449381,-0.26692903649380995,2.4136252932677804,0.08522760473221958,2.720016879742085,-0.22116398174208518,3.080085366761187,-0.5812324687611872,3.23244715745621,-0.7335942594562099,227.45026
9703873,34.39727,-118.91807,2.0,1.604916,0.0819,6.328431,0.8436600000000001,0.110853,62.02900934,34.059,-118.3885,4.24,7.9,1,280.0,0.6775668362,0.0,2.0,0.1115033866,0.10164078210000001,0.1460339751,0.1166292845,0.07015474831,2.1825273355878148,-0.18252733558781475,2.098680989702796,-0.09868098970279604,2.6144410040195862,-0.6144410040195862,2.3887368435435565,-0.38873684354355653,2.6925280657192765,-0.6925280657192765,351.9
9703873,34.61462,-118.29104,3.449768282,6.50403,0.2468,15.621444,0.583695,0.05787899999999999,62.92468524,34.059,-118.3885,4.24,7.9,1,391.0,1.370599387,0.0,3.449768282,0.1228306015,0.1137989263,0.15723395869999998,0.1305803348,0.08792826674000001,2.88674737838097,0.5630209036190301,3.0406628447604724,0.4091054372395275,3.2776394686800243,0.17212881331997565,2.1471648004158785,1.3026034815841214,2.3623231404649836,1.0874451415350164,351.9001
9703873,34.12084,-117.63793000000001,1.0,1.244889,0.0338,2.059119,0.27271799999999996,0.020600999999999998,69.90665551,34.059,-118.3885,4.24,7.9,1,368.0,0.4216192125,0.0,1.0,0.10443870539999998,0.09416182999,0.13890854449999998,0.1080474455,0.06011866615,1.4277492396025115,-0.42774923960251154,1.9081802394568532,-0.9081802394568532,1.7525531733088555,-0.7525531733088555,1.485820833168529,-0.485820833168529,1.5334263870120894,-0.5334263870120894,351.90024
9703873,33.48725,-117.68113999999998,2.0,0.8829,0.0392,2.211174,0.564075,0.07848,91.53642055,34.059,-118.3885,4.24,7.9,2,324.0,1.164276149,0.4103913408,1.8,0.12011537369999999,0.1108665806,0.1545729995,0.1272155694,0.08348598916,1.5674307654343926,0.43256923456560736,1.5978044851336635,0.40219551486633653,1.8119608017140156,0.18803919828598437,2.1247426276471115,-0.12474262764711153,2.5170415716242496,-0.5170415716242496,351.9
9703873,34.396809999999995,-119.29923000000001,1.0,0.52974,0.025,1.272357,0.31490100000000004,0.041201999999999996,92.10813498,34.059,-118.3885,4.24,7.9,1,374.0,0.7647230304000001,0.0,1.0,0.11337642210000001,0.10363738800000001,0.14790442439999998,0.1189203208,0.07295341336,1.143529818818322,-0.14352981881832205,1.1363590859316417,-0.1363590859316417,1.3511340453120801,-0.35113404531208015,1.6213595463448764,-0.6213595463448764,2.189627956609219,-1.1896279566092192,446.89813
9703873,33.99351,-117.37545,2.8972689289999995,1.786401,0.0426,1.315521,0.081423,0.010791,93.97474292,34.059,-118.3885,4.24,7.9,2,343.0,0.5866596199,0.1376901551,2.8846072119999997,0.1093115459,0.09931155181,0.1438353991,0.1139565733,0.06695253597999999,1.6458188300529,1.2514500989470996,2.1707972917152003,0.7264716372847992,1.378952544705717,1.5183163842942826,1.0,1.8972689289999995,1.0,1.8972689289999995,447.25363
9703873,33.82434,-116.51208999999999,1.0,0.38160900000000003,0.0238,1.1203020000000001,0.228573,0.03924,175.2262569,34.059,-118.3885,4.24,7.9,1,273.0,0.9718909738,0.0,1.0,0.1171750071,0.1077036571,0.1516748479,0.12358622400000001,0.07880247272999999,1.097171996812631,-0.097171996812631,1.0,0.0,1.2450082107375189,-0.24500821073751888,1.3194059746527655,-0.31940597465276555,2.1648364766973915,-1.1648364766973915,293.50043
9703873,34.309,-118.448,3.517089294,22.079367,1.0689,47.326383,4.625415,0.449298,29.41316069,34.059,-118.3885,4.24,7.9,5,385.0,1.121376958,0.2577655684,3.461913115,0.1194985555,0.1102019829,0.1539664808,0.1264529666,0.08249242066000001,3.8225375032938964,-0.3054482092938966,3.863409172685156,-0.346319878685156,4.091175281466639,-0.5740859874666393,3.5046015447465235,0.012487749253476288,3.4036388961082022,0.11345039789179756,375.85852
9703873,34.247,-118.603,3.01050008,9.698166,0.3533,13.185621,2.124846,0.146169,29.81610007,34.059,-118.3885,4.24,7.9,11,289.0,1.211994955,0.3023542377,3.0151794560000003,0.120778631,0.11158185550000001,0.1552243375,0.1280363226,0.08456084695,3.1157711470292226,-0.10527106702922273,3.3095988152264484,-0.2990987352264485,3.153220675266229,-0.14272059526622893,2.9944884451226144,0.01601163487738555,2.833054220886036,0.17744585911396404,293.33435
9703873,34.173,-118.54899999999999,4.080363933,23.222232,0.7143,21.056184,3.6218519999999996,0.34629299999999996,21.0097462,34.059,-118.3885,4.24,7.9,7,272.0,1.4669190580000002,0.5415892167,4.068756536,0.12397768349999999,0.1150410201,0.1583538108,0.13200559439999998,0.08983798347000001,3.565204555683077,0.5151593773169232,3.8973810515695684,0.18298288143043173,3.496762318050603,0.583601614949397,3.344209337620119,0.7361545953798809,3.271322692147428,0.8090412408525722,292.1154
9703873,34.073,-118.177,4.104817977,19.321776,0.7974,37.575243,7.801893,0.46205100000000005,21.08028408,34.059,-118.3885,4.24,7.9,4,425.0,1.481608944,0.5457739839,3.760625707,0.1241468132,0.11522432210000001,0.1585187126,0.1322159272,0.09012119048,3.635464060049772,0.46935391695022766,3.7736028308932976,0.3312151461067021,3.9218347191314242,0.1829832578685755,3.847445965669431,0.25737201133056864,3.417860748184484,0.6869572288155159,359.4206
9703873,34.131,-118.492,2.0,29.841039000000002,1.1904,35.367993,4.278141000000001,0.42183000000000004,14.74231483,34.059,-118.3885,4.24,7.9,1,369.0,1.305993601,0.0,2.0,0.12202112,0.11292356560000001,0.1564421651,0.1295758887,0.08659231809000001,3.891268589756651,-1.8912685897566508,4.066191521684874,-2.066191521684874,3.8774022836896407,-1.8774022836896407,3.453419173042643,-1.4534191730426431,3.3715843798717917,-1.3715843798717917,339.10144
9703873,34.193000000000005,-118.51,3.9751771430000002,20.618658,0.8438,54.500436,5.653503,0.42183000000000004,20.23613134,34.059,-118.3885,4.24,7.9,13,281.0,1.282739919,0.20275189010000003,3.965485531,0.1217211954,0.11259947890000001,0.1561484705,0.1292040103,0.08609981361999999,3.6715720959374174,0.30360504706258284,3.8173335266701445,0.15784361632985577,4.194766641231964,-0.21958949823196372,3.6362235977336166,0.33895354526638366,3.3715843798717917,0.6035927631282085,290.14944
9703873,33.896,-118.37700000000001,3.032640948,6.898391999999999,0.4534,16.264979999999998,3.8239379999999996,0.528759,19.80004687,34.059,-118.3885,4.24,7.9,14,307.0,1.209573588,0.3003797616,3.0556755769999997,0.12074552890000001,0.1115461416,0.155191851,0.1279953422,0.08450704397,3.275027828212033,-0.2423868802120328,3.080289111934933,-0.047648163934932874,3.3072691525207327,-0.27462820452073267,3.3798153526859886,-0.3471744046859886,3.4863851421121597,-0.4537441941121596,407.42566
9703873,34.185,-118.447,3.79283127,41.494338,1.9295,72.44685,14.358897,0.893691,16.96185618,34.059,-118.3885,4.24,7.9,23,286.0,1.566763629,0.1998579032,3.8361336460000004,0.1250993369,0.11625744269999999,0.1594464097,0.1334013974,0.09172393909,4.199603830873901,-0.4067725608739008,4.387107536600395,-0.5942762666003945,4.4036836476237085,-0.6108523776237083,4.247476812141981,-0.45464554214198083,3.753062787902083,0.03976848209791717,291.93518
9703873,34.108000000000004,-118.26299999999999,4.585807145,59.841,1.71,86.55363,13.469129999999998,3.63951,15.02263337,34.059,-118.3885,4.24,7.9,31,322.0,1.200272779,0.1816261259,4.558752013,0.1206178397,0.11140839289999999,0.1550665158,0.1278372803,0.08429965795,4.122504282276466,0.46330286272353405,4.975444544515563,-0.3896373995155624,4.534262815111819,0.05154432988818147,4.205526693393269,0.3802804516067315,4.466593761093279,0.11921338390672176,520.80176
9703873,34.222,-118.57,3.0915846730000003,29.43,1.48,69.53328,11.78181,3.22749,25.88308707,34.059,-118.3885,4.24,7.9,12,281.0,1.43662345,0.1629188391,3.1233739910000002,0.12362415970000001,0.114658008,0.1580089483,0.1315661014,0.08924735932,4.030284721630587,-0.938700048630587,4.056854820548551,-0.965270147548551,4.373556371224142,-1.2819716982241416,4.117754123344158,-1.0261694503441574,4.405545487445145,-1.3139608144451445,292.25717
9703873,34.165,-118.15,3.296795237,11.772,0.5,25.64334,4.10058,1.0791,26.14280684,34.059,-118.3885,4.24,7.9,10,440.0,1.5101947740000001,0.2451454775,3.35922639,0.1244717788,0.1155766357,0.1588354016,0.13262019490000002,0.09066651223,3.3374859063739475,-0.0406906693739475,3.440047807106893,-0.14325257010689318,3.6414177389018905,-0.3446225019018905,3.4256203676460717,-0.1288251306460717,3.8488557284787985,-0.5520604914787985,519.0916
9703873,34.144,-118.262,3.432727645,22.563000000000002,0.96,44.68455,6.97491,2.04048,16.95300849,34.059,-118.3885,4.24,7.9,16,324.0,1.3448222619999999,0.2062533764,3.415025497,0.1225117011,0.11345395650000001,0.1569221783,0.1301844938,0.08740079707999998,3.753938712568165,-0.3212110675681652,3.877995021560343,-0.4452673765603432,4.049016667630881,-0.6162890226308813,3.7739672792677164,-0.3412396342677164,4.172560388750107,-0.7398327437501067,449.70248
9703873,34.23,-118.25299999999999,3.117776718,30.410999999999998,0.63,24.525,4.43412,1.33416,24.07175032,34.059,-118.3885,4.24,7.9,17,354.0,1.377544195,0.1766633076,3.0810170119999998,0.12291562369999999,0.1138909243,0.1573170495,0.1306858993,0.0880691503,3.485030607696765,-0.367253889696765,4.078927501176197,-0.9611507831761967,3.6086899178743854,-0.4909131998743854,3.4769032187309556,-0.35912650073095564,3.95666680963683,-0.8388900916368298,342.08154
9703873,34.126999999999995,-118.346,3.449768282,48.068999999999996,1.33,109.74446999999999,8.80938,2.77623,11.61458183,34.059,-118.3885,4.24,7.9,8,448.0,1.126855454,0.21789858039999999,3.3997402780000003,0.11957846130000001,0.1102880458,0.15404509519999998,0.1265517208,0.08262080353,3.962061912221616,-0.5122936302216159,4.623449651081225,-1.1736813690812253,4.70849735157548,-1.2587290695754803,3.927091450533399,-0.47732316853339896,4.329016416407095,-0.8792481344070948,352.16473
9703873,33.993,-118.34200000000001,3.721881471,56.898,2.6,98.94366,17.873820000000002,5.5818900000000005,11.60312701,34.059,-118.3885,4.24,7.9,3,360.0,1.13919906,0.2002880568,3.724899193,0.1197572633,0.11048066039999999,0.15422096119999998,0.1267727394,0.08290843607000001,4.3900108215171025,-0.6681293505171024,4.8944077311585925,-1.1725262601585924,4.632456352079705,-0.9105748810797052,4.391072224847608,-0.6691907538476083,4.683907638525909,-0.962026167525909,453.99106
9703873,33.883,-118.117,3.5281809839999996,8.829,0.47,20.1105,4.91481,1.11834,32.74510784,34.059,-118.3885,4.24,7.9,4,249.0,1.2579794690000001,0.4586087535,3.5467373369999997,0.1213965776,0.1122488608,0.15583039740000001,0.12880168820000001,0.08556828272,3.2979838511655046,0.23019713283449494,3.2463927653640274,0.28178821863597214,3.463035328402867,0.06514565559713237,3.54439914822531,-0.016218164225310527,3.867004962907348,-0.3388239789073486,230.58044
9703873,33.898,-118.209,3.0915846730000003,17.658,0.76,56.07396,7.48503,1.61865,25.62912668,34.059,-118.3885,4.24,7.9,1,249.0,1.756815389,0.0,3.0915846730000003,0.1270720324,0.1184012332,0.1613622668,0.1358613229,0.09508451994999999,3.604795980652763,-0.5132113076527629,3.7129892586431983,-0.621404585643198,4.215657155219638,-1.124072482219638,3.8202562344776387,-0.7286715614776385,4.054882501573945,-0.9632978285739449,234.61522
9703873,34.273,-118.464,2.0,22.563000000000002,1.24,48.4614,9.81981,2.76642,26.01724895,34.059,-118.3885,4.24,7.9,2,319.0,1.655164811,0.7744433062,2.3412131030000003,0.126041504,0.1172806261,0.1603623368,0.134575465,0.09332208887,3.9173298771884855,-1.9173298771884855,3.877995021560343,-1.8779950215603431,4.108569846899606,-2.1085698468996057,3.9982996391595402,-1.9982996391595402,4.327217743577328,-2.327217743577328,476.31924
9703873,34.041,-118.24799999999999,3.80545312,111.834,4.62,249.34077000000002,36.81693,9.89829,15.29613455,34.059,-118.3885,4.24,7.9,33,299.0,1.284060853,0.1476164322,3.799425252,0.1217383592,0.1126180218,0.1561652825,0.1292252877,0.08612796191,4.990268642757357,-1.184815522757357,5.980272104920674,-2.174818984920674,5.773338340374478,-1.9678852203744777,4.864955814429523,-1.059502694429523,4.987082601312812,-1.1816294813128119,303.90195
9703873,34.075,-118.21799999999999,3.647859262,16.677,0.49,24.68196,4.22811,1.06929,17.66989627,34.059,-118.3885,4.24,7.9,6,337.0,1.4978706330000002,0.5079601243999999,3.7135872130000003,0.12433234130000001,0.1154254447,0.15869954,0.1324467085,0.09043233549,3.324588237641915,0.32327102435808497,3.674512703869399,-0.02665344186939933,3.613372279365403,0.03448698263459704,3.4457048601084734,0.20215440189152645,3.844215289434205,-0.19635602743420533,445.5487
9703873,34.045,-118.522,2.895363858,26.487,1.42,67.45356,12.39984,2.97243,14.70040607,34.059,-118.3885,4.24,7.9,7,375.0,1.203840363,0.5486452695,2.6119274530000003,0.12066692009999999,0.111461337,0.15511469519999999,0.1278980319,0.08437934244999999,4.003863866243093,-1.1085000082430931,3.9859307101795043,-1.0905668521795042,4.351268920164017,-1.455905062164017,4.151282263824782,-1.2559184058247816,4.363714162191372,-1.4683503041913721,447.53827
9703873,34.262,-118.669,2.691169465,12.753,0.46,23.514570000000003,3.08034,0.97119,35.18560206,34.059,-118.3885,4.24,7.9,1,600.0,0.8443423402,0.0,2.691169465,0.11493154800000001,0.1052993624,0.1494516848,0.120827379,0.07532015567000001,3.284254012571914,-0.5930845475719138,3.4939290718086715,-0.8027596068086713,3.577810280735517,-0.8866408157355168,3.238007950756324,-0.5468384857563238,3.7953194645228088,-1.1041499995228086,413.3815
9703873,34.15,-118.154,3.390116276,24.525,0.76,52.23825,7.37712,1.62846,25.11885183,34.059,-118.3885,4.24,7.9,29,435.0,1.462316208,0.1730011584,3.2987781380000003,0.12392438509999999,0.1149832642,0.1583018335,0.1319393216,0.08974882204,3.604795980652763,-0.2146797046527631,3.9341238891747325,-0.5440076131747325,4.163651447685853,-0.7735351716858525,3.8107331214591484,-0.42061684545914835,4.057952749850539,-0.6678364738505391,526.7102
9703873,33.909,-118.315,3.5533983460000003,16.677,0.81,26.17308,8.61318,1.84428,19.66043582,34.059,-118.3885,4.24,7.9,7,308.0,1.526730867,0.4271102728,3.3847047439999995,0.12465731890000001,0.1157778593,0.1590161262,0.1328510921,0.0909785524,3.645472977751615,-0.09207463175161479,3.674512703869399,-0.12111435786939895,3.656425347881866,-0.10302700188186575,3.9123209011839837,-0.3589225551839834,4.12119097048218,-0.56779262448218,228.2041
9703873,34.115,-118.13,3.399346538,7.848,0.42,24.83892,3.0312900000000003,0.9613799999999999,25.84333174,34.059,-118.3885,4.24,7.9,9,402.0,1.709346663,0.4944937028,3.341023532,0.126597464,0.1178849934,0.1609020342,0.13526895560000002,0.09427104881000001,3.2261764568849136,0.17317008111508647,3.1671063555705867,0.23224018242941336,3.618024958492229,-0.21867842049222874,3.227481486097269,0.17186505190273094,3.7901607954038945,-0.3908142574038944,431.63528
9703873,34.029,-118.48299999999999,4.098954651000001,82.404,4.15,154.1151,38.03337,9.64323,12.22083383,34.059,-118.3885,4.24,7.9,73,383.0,1.2563300290000001,0.1113641319,4.103096078,0.1213747555,0.1122252965,0.15580900779999998,0.128774649,0.08553260795,4.843031985610213,-0.7440773346102123,5.489557513404687,-1.3906028624046867,4.957709055936197,-0.8587544049361968,4.886272841686656,-0.7873181906866558,4.961713902707274,-0.8627592517072733,463.13812
9703873,34.031,-118.208,3.449768282,13.734000000000002,0.55,22.76901,6.19011,1.28511,18.67292453,34.059,-118.3885,4.24,7.9,1,400.0,0.8848368914,0.0,3.449768282,0.1156740514,0.1060942265,0.15018863130000001,0.12173945800000001,0.07646383325,3.398333153556538,0.051435128443461764,3.5438153310343434,-0.09404704903434347,3.5541622905891437,-0.10439400858914372,3.6956885146244116,-0.24592023262441165,3.9376337027609196,-0.48786542076091965,440.88754
9703873,33.827,-118.21600000000001,2.138670112,11.772,0.48,18.511470000000003,4.14963,1.03005,31.3227495,34.059,-118.3885,4.24,7.9,2,225.0,1.907906958,0.06871111699,2.133007285,0.1285114177,0.11996897349999999,0.1627556353,0.13766025070000001,0.09757091716,3.3114246189421133,-1.1727545069421135,3.440047807106893,-1.3013776951068934,3.402225814497376,-1.263555702497376,3.4334181369020826,-1.2947480249020829,3.825217766755503,-1.6865476547555032,291.49194
9703873,34.059,-118.24600000000001,3.807751692,46.107,2.0,98.25695999999999,15.274170000000002,4.247730000000001,15.32100924,34.059,-118.3885,4.24,7.9,35,393.0,1.160260133,0.1517540027,3.802518858,0.1200584785,0.1108052542,0.1545170861,0.1271451995,0.08339409865,4.222514093626052,-0.41476240162605205,4.556486229337882,-0.7487345373378815,4.627344697032781,-0.8195930050327807,4.287999987143631,-0.4802482951436309,4.545117125577113,-0.7373654335771125,332.08835
9703873,33.868,-118.289,2.0,13.734000000000002,0.56,29.94993,5.67018,1.1870100000000001,24.44743733,34.059,-118.3885,4.24,7.9,5,283.0,1.17908791,0.08968032138,2.028813748,0.1203237444,0.1110912219,0.1547777196,0.1274733376,0.08382294747999999,3.4098363996991146,-1.4098363996991146,3.5438153310343434,-1.5438153310343434,3.755359602483381,-1.7553596024833809,3.638155218180768,-1.638155218180768,3.897285170113922,-1.8972851701139222,293.34128
9703873,34.024,-118.28399999999999,4.449116409,169.713,7.25,280.72296,52.8759,15.43113,13.04860913,34.059,-118.3885,4.24,7.9,31,335.0,0.671233874,0.1886064137,4.454120255,0.1113592583,0.1014873792,0.1458897297,0.11645326,0.06994176066,5.608668100764341,-1.1595516917643405,6.650494736552268,-2.201378327552268,5.98648474257946,-1.53736833357946,5.197877702671165,-0.7487612936711647,5.567523646035805,-1.1184072370358047,334.53104
